True Id;Source;Site name;Address;Zip;Phone;Fax;Program Name;Length of Day;IDHS Provider ID;Agency;Neighborhood;Funded Enrollment;Program Option;Number per Site EHS;Number per Site HS;Director;Head Start Fund;Eearly Head Start Fund;CC fund;Progmod;Website;Executive Director;Center Director;ECE Available Programs;NAEYC Valid Until;NAEYC Program Id;Email Address;Ounce of Prevention Description;Purple binder service type;Column;Column2
482060651;chapin_dfss_providers_2011_070212.csv;CHICAGO PUBLIC SCHOOLS MCNAIR ACADEMY CENTER, RONALD E.;4820 W WALTON ;60651;5348980;;;;;;;CHICAGO PUBLIC SCHOOLS;AUSTIN;;;;;Dr. Shirley  Dillard;Yes;No;No;;;;;;;;;;
482060651;DFSS_AgencySiteLies_2012.csv;Chicago Public Schools McNair Academy Center, Ronald E.;4820 W. Walton ;60651;5348980;;;;;;;Chicago Public Schools;;;;;;;;;;;www.cps.edu;Paula Cottone;Dr. Shirley Dillard;;;;;;
482060651;ECE Chicago Find a School scrape.csv; McNair Acad Ctr;4820 W. Walton ;60651;5348980;;;;;;Austin;;;;;;;;;;;;;HS-HD;;;;;;;
483760644;CPS_Early_Childhood_Portal_scrape.csv; Nash;4837 W. Erie ;;5346125;;Head Start;5-6 hours;;;;;;;;;;;;;;;;;;;;;;;
483760644;chapin_dfss_providers_2011_070212.csv;CHICAGO PUBLIC SCHOOLS NASH, HENRY H.;4837 W ERIE ST ;60644;5346125;;;;;;;CHICAGO PUBLIC SCHOOLS;AUSTIN;;;;;Ms. Tresa D.  Dunbar;Yes;No;No;;;;;;;;;;
483760644;DFSS_AgencySiteLies_2012.csv;Chicago Public Schools Nash, Henry H.;4837 W. Erie St. ;60644;5346125;;;;;;;Chicago Public Schools;;;;;;;;;;;www.cps.edu;Paula Cottone;Ms. Tresa D. Dunbar;;;;;;
483760644;ECE Chicago Find a School scrape.csv; Nash;4837 W. Erie ;60644;5346125;;;;;;Austin;;;;;;;;;;;;;HS-HD;;;;;;;
484360639;chapin_dfss_providers_2011_070212.csv;CHICAGO COMMONS ASSOCIATION JOYFUL NOISE DAY CARE;4843 W NORTH AVE ;60639;2525990;;;;;;;CHICAGO COMMONS ASSOCIATION;AUSTIN;;;;;Mary Gonzalez;Yes;No;No;;;;;;;;;;
484360639;DFSS_AgencySiteLies_2012.csv;Chicago Commons Association Joyful Noise Day Care;4843 W North Ave ;60639;2525990;;;;;;;Chicago Commons Association;;;;;;;;;;;www.chicagocommons.org;Dan Valliere;Maria Gonzalez;;;;;;
484860630;chapin_dfss_providers_2011_070212.csv;ERIE NEIGHBORHOOD HOUSE FCCH-MARIA YOLANDA GUERRO SITE;4848 N KEELER ST ;60630;4322213;;;;;;;ERIE NEIGHBORHOOD HOUSE;ALBANY PARK;;;;;Cynthia Suarez;No;Yes;No;5686IP(EHS Collaboration Enhanced Home IP), 5689IT(Child Car;;;;;;;;;
484860640;CPS_Early_Childhood_Portal_scrape.csv; Lutheran Social Services of Illinois - Winthrop Children's Center / LSSI;4848 N Winthrop Ave ;;8783210;;Child Care;EXTENDED DAY;;;;;;;;;;;;;;;;;;;;;;;
484860640;CPS_Early_Childhood_Portal_scrape.csv; Lutheran Social Services Winthrop;4848 N. Winthrop ;;8783210;;Community Partnerships;8-11 Hours, varies by facility;;;;;;;;;;;;;;;;;;;;;;;
484860640;CPS_Early_Childhood_Portal_scrape.csv; Lutheran Social Services of Illinois - Winthrop Children's Center / LSSI;4848 N Winthrop Ave ;;8783210;;Head Start;HALF DAY/FULL DAY;;;;;;;;;;;;;;;;;;;;;;;
484860640;chapin_dfss_providers_2011_070212.csv;LUTHERAN SOCIAL SERVICES OF ILLINOIS WINTHROP CHILDREN'S CENTER;4848 N WINTHROP ;60640;8783210;;;;;;;LUTHERAN SOCIAL SERVICES OF ILLINOIS;UPTOWN;;;;;;Yes;No;No;2664IT(Child Care IT Center), 7133PS(HS Collaboration with C;;;;;;;;;
484860640;DFSS_AgencySiteLies_2012.csv;Lutheran Social Services of Illinois WINTHROP CHILDREN'S CENTER;4848 N. Winthrop ;60640;8783210;;;;;;;Lutheran Social Services of Illinois;;;;;;;;;;;www.lssi.org;John Schnier;;;;;;;
484860640;ECE Chicago Find a School scrape.csv; Lutheran Social Services-Winthrop;4848 N. Winthrop ;60640;8783210;;;;;;Uptown;;;;;;;;;;;;;CP;;;;;;;
484860640;NAEYC_accreditation.csv; Winthrop Children's Center;4848 North Winthrop  ;60640;8783210;;;;;;;;;;;;;;;;;;;;;;09/30/12;395889;;;
484860640;purple_binder_early_childhood.csv; Lutheran Social Services - Winthrop Children's Center;4848 N Winthrop Avenue ;60640;8783210;;;;;;;;;;;;;;;;;;;;;;;;;;Child Care
485960615;chapin_ounce_providers_2011_071112.csv;Healthy Parents and Babies Program (Directly Operated Programs) Hayes Center;4859 S. Wabash Ave. 2nd floor ;60615;3738670;;;;;Healthy Parents and Babies Program (Directly Operated Programs);Grand Boulevard, Kenwood, Washington Park Brighton Park  McKinley Park West Humboldt Park ;57  Early Head Start;Early Head Start Services to Pregnant Women  Early Head Start  Home Based;57;--     ;;;;;;;;;;;;;;;;
485960615;Ounce of Prevention - Site Locations.csv; Ounce of Prevention Fund - Doula Home Visiting;Hayes Center 4859 S. Wabash ;60615;3738670;;;;;;;;;;;;;;;;;;;;;;;Grand Boulevard Community  Serves children ages 0-5;;;
490660625;chapin_dfss_providers_2011_070212.csv;ERIE NEIGHBORHOOD HOUSE FCCH-PATRICIA CASTANDA SITE;4906 N LAWNDALE ;60625;4322213;;;;;;;ERIE NEIGHBORHOOD HOUSE;ALBANY PARK;;;;;Cythnia Suarez;No;Yes;No;5679IP(EHS Collaboration Enhanced Home IP), 5680IT(Child Car;;;;;;;;;
490860625;CPS_Early_Childhood_Portal_scrape.csv; Ravenswood Community Child Care;4908 N. Damen ;;2714495;;Community Partnerships;8-11 Hours, varies by facility;;;;;;;;;;;;;;;;;;;;;;;
490860625;ECE Chicago Find a School scrape.csv; Ravenswood Community CCC;4908 N. Damen ;60625;2714495;;;;;;Lincoln Square;;;;;;;;;;;;;CP;;;;;;;
490860625;NAEYC_accreditation.csv; Ravenswood Community Child Care Center;4908 North Damen Avenue  ;60625;2714495;;;;;;;;;;;;;;;;;;http://rc4cares.com;;;;09/30/12;600291;directorrc4cares@gmail.com;;
490960651;CPS_Early_Childhood_Portal_scrape.csv; Westside Holistic Family Services - Westside Holistic Family Service;4909 W Division St ;;9218777;;Head Start;HALF DAY/FULL DAY;;;;;;;;;;;;;;;;;;;;;;;
490960651;chapin_dfss_providers_2011_070212.csv;WESTSIDE HOLISTIC FAMILY SERVICES WESTSIDE HOLISTIC FAMILY SERVICES;4909 W DIVISION ;60651;9218777;;;;;;;WESTSIDE HOLISTIC FAMILY SERVICES;AUSTIN;;;;;Florence Merritt;Yes;No;No;;;;;;;;;;
490960651;DFSS_AgencySiteLies_2012.csv;Westside Holistic Family Services WESTSIDE HOLISTIC FAMILY SERVICES;4909 W. Division ;60651;9218777;;;;;;;Westside Holistic Family Services;;;;;;;;;;;;Jo Anne Anderson;Florence Merritt;;;;;;
490960651;ECE Chicago Find a School scrape.csv; ChildServ Humboldt;4909 W. Division ;60651;8677350;;;;;;Austin;;;;;;;;;;;;;CP;;;;;;;
490960651;ECE Chicago Find a School scrape.csv; ChildServ Lawndale;4909 W. Division ;60651;8677350;;;;;;North Lawndale;;;;;;;;;;;;;CP;;;;;;;
490960651;NAEYC_accreditation.csv; Westside Holistic Family Services ;4909 West Division Street 1st Floor ;60651;9218887;;;;;;;;;;;;;;;;;;http://www.westsideholistic.org;;;;02/01/17;531882;;;
491060615;CPS_Early_Childhood_Portal_scrape.csv; Firman Community Services - Firman House East;4910 S Dr. Martin Luther King Dr ;;3732083;;Child Care;EXTENDED DAY;;;;;;;;;;;;;;;;;;;;;;;
491060615;CPS_Early_Childhood_Portal_scrape.csv; Firman Pre-School East;4910 S. DR MARTIN LUTHER KING JRDrive ;;3732083;;Community Partnerships;8-11 Hours, varies by facility;;;;;;;;;;;;;;;;;;;;;;;
491060615;CPS_Early_Childhood_Portal_scrape.csv; Firman Community Services - Firman House East;4910 S Dr. Martin Luther King Dr ;;3732083;;Head Start;HALF DAY/FULL DAY;;;;;;;;;;;;;;;;;;;;;;;
491060615;CPS_Early_Childhood_Portal_scrape.csv; Firman Community Services - Firman House East;4910 S Dr. Martin Luther King Dr ;;3732083;;School Age;PART DAY/FULL DAY;;;;;;;;;;;;;;;;;;;;;;;
491060615;chapin_dfss_providers_2011_070212.csv;FIRMAN COMMUNITY SERVICES FIRMAN HOUSE EAST;4910 S KING ;60615;3733400;;;;;;;FIRMAN COMMUNITY SERVICES;GRAND BOULEVARD;;;;;Ms. Carmolita Curry;Yes;No;No;7077PS(HS Collaboration with Childcare & PreK), 4144SA(Schoo;;;;;;;;;
491060615;DFSS_AgencySiteLies_2012.csv;Firman Community Services Firman House East;4910 S. King ;60615;3732083;;;;;;;Firman Community Services;;;;;;;;;;; www.firmancs.org;Marguerite Young;Ms. Earline Moore ;;;;;;
491060615;ECE Chicago Find a School scrape.csv; Firman Community Svcs East;4910 S. King Drive ;60615;3733400;;;;;;Grand Boulevard;;;;;;;;;;;;;CP;;;;;;;
491060615;purple_binder_early_childhood.csv; Firman Community Services;4910 S King Drive ;60615;3732083;;;;;;;;;;;;;;;;;;;;;;;;;;Child Care
491860638;CPS_Early_Childhood_Portal_scrape.csv; Fleming Br.;4918 W. 64Th St. ;;5352405;;Prekindergarten For All;3-4 hours;;;;;;;;;;;;;;;;;;;;;;;
491860638;ECE Chicago Find a School scrape.csv; Fleming/ Grimes Br.;4918 W. 64Th St. ;60638;5352405;;;;;;Clearing;;;;;;;;;;;;;PFA-REG;;;;;;;
492060644;chapin_dfss_providers_2011_070212.csv;HENRY BOOTH HOUSE WEST AUSTIN;4920 W MADISON ;60644;;;;;;;;HENRY BOOTH HOUSE;AUSTIN;;;;;;Yes;No;No;;;;;;;;;;
492060644;DFSS_AgencySiteLies_2012.csv;Henry Booth House West Austin;4920 W Madison ;60644;;;;;;;;Henry Booth House;;;;;;;;;;;www.henryboothhouse.org;Scott Perkins;;;;;;;
492060644;ECE Chicago Find a School scrape.csv; Lutheran Family Mission Fam Cnt;4920 W Madison ;60644;9214960;;;;;;Austin;;;;;;;;;;;;;CP;;;;;;;
492060644;purple_binder_early_childhood.csv; Lutheran Family Mission Family Center;4920 W Madison Street ;60644;2872921;;;;;;;;;;;;;;;;;;;;;;;;;;Child Care
492460632;chapin_dfss_providers_2011_070212.csv;EL HOGAR DEL NINO FCCH-ROSA LOPEZ;4924 S KEELER ;60632;5818869;;;;;;;EL HOGAR DEL NINO;ARCHER HEIGHTS;;;;;;Yes;Yes;No;5878PS(HS Collaboration with Childcare Homes), 5659IP(EHS Co;;;;;;;;;
493560615;CPS_Early_Childhood_Portal_scrape.csv; Overton CPC;4935 S. Indiana ;;5351811;;Child Parent Center;3-4 hours;;;;;;;;;;;;;;;;;;;;;;;
493560615;CPS_Early_Childhood_Portal_scrape.csv; Overton CPC;4935 S. Indiana ;;5351811;;Head Start;5-6 hours;;;;;;;;;;;;;;;;;;;;;;;
493560615;ECE Chicago Find a School scrape.csv; Overton CPC;4935 S. Indiana ;60615;5351811;;;;;;Grand Boulevard;;;;;;;;;;;;;CPC-FD;;;;;;;
493560615;purple_binder_early_childhood.csv; Overton;4935 S Indiana Avenue ;60615;5351811;;;;;;;;;;;;;;;;;;;;;;;;;;Child Parent Center
494160651;CPS_Early_Childhood_Portal_scrape.csv; Healing Temple - Healing Temple;4941 W Chicago Ave ;;2876964;;Child Care;EXTENDED DAY;;;;;;;;;;;;;;;;;;;;;;;
494160651;CPS_Early_Childhood_Portal_scrape.csv; Healing Temple - Healing Temple;4941 W Chicago Ave ;;2876964;;Head Start;HALF DAY/FULL DAY;;;;;;;;;;;;;;;;;;;;;;;
494160651;chapin_dfss_providers_2011_070212.csv;HEALING TEMPLE FCCH-EARNESTINE MOORE;4941 W CHICAGO AVE ;60651;2876964;;;;;;;HEALING TEMPLE;AUSTIN;;;;;;No;Yes;No;5981IP(EHS Collaboration Enhanced Home IP), 5982IT(Child Car;;;;;;;;;
494160651;chapin_dfss_providers_2011_070212.csv;HEALING TEMPLE HEALING TEMPLE;4941 W CHICAGO ;60651;2876964;;;;;;;HEALING TEMPLE;AUSTIN;;;;;Carole  Smoot;Yes;No;No;;;;;;;;;;
494160651;DFSS_AgencySiteLies_2012.csv;Healing Temple Healing Temple;4941 W. Chicago ;60651;2876964;;;;;;;Healing Temple;;;;;;;;;;;;Elizabeth Lockhart;Carole Smoot;;;;;;
495060625;CPS_Early_Childhood_Portal_scrape.csv; Volta;4950 N. Avers ;;5345080;;Prekindergarten For All;3-4 hours;;;;;;;;;;;;;;;;;;;;;;;
495060625;ECE Chicago Find a School scrape.csv; Volta;4950 N. Avers ;60625;5345080;;;;;;Albany Park;;;;;;;;;;;;;PFA-REG;;;;;;;
495060632;DFSS_AgencySiteLies_2012.csv;Chicago Public Schools Edwards, Richard;4950 S. LaPorte ;60632;5352000;;;;;;;Chicago Public Schools;;;;;;;;;;;www.cps.edu;Paula Cottone;Mrs. Judith Sauri;;;;;;
495060632;ECE Chicago Find a School scrape.csv; Edwards;4950 S. LaPorte ;60632;5352011;;;;;;Archer Heights;;;;;;;;;;;;;HS-HD;;;;;;;
495060651;purple_binder_early_childhood.csv; Bethel New Life;4950 W Thomas Street ;60651;4737870;;;;;;;;;;;;;;;;;;;;;;;;;;Child Care
495860609;chapin_dfss_providers_2011_070212.csv;CAROLE ROBERTSON CENTER FOR LEARNING FCCH-PATRICIA HERNANDEZ;4958 S RACINE AVE ;60609;5381198;;;;;;;CAROLE ROBERTSON CENTER FOR LEARNING;NEW CITY;;;;;Jolene Martin;Yes;No;No;5958PS(HS Collaboration with Childcare Homes), 5958IP(EHS Co;;;;;;;;;
501060651;CPS_Early_Childhood_Portal_scrape.csv; Douglass-Tubman Youth Ministries,Inc. - Douglass-Tubman Child Development Center;5010 W Chicago Ave ;;6266581;;Child Care;EXTENDED DAY;;;;;;;;;;;;;;;;;;;;;;;
501060651;CPS_Early_Childhood_Portal_scrape.csv; Douglass-Tubman Youth Ministries,Inc. - Douglass-Tubman Child Development Center;5010 W Chicago Ave ;;6266581;;Head Start;HALF DAY/FULL DAY;;;;;;;;;;;;;;;;;;;;;;;
501060651;CPS_Early_Childhood_Portal_scrape.csv; Douglass-Tubman Youth Ministries,Inc. - Douglass-Tubman Child Development Center;5010 W Chicago Ave ;;6266581;;School Age;PART DAY/FULL DAY;;;;;;;;;;;;;;;;;;;;;;;
501060651;chapin_dfss_providers_2011_070212.csv;DOUGLASS-TUBMAN YOUTH MINISTRIES,INC. DOUGLASS-TUBMAN CHILD DEV CTR;5010 W CHICAGO AVE ;60651;6266581;;;;;;;DOUGLASS-TUBMAN YOUTH MINISTRIES,INC.;AUSTIN;;;;;Mrs. Andrea Young;No;No;No;2101SA(School Age (SA)), 2100PS(Child Care PS Center);;;;;;;;;
501060651;purple_binder_early_childhood.csv; Douglas-Tubman Child Development Center;5010 W Chicago Avenue ;60651;2683053;;;;;;;;;;;;;;;;;;;;;;;;;;Child Care
501860639;chapin_dfss_providers_2011_070212.csv;ERIE NEIGHBORHOOD HOUSE FCCH-MARISELA MARTINEZ SITE;5018 W DRUMMOND PL ;60639;4322213;;;;;;;ERIE NEIGHBORHOOD HOUSE;BELMONT CRAGIN;;;;;Cythnia Suarez;No;Yes;No;6111IP(EHS Collaboration Enhanced Home IP), 5693IT(Child Car;;;;;;;;;
502460609;CPS_Early_Childhood_Portal_scrape.csv; Daley;5024 S. Wolcott ;;5359091;;Prekindergarten For All;3-4 hours;;;;;;;;;;;;;;;;;;;;;;;
502460609;chapin_dfss_providers_2011_070212.csv;CHICAGO PUBLIC SCHOOLS DALEY, RICHARD J.;5024 S WOLCOTT AVE ;60609;5359091;;;;;;;CHICAGO PUBLIC SCHOOLS;NEW CITY;;;;;Rhonda Hoskins;Yes;No;No;;;;;;;;;;
502460609;DFSS_AgencySiteLies_2012.csv;Chicago Public Schools Daley, Richard J.;5024 S Wolcott Ave ;60609;5359091;;;;;;;Chicago Public Schools;;;;;;;;;;;www.cps.edu;Paula Cottone;Rhonda Hoskins;;;;;;
502460609;ECE Chicago Find a School scrape.csv; Daley;5024 S. Wolcott ;60609;5359091;;;;;;New City;;;;;;;;;;;;;HS-HD;;;;;;;
502560630;CPS_Early_Childhood_Portal_scrape.csv; Beaubien;5025 N. Laramie ;;5343500;;Prekindergarten For All;3-4 hours;;;;;;;;;;;;;;;;;;;;;;;
502560630;ECE Chicago Find a School scrape.csv; Beaubien;5025 N. Laramie ;60630;5343500;;;;;;Jefferson Park;;;;;;;;;;;;;PFA-REG TS;;;;;;;
503560644;purple_binder_early_childhood.csv; Trinity Resources Progressive True Vine;5035 W Ohio Street ;60644;6268254;;;;;;;;;;;;;;;;;;;;;;;;;;Child Care
504460615;CPS_Early_Childhood_Portal_scrape.csv; Ounce of Prevention Fund Educare;5044 S. Wabash ;;9242334;;Community Partnerships;8-11 Hours, varies by facility;;;;;;;;;;;;;;;;;;;;;;;
504460615;chapin_ounce_providers_2011_071112.csv;Ounce of Prevention Fund (Directly Operated Programs) Educare;5044 S. Wabash Ave ;60615;9242334;;;;;Ounce of Prevention Fund (Directly Operated Programs);Fuller Park, Grand Boulevard, Kenwood, New City, Oakland, Washington Park;64  Early Head Start  85  Head Start  ;Early Head Start Full Day/Full Year   Head Start  Full Day/Full Year ;64;85;;;;;;;;;;;;;;;;
504460615;ECE Chicago Find a School scrape.csv; Ounce of Prev EC Center;5044 S Wabash ;60615;9242334;;;;;;Grand Boulevard;;;;;;;;;;;;;CP;;;;;;;
504460615;ECE Chicago Find a School scrape.csv; Ounce of Prev EC Center I/T;5044 S Wabash ;60615;9242334;;;;;;Grand Boulevard;;;;;;;;;;;;;CP;;;;;;;
504460615;Ounce of Prevention - Site Locations.csv; Ounce of Prevention Fund - Educare of Chicago;5044 S. Wabash Ave ;60615;9242334;;;;;;;;;;;;;;;;;;;;;;;Grand Boulevard Community  Serves children ages 0-5;;;
504460615;purple_binder_early_childhood.csv; Educare Center;5044 S Wabash Avenue ;60615;9242334;;;;;;;;;;;;;;;;;;;;;;;;;;Child Care
505160630;CPS_Early_Childhood_Portal_scrape.csv; Palmer;5051 N. Kenneth ;;5343704;;Prekindergarten For All;3-4 hours;;;;;;;;;;;;;;;;;;;;;;;
505160630;ECE Chicago Find a School scrape.csv; Palmer;5051 N. Kenneth ;60630;5343704;;;;;;Albany Park;;;;;;;;;;;;;PFA-REG;;;;;;;
505560609;ECE Chicago Find a School scrape.csv; Attucks;5055 S. State St. ;60609;5351270;;;;;;Douglas;;;;;;;;;;;;;PFA-REG;;;;;;;
508060644;purple_binder_early_childhood.csv; YMCA West Side;5080 W Harrison Street ;60644;9553100;;;;;;;;;;;;;;;;;;;;;;;;;;Child Care
511460609;NAEYC_accreditation.csv; St. John Of God;5114 South Elizabeth 1st Floor ;60609;9242232;;;;;;;;;;;;;;;;;;;;;;11/01/15;725529;snewsome@catholiccharities.net;;
512060609;purple_binder_early_childhood.csv; Centers for New Horizons Robert Taylor II;5120 S Federal Street ;60609;6240666;;;;;;;;;;;;;;;;;;;;;;;;;;Child Care
512060638;NAEYC_accreditation.csv; Jane Addams Hull House Association LeClaire Ryder Head Start;5120 West 44th Street  ;60638;4048229;;;;;;;;;;;;;;;;;;;;;;07/31/13;486668;tturner@hullhouse.org;;
512060640;CPS_Early_Childhood_Portal_scrape.csv; South East Asia Center Broadway;5120 N. Broadway ;;9890960;;Community Partnerships;8-11 Hours, varies by facility;;;;;;;;;;;;;;;;;;;;;;;
512060640;CPS_Early_Childhood_Portal_scrape.csv; Goudy;5120 N. Winthrop ;;5342480;;Head Start;5-6 hours;;;;;;;;;;;;;;;;;;;;;;;
512060640;CPS_Early_Childhood_Portal_scrape.csv; South East Asia Center - South-East Asia Center(Broadway);5120 N Broadway Ave ;;;;School Age;PART DAY/FULL DAY;;;;;;;;;;;;;;;;;;;;;;;
512060640;chapin_dfss_providers_2011_070212.csv;CHICAGO PUBLIC SCHOOLS GOUDY, WILLIAM C.;5120 N WINTHROP ;60640;5342480;;;;;;;CHICAGO PUBLIC SCHOOLS;UPTOWN;;;;;Pamela S.  Brandt;Yes;No;No;;;;;;;;;;
512060640;chapin_dfss_providers_2011_070212.csv;SOUTH EAST ASIA CENTER SOUTH EAST ASIA CENTER (BROADWAY);5120 N BROADWAY AVE ;60640;9897433;;;;;;;SOUTH EAST ASIA CENTER;UPTOWN;;;;;Loipin Chin;No;No;Yes;2779PS(Child Care PS Center & State Pre-K), 2779SA(School Ag;;;;;;;;;
512060640;DFSS_AgencySiteLies_2012.csv;Chicago Public Schools Goudy, William C.;5120 N. Winthrop ;60640;5342480;;;;;;;Chicago Public Schools;;;;;;;;;;;www.cps.edu;Paula Cottone;Pamela S. Brandt;;;;;;
512060640;DFSS_AgencySiteLies_2012.csv;South East Asia Center South East Asia Center (Broadway);5120 N. Broadway Ave. ;60640;9897433;;;;;;;South East Asia Center;;;;;;;;;;;www.se-asiacenter.org;Peter Porr;Loipin Chin;;;;;;
512060640;ECE Chicago Find a School scrape.csv; Goudy;5120 N. Winthrop ;60640;5342480;;;;;;Uptown;;;;;;;;;;;;;HS-HD;;;;;;;
512060640;ECE Chicago Find a School scrape.csv; South East Asia Com Broadway;5120 N. Broadway ;60640;9890960;;;;;;Uptown;;;;;;;;;;;;;CP;;;;;;;
512060640;purple_binder_early_childhood.csv; South-East Asia Center;5120 N Broadway Avenue ;60640;9896927;;;;;;;;;;;;;;;;;;;;;;;;;;Child Care
512160625;ECE Chicago Find a School scrape.csv; Albany Park Comm Ctr. East;5101 N. Kimball ;60625;5835111;;;;;;North Park;;;;;;;;;;;;;CP;;;;;;;
512160625;NAEYC_accreditation.csv; Albany Park Head Start;5101 N. Kimball  ;60625;5095657;;;;;;;;;;;;;;;;;;http://www.apcc-chgo.org;;;;12/31/12;486881;;;
512160625;CPS_Early_Childhood_Portal_scrape.csv; Albany Park Community Center - Albany Park Head Start Center-Kimball;5121 N Kimball Ave ;;5095657;;Child Care;EXTENDED DAY;;;;;;;;;;;;;;;;;;;;;;;
512160625;CPS_Early_Childhood_Portal_scrape.csv; Albany Park Community Center - Albany Park Head Start Center-Kimball;5121 N Kimball Ave ;;5095657;;Head Start;HALF DAY/FULL DAY;;;;;;;;;;;;;;;;;;;;;;;
512160625;chapin_dfss_providers_2011_070212.csv;ALBANY PARK COMMUNITY CENTER KIMBALL;5121 N KIMBALL ;60625;5095657;;;;;;;ALBANY PARK COMMUNITY CENTER;NORTH PARK;;;;;Amy Labb;Yes;No;No;3006HD(HS AM), 3007HD(HS PM), 6001IT(EHS), 2498PS(Child Care;;;;;;;;;
512160625;DFSS_AgencySiteLies_2012.csv;Albany Park Community Center Kimball;5121 N. Kimball ;60625;5095657;;;;;;;Albany Park Community Center;;;;;;;;;;;www.apcc-chgo.org;Harold Rice;Eve Volin;;;;;;
512160625;purple_binder_early_childhood.csv; Albany Park Community Center - Kimball;5121 N Kimball Avenue ;60625;5095650;;;;;;;;;;;;;;;;;;;;;;;;;;Child Care
513460638;ECE Chicago Find a School scrape.csv; Twain;5134 S. Lotus Ave ;60638;5352290;;;;;;Garfield Ridge;;;;;;;;;;;;;PFA-REG;;;;;;;
514060609;ECE Chicago Find a School scrape.csv; Centers For New Horizons Robert Taylor;5140 S. Federal  ;60609;5360510;;;;;;Washington Park;;;;;;;;;;;;;CP;;;;;;;
514060609;purple_binder_early_childhood.csv; Centers For New Horizons Robert Taylor School;5140 S Federal Street ;60609;5360510;;;;;;;;;;;;;;;;;;;;;;;;;;Child Care
514060625;purple_binder_early_childhood.csv; Swedish Covenant Hospital Child Care;5140 N California Avenue ;60625;9071008;;;;;;;;;;;;;;;;;;;;;;;;;;Child Care
516060632;CPS_Early_Childhood_Portal_scrape.csv; El Valor - Teddy Bear 5 Pulaski;5160 S Pulaski RD ;;;;Child Care;EXTENDED DAY;;;;;;;;;;;;;;;;;;;;;;;
516060632;CPS_Early_Childhood_Portal_scrape.csv; Teddy Bear Nursery School, Inc. V;5160 S. Pulaski ;;2847030;;Community Partnerships;8-11 Hours, varies by facility;;;;;;;;;;;;;;;;;;;;;;;
516060632;CPS_Early_Childhood_Portal_scrape.csv; El Valor - Teddy Bear 5 Pulaski;5160 S Pulaski RD ;;;;Head Start;HALF DAY/FULL DAY;;;;;;;;;;;;;;;;;;;;;;;
516060632;chapin_dfss_providers_2011_070212.csv;EL VALOR TEDDY BEAR 5 (5160 S PULASKI);5160 S PULASKI RD ;60632;2847030;;;;;;;EL VALOR;WEST ELSDON;;;;;Mary Zirngibl;Yes;No;No;;;;;;;;;;
516060632;DFSS_AgencySiteLies_2012.csv;El Valor Teddy Bear 5;5160 S Pulaski Rd. ;60632;2847030;;;;;;;El Valor;;;;;;;;;;;www.elvalor.org;Vincent Allocco;Mary Zirngibl;;;;;;
516060632;ECE Chicago Find a School scrape.csv; Teddy Bear 5;5160 S. Pulaski ;60632;2847030;;;;;;West Elsdon;;;;;;;;;;;;;CP;;;;;;;
520060615;purple_binder_early_childhood.csv; Jewish Community Centers of Chicago - Hyde Park;5200 S Hyde Park Boulevard ;60615;7533080;;;;;;;;;;;;;;;;;;;;;;;;;;Child Care
520060640;CPS_Early_Childhood_Portal_scrape.csv; Trumbull;5200 N. Ashland ;;5342430;;Prekindergarten For All;3-4 hours;;;;;;;;;;;;;;;;;;;;;;;
520060640;ECE Chicago Find a School scrape.csv; Trumbull;5200 N. Ashland ;60640;5342430;;;;;;Edgewater;;;;;;;;;;;;;PFA-REG;;;;;;;
522160644;CPS_Early_Childhood_Portal_scrape.csv; Leland;5221 W. Congress ;;5346340;;Prekindergarten For All;3-4 hours;;;;;;;;;;;;;;;;;;;;;;;
522160644;ECE Chicago Find a School scrape.csv; Leland;5221 W. Congress ;60644;5346340;;;;;;Austin;;;;;;;;;;;;;PFA-REG;;;;;;;
524260639;CPS_Early_Childhood_Portal_scrape.csv; Rachel's Learning Center - Austin;5242 W. North Ave. ;;2371444;;Community Partnerships;8-11 Hours, varies by facility;;;;;;;;;;;;;;;;;;;;;;;
524260639;chapin_dfss_providers_2011_070212.csv;CHICAGO YOUTH CENTERS RACHEL'S 2;5242 W NORTH AVE ;60639;2371444;;;;;;;CHICAGO YOUTH CENTERS;AUSTIN;;;;;Carol Quinn;Yes;No;No;;;;;;;;;;
524260639;chapin_dfss_providers_2011_070212.csv;EASTER SEALS SOCIETY OF METROPOLITAN CHICAGO RACHEL'S LEARNING CENTER #2;5242 W NORTH AVE ;60639;2371444;;;;;;;EASTER SEALS SOCIETY OF METROPOLITAN CHICAGO;AUSTIN;;;;;Rochelle Ray;No;Yes;No;;;;;;;;;;
524260639;DFSS_AgencySiteLies_2012.csv;Chicago Youth Centers Rachel's 2;5242 W. North Ave ;60639;2371444;;;;;;;Chicago Youth Centers;;;;;;;;;;;www.chicagoyouthcenters.org;Harry Wells;Carol Quinn ;;;;;;
524260639;DFSS_AgencySiteLies_2012.csv;Easter Seals Society of Metropolitan Chicago Rachel's Learning Center #2;5242 W North Ave ;60639;2371444;;;;;;;Easter Seals Society of Metropolitan Chicago;;;;;;;;;;;www.easterseaslchicago.org;Barbara Zawacki;Rochelle Ray;;;;;;
524260639;purple_binder_early_childhood.csv; Rachel's Learning Center #2;5242 W North Avenue ;60639;2371444;;;;;;;;;;;;;;;;;;;;;;;;;;Early Head Start
524460640;chapin_ounce_providers_2011_071112.csv; Edgewater Early Learning Center;5244 N. Lakewood St. ;60640;9070278;;;;;;;;Full Day/Full Year;-- ;30;;;;;;;;;;;;;;;;
524460640;ECE Chicago Find a School scrape.csv; YWCA Northside;5244 N. Lakewood ;60640;2716120;;;;;;Edgewater;;;;;;;;;;;;;CP;;;;;;;
524460640;Ounce of Prevention - Site Locations.csv; One Hope United - Edgewater Early Learning Center;5244 North Lakewood St. ;60640;9070278;;;;;;;;;;;;;;;;;;;;;;;Bridgeport and Rogers Park Communities  Serves children ages 3-5;;;
524460640;purple_binder_early_childhood.csv; Kids Hope United - Kids Hope Child Development Center;5244 N Lakewood Avenue ;60640;9070278;;;;;;;;;;;;;;;;;;;;;;;;;;Child Care
525060632;CPS_Early_Childhood_Portal_scrape.csv; Nightingale;5250 S. Rockwell ;;5359270;;Prekindergarten For All;3-4 hours;;;;;;;;;;;;;;;;;;;;;;;
525060632;ECE Chicago Find a School scrape.csv; Nightingale;5250 S. Rockwell ;60632;5359270;;;;;;Gage Park;;;;;;;;;;;;;PFA-REG;;;;;;;
525160637;ECE Chicago Find a School scrape.csv; Lutheran Family Mission Day Care III;5251 W. North Ave. ;60637;6372344;;;;;;Austin;;;;;;;;;;;;;CP;;;;;;;
525160639;purple_binder_early_childhood.csv; Lutheran Family Mission - North Avenue;5251 W North Avenue ;60639;6372344;;;;;;;;;;;;;;;;;;;;;;;;;;Child Care
525560609;ECE Chicago Find a School scrape.csv; Beasley;5255 S. State St ;60609;5351230;;;;;;Washington Park;;;;;;;;;;;;;CPC-FD;;;;;;;
525560609;purple_binder_early_childhood.csv; Beasley;5255 S State Street ;60609;5351230;;;;;;;;;;;;;;;;;;;;;;;;;;Child Parent Center
525560644;chapin_dfss_providers_2011_070212.csv;HULL HOUSE ASSOCIATION FCCH-SHANETTA HOWARD;5255 W JACKSON ;60644;3785120;;;;;;;HULL HOUSE ASSOCIATION;AUSTIN;;;;;;No;No;No;5912IP(EHS Collaboration Enhanced Home IP), 5913IT(Child Car;;;;;;;;;
530060609;CPS_Early_Childhood_Portal_scrape.csv; Fulton;5300 S. Hermitage ;;5359000;;Head Start;5-6 hours;;;;;;;;;;;;;;;;;;;;;;;
530060609;chapin_dfss_providers_2011_070212.csv;CHICAGO PUBLIC SCHOOLS FULTON, ROBERT;5300 S HERMITAGE ;60609;5359000;;;;;;;CHICAGO PUBLIC SCHOOLS;NEW CITY;;;;;Dr. Warletta  Johnson-Brookins;Yes;No;No;;;;;;;;;;
530060609;DFSS_AgencySiteLies_2012.csv;Chicago Public Schools Fulton, Robert;5300 S. Hermitage ;60609;5359000;;;;;;;Chicago Public Schools;;;;;;;;;;;www.cps.edu;Paula Cottone;Ms. Cherie Novak;;;;;;
530060609;ECE Chicago Find a School scrape.csv; Fulton;5300 S. Hermitage ;60609;5359000;;;;;;New City;;;;;;;;;;;;;HS-HD;;;;;;;
530060615;NAEYC_accreditation.csv; Parent Cooperative for Early Learning, Inc.;5300 South Shore Drive STO ;60615;6846363;;;;;;;;;;;;;;;;;;http://www.parentcoop.org;;;;12/31/14;293469;PCEL_director@yahoo.com;;
532760615;chapin_dfss_providers_2011_070212.csv;HENRY BOOTH HOUSE PRECIOUS LITTLE ONES;5327 S MICHIGAN AVE ;60615;;;;;;;;HENRY BOOTH HOUSE;WASHINGTON PARK;;;;;;Yes;No;No;;;;;;;;;;
532760615;DFSS_AgencySiteLies_2012.csv;Henry Booth House Precious Little Ones;5327 S Michigan Ave. ;60615;;;;;;;;Henry Booth House;;;;;;;;;;;www.henryboothhouse.org;Scott Perkins;;;;;;;
533060641;CPS_Early_Childhood_Portal_scrape.csv; Portage Park;5330 W. Berteau ;;5343576;;Prekindergarten For All;3-4 hours;;;;;;;;;;;;;;;;;;;;;;;
533060641;ECE Chicago Find a School scrape.csv; Portage Park;5330 .W Berteau ;60641;5343576;;;;;;Portage Park;;;;;;;;;;;;;PFA-REG;;;;;;;
533260609;CPS_Early_Childhood_Portal_scrape.csv; Catholic Charities of the Archdiocese of Chicago - Grace Mission;5332 S Western Ave ;;4761990;;Child Care;EXTENDED DAY;;;;;;;;;;;;;;;;;;;;;;;
533260609;CPS_Early_Childhood_Portal_scrape.csv; Catholic Charities Grace Mission;5332 S. Western ;;4761990;;Community Partnerships;8-11 Hours, varies by facility;;;;;;;;;;;;;;;;;;;;;;;
533260609;CPS_Early_Childhood_Portal_scrape.csv; Catholic Charities of the Archdiocese of Chicago - Grace Mission;5332 S Western Ave ;;4761990;;Head Start;HALF DAY/FULL DAY;;;;;;;;;;;;;;;;;;;;;;;
533260609;CPS_Early_Childhood_Portal_scrape.csv; Catholic Charities of the Archdiocese of Chicago - Grace Mission;5332 S Western Ave ;;4761990;;State Pre-Kindergarten;HALF DAY/FULL DAY;;;;;;;;;;;;;;;;;;;;;;;
533260609;chapin_dfss_providers_2011_070212.csv;CATHOLIC CHARITIES OF THE ARCHDIOCESE OF CHICAGO GRACE MISSION;5332 S WESTERN ;60609;4761990;;;;;;;CATHOLIC CHARITIES OF THE ARCHDIOCESE OF CHICAGO;GAGE PARK;;;;;Francine Johnson;Yes;No;Yes;3416PS(HS Collaboration with Childcare & PreK), 2711PS(Child;;;;;;;;;
533260609;DFSS_AgencySiteLies_2012.csv;Catholic Charities of the Archdiocese of Chicago Grace Mission;5332 S. Western ;60609;4761990;;;;;;;Catholic Charities of the Archdiocese of Chicago;;;;;;;;;;;www.catholiccharities.net;Laura Rios;Francine Johnson;;;;;;
533260609;ECE Chicago Find a School scrape.csv; Catholic Charities-Grace Mission;5332 S. Western ;60609;4761900;;;;;;Gage Park;;;;;;;;;;;;;CP;;;;;;;
533260609;NAEYC_accreditation.csv; Grace Mission Daycare;5332 South Western Ave.  ;60609;4761990;;;;;;;;;;;;;;;;;;;;;;09/30/12;486644;fjohnson@catholiccharities.net;;
533260609;purple_binder_early_childhood.csv; Catholic Charities Chicago - Grace Mission School;5332 S Western Avenue ;60609;4761990;;;;;;;;;;;;;;;;;;;;;;;;;;Child Care
533260641;CPS_Early_Childhood_Portal_scrape.csv; Mosaic Early Childhood Academy;5332 W. Addison ;;7777411;;Community Partnerships;8-11 Hours, varies by facility;;;;;;;;;;;;;;;;;;;;;;;
533260641;CPS_Early_Childhood_Portal_scrape.csv; Marcy Newberry Association - Mosaic;5332-34 W Addison Ave ;;7777411;;Head Start;HALF DAY/FULL DAY;;;;;;;;;;;;;;;;;;;;;;;
533260641;ECE Chicago Find a School scrape.csv; Mosaic (Portage Park);5332 W. Addison ;60641;7777411;;;;;;Portage Park;;;;;;;;;;;;;CP;;;;;;;
533560615;ECE Chicago Find a School scrape.csv; Murray Lang Acad;5335 S. Kenwood ;60615;5350585;;;;;;Hyde Park;;;;;;;;;;;;;PFA-REG;;;;;;;
533860609;ECE Chicago Find a School scrape.csv; Libby;5338 S. Loomis ;60609;5359350;;;;;;New City;;;;;;;;;;;;;PFA-REG;;;;;;;
535660615;chapin_dfss_providers_2011_070212.csv;CHICAGO PUBLIC SCHOOLS BURKE, EDMOND;5356 S KING DR ;60615;5351325;;;;;;;CHICAGO PUBLIC SCHOOLS;WASHINGTON PARK;;;;;Ms. Kimberly Ellison;Yes;No;No;;;;;;;;;;
535660615;DFSS_AgencySiteLies_2012.csv;Chicago Public Schools Burke, Edmond;5356 S. King Dr ;60615;5351325;;;;;;;Chicago Public Schools;;;;;;;;;;;www.cps.edu;Paula Cottone;Nicholas Gaines;;;;;;
535660615;ECE Chicago Find a School scrape.csv; Burke;5356 S. King Dr. ;60615;5351325;;;;;;Washington Park;;;;;;;;;;;;;HS-HD;;;;;;;
536560639;CPS_Early_Childhood_Portal_scrape.csv; Henry Booth House - Angel Wings;5365 W North Ave ;;;;Head Start;HALF DAY/FULL DAY;;;;;;;;;;;;;;;;;;;;;;;
536560639;chapin_dfss_providers_2011_070212.csv;HENRY BOOTH HOUSE ANGEL WINGS;5365 W NORTH ;60639;7450262;;;;;;;HENRY BOOTH HOUSE;AUSTIN;;;;;Lisa Collins;Yes;No;No;;;;;;;;;;
536560639;DFSS_AgencySiteLies_2012.csv;Henry Booth House Angel Wings;5365 W Noth ;60639;7450262;;;;;;;Henry Booth House;;;;;;;;;;;www.henryboothhouse.org;Scott Perkins;Lisa Collins;;;;;;
540160609;CPS_Early_Childhood_Portal_scrape.csv; Firman Community Services - Firman House South;5401 S Wentworth Ave ;;4513400;;Child Care;EXTENDED DAY;;;;;;;;;;;;;;;;;;;;;;;
540160609;CPS_Early_Childhood_Portal_scrape.csv; Firman Preschool South;5401 S. Wentworth ;;4513400;;Community Partnerships;8-11 Hours, varies by facility;;;;;;;;;;;;;;;;;;;;;;;
540160609;CPS_Early_Childhood_Portal_scrape.csv; Firman Community Services - Firman House South;5401 S Wentworth Ave ;;4513400;;Head Start;HALF DAY/FULL DAY;;;;;;;;;;;;;;;;;;;;;;;
540160609;CPS_Early_Childhood_Portal_scrape.csv; Firman Community Services - Firman House South;5401 S Wentworth Ave ;;4513400;;State Pre-Kindergarten;HALF DAY/FULL DAY;;;;;;;;;;;;;;;;;;;;;;;
540160609;chapin_dfss_providers_2011_070212.csv;FIRMAN COMMUNITY SERVICES FIRMAN HOUSE SOUTH;5401 S WENTWORTH AVE ;60609;3733400;;;;;;;FIRMAN COMMUNITY SERVICES;FULLER PARK;;;;;Donna Skinner-Echols;No;No;No;4394IT(Child Care IT Center), 4394PS(Child Care PS Center &;;;;;;;;;
541160639;CPS_Early_Childhood_Portal_scrape.csv; Hanson Park;5411 W. Fullerton ;;5343100;;Prekindergarten For All;3-4 hours;;;;;;;;;;;;;;;;;;;;;;;
541160639;ECE Chicago Find a School scrape.csv; Hanson Park;5411 W. Fullerton ;60639;5343100;;;;;;Belmont Cragin;;;;;;;;;;;;;PFA-REG;;;;;;;
541260651;chapin_dfss_providers_2011_070212.csv;HEALING TEMPLE FCCH-GLENNER MITCHELL;5412 W POTOMAC AVE ;60651;3784974;;;;;;;HEALING TEMPLE;AUSTIN;;;;;;No;Yes;No;5608IP(EHS Collaboration Enhanced Home IP), 5608IT(EHS Enhan;;;;;;;;;
541460630;CPS_Early_Childhood_Portal_scrape.csv; Farnsworth;5414 N. Linder ;;5343535;;Prekindergarten For All;3-4 hours;;;;;;;;;;;;;;;;;;;;;;;
541460630;ECE Chicago Find a School scrape.csv; Farnsworth;5414 N. Linder ;60630;5343535;;;;;;Jefferson Park;;;;;;;;;;;;;PFA-REG;;;;;;;
541860644;chapin_dfss_providers_2011_070212.csv;CAROLE ROBERTSON CENTER FOR LEARNING FCCH-MARY MURPHY;5418 W JACKSON ST ;60644;5211600;;;;;;;CAROLE ROBERTSON CENTER FOR LEARNING;AUSTIN;;;;;Jolene Martin;No;No;No;5614PS(HS Collaboration with Childcare Homes), 5614IP(EHS Co;;;;;;;;;
541860644;chapin_dfss_providers_2011_070212.csv;HEALING TEMPLE FCCH-MARY MURPHY;5418 W JACKSON ;60644;2876994;;;;;;;HEALING TEMPLE;AUSTIN;;;;;Lucille Brown;No;Yes;No;5717IP(EHS Collaboration Enhanced Home IP), 5717IT(EHS Enhan;;;;;;;;;
542360639;CPS_Early_Childhood_Portal_scrape.csv; Onward Neighborhood House - Belmont-Cragin;5423 W Diversey ;;;;Child Care;EXTENDED DAY;;;;;;;;;;;;;;;;;;;;;;;
542360639;CPS_Early_Childhood_Portal_scrape.csv; Onward Neighborhood House - Belmont-Cragin;5423 W Diversey ;;;;Early Head Start;EXTENDED DAY;;;;;;;;;;;;;;;;;;;;;;;
542360639;CPS_Early_Childhood_Portal_scrape.csv; Onward Neighborhood House - Belmont-Cragin;5423 W Diversey ;;;;Head Start;HALF DAY/FULL DAY;;;;;;;;;;;;;;;;;;;;;;;
542360639;CPS_Early_Childhood_Portal_scrape.csv; Onward Neighborhood House - Belmont-Cragin;5423 W Diversey ;;;;School Age;PART DAY/FULL DAY;;;;;;;;;;;;;;;;;;;;;;;
542360639;CPS_Early_Childhood_Portal_scrape.csv; Onward Neighborhood House - Belmont-Cragin;5423 W Diversey ;;;;State Pre-Kindergarten;HALF DAY/FULL DAY;;;;;;;;;;;;;;;;;;;;;;;
542360639;chapin_dfss_providers_2011_070212.csv;ONWARD NEIGHBORHOOD HOUSE ONWARD NEIGHBORHOOD HOUSE - BELMONT/CRAGIN;5423 W DIVERSEY AVE ;60639;6223215;;;;;;;ONWARD NEIGHBORHOOD HOUSE;BELMONT CRAGIN;;;;;Santa Rivera;Yes;Yes;Yes;3153IT(Child Care IT Center), 3153PS(Child Care PS Center &;;;;;;;;;
542360639;DFSS_AgencySiteLies_2012.csv;Onward Neighborhood House Onward Neighborhood House - Belmont/Cragin;5423 W Diversey Ave. ;60639;6223215;;;;;;;Onward Neighborhood House;;;;;;;;;;;www.onwardhouse.org;Mario Garcia;Santa Rivera;;;;;;
542360639;NAEYC_accreditation.csv; Onward Neighborhood House;5423 W. Diversey Ave.  ;60639;6223215;;;;;;;;;;;;;;;;;;;;;;01/31/13;511442;mlarson@onwardhouse.org;;
542460656;CPS_Early_Childhood_Portal_scrape.csv; Oriole Park;5424 N. Oketo ;;5341201;;Prekindergarten For All;3-4 hours;;;;;;;;;;;;;;;;;;;;;;;
542460656;ECE Chicago Find a School scrape.csv; Oriole Park;5424 N. Oketo ;60656;5341201;;;;;;Norwood Park;;;;;;;;;;;;;PFA-REG;;;;;;;
544560639;CPS_Early_Childhood_Portal_scrape.csv; Onward Neighborhood House - New Beginnings;5445 W North Ave ;;3855365;;Head Start;HALF DAY/FULL DAY;;;;;;;;;;;;;;;;;;;;;;;
544560639;chapin_dfss_providers_2011_070212.csv;ONWARD NEIGHBORHOOD HOUSE NEW BEGINNINGS;5445 W NORTH AVENUE ;60639;3855365;;;;;;;ONWARD NEIGHBORHOOD HOUSE;AUSTIN;;;;;Verlene Vanderbilt;Yes;No;No;;;;;;;;;;
544560639;DFSS_AgencySiteLies_2012.csv;Onward Neighborhood House New Beginnings;5445 W. North Ave. ;60639;3855365;;;;;;;Onward Neighborhood House;;;;;;;;;;;www.onwardhouse.org;Mario Garcia;Verlene Vanderbilt;;;;;;
545060632;CPS_Early_Childhood_Portal_scrape.csv; Talman;5450 S. Talman ;;5357850;;Prekindergarten For All;3-4 hours;;;;;;;;;;;;;;;;;;;;;;;
545060632;ECE Chicago Find a School scrape.csv; Talman;5450 S. Talman ;60632;5357850;;;;;;Gage Park;;;;;;;;;;;;;PFA-REG;;;;;;;
546760615;CPS_Early_Childhood_Portal_scrape.csv; Chicago Child Care Society;5467 S. University ;;2562450;;Community Partnerships;8-11 Hours, varies by facility;;;;;;;;;;;;;;;;;;;;;;;
546760615;chapin_dfss_providers_2011_070212.csv;CHICAGO CHILD CARE SOCIETY CHICAGO CHILD CARE SOCIETY;5467 S UNIVERSITY AVE ;60615;6430452;;;;;;;CHICAGO CHILD CARE SOCIETY;HYDE PARK;;;;;Licia Palmore;No;Yes;No;;;;;;;;;;
546760615;DFSS_AgencySiteLies_2012.csv;Chicago Child Care Society Chicago Child Care Society;5467 S University Ave ;60615;6430452;;;;;;;Chicago Child Care Society;;;;;;;;;;;www.cccsociety.org;Pamela Flowers-Thomas;Elizabeth Rogers;;;;;;
546760615;ECE Chicago Find a School scrape.csv; Chicago Child Care Society;5467 S. University ;60615;2562450;;;;;;Hyde Park;;;;;;;;;;;;;CP;;;;;;;
546760615;NAEYC_accreditation.csv; Chicago Child Care Society-child and Family Dev Center;5467 South University  ;60615;6430452;;;;;;;;;;;;;;;;;;http://www.cccsociety.org;;;;02/01/16;280649;pflowers@cccsociety.org;;
546760615;purple_binder_early_childhood.csv; Chicago Child Care Society School;5467 S University Avenue ;60615;6430452;;;;;;;;;;;;;;;;;;;;;;;;;;Child Care
548060615;purple_binder_early_childhood.csv; Hyde Park Neighborhood Club;5480 S Kenwood Avenue ;60615;6434062;;;;;;;;;;;;;;;;;;;;;;;;;;Child Care
550060625;CPS_Early_Childhood_Portal_scrape.csv; Northeastern Illinois University;5500 N. St. Louis ;;4424540;;Community Partnerships;8-11 Hours, varies by facility;;;;;;;;;;;;;;;;;;;;;;;
550060625;ECE Chicago Find a School scrape.csv; NE Ill Univ Child Care Center;5500 N. St Louis ;60625;5390570;;;;;;North Park;;;;;;;;;;;;;CP;;;;;;;
550060625;NAEYC_accreditation.csv; Northeastern Illinois University Child Care Center;5500 North Saint Louis Avenue  ;60625;4424540;;;;;;;;;;;;;;;;;;http://www.neiu.edu/neiuccc;;;;01/31/13;125305;E-Weber1@neiu.edu;;
550060644;CPS_Early_Childhood_Portal_scrape.csv; Emmet;5500 W. Madison ;;5346050;;Prekindergarten For All;3-4 hours;;;;;;;;;;;;;;;;;;;;;;;
550060644;ECE Chicago Find a School scrape.csv; Emmet;5500 W. Madison ;60644;5346050;;;;;;Austin;;;;;;;;;;;;;PFA-REG;;;;;;;
551060625;CPS_Early_Childhood_Portal_scrape.csv; Peterson;5510 N. Christiana ;;5345070;;Prekindergarten For All;3-4 hours;;;;;;;;;;;;;;;;;;;;;;;
551060625;ECE Chicago Find a School scrape.csv; Peterson;5510 N. Christiana ;60625;5345070;;;;;;North Park;;;;;;;;;;;;;PFA-REG TS;;;;;;;
551660629;CPS_Early_Childhood_Portal_scrape.csv; Carson;5516 S. Maplewood ;;5359222;;Prekindergarten For All;3-4 hours;;;;;;;;;;;;;;;;;;;;;;;
551660629;chapin_dfss_providers_2011_070212.csv;CHICAGO PUBLIC SCHOOLS CARSON, RACHEL;5516 S MAPPLEWOOD AVE ;60629;5359222;;;;;;;CHICAGO PUBLIC SCHOOLS;GAGE PARK;;;;;Javier Arriola-Lopez;Yes;No;No;;;;;;;;;;
551660629;DFSS_AgencySiteLies_2012.csv;Chicago Public Schools Carson, Rachel;5516 S. Mapplewood Ave ;60629;5359222;;;;;;;Chicago Public Schools;;;;;;;;;;;www.cps.edu;Paula Cottone;Javier Arriola-Lopez;;;;;;
551660629;ECE Chicago Find a School scrape.csv; Carson (Dual Lang.);5516 S. Maplewood ;60629;5359222;;;;;;Gage Park;;;;;;;;;;;;;HS-HD;;;;;;;
552260630;purple_binder_early_childhood.csv; Care-A-Lot Child Development Center;5522 N Milwaukee Avenue ;60630;7630888;;;;;;;;;;;;;;;;;;;;;;;;;;Child Care
552260636;CPS_Early_Childhood_Portal_scrape.csv; Allison's Infant and Toddler Center;5522 S. Racine ;;4363193;;Community Partnerships;8-11 Hours, varies by facility;;;;;;;;;;;;;;;;;;;;;;;
552260636;CPS_Early_Childhood_Portal_scrape.csv; Henry Booth House - Allison's Infant Toddler;5522 S Racine Ave ;;4363193;;Head Start;HALF DAY/FULL DAY;;;;;;;;;;;;;;;;;;;;;;;
552260636;chapin_dfss_providers_2011_070212.csv;HENRY BOOTH HOUSE ALLISON'S INFANT TODDLER;5522 S RACINE ;60636;4363193;;;;;;;HENRY BOOTH HOUSE;WEST ENGLEWOOD;;;;;LaParish Woody;Yes;No;No;;;;;;;;;;
552260636;DFSS_AgencySiteLies_2012.csv;Henry Booth House Allison's Infant Toddler;5522 S Racine ;60636;4363193;;;;;;;Henry Booth House;;;;;;;;;;;www.henryboothhouse.org;Scott Perkins;LaParish Woody ;;;;;;
552260641;chapin_dfss_providers_2011_070212.csv;ERIE NEIGHBORHOOD HOUSE FCCH-LUCIA RUBIO SITE;5522 W NEWPORT ST ;60641;4322213;;;;;;;ERIE NEIGHBORHOOD HOUSE;PORTAGE PARK;;;;;Cynthia Saurez;No;Yes;No;6112IP(EHS Collaboration Enhanced Home IP), 5695IT(Child Car;;;;;;;;;
553460629;chapin_dfss_providers_2011_070212.csv;CHICAGO PUBLIC SCHOOLS SANDOVAL, SOCORRO;5534 S SAINT LOUIS AVE ;60629;5350457;;;;;;;CHICAGO PUBLIC SCHOOLS;GAGE PARK;;;;;Dr. Ana Expinoza;Yes;No;No;;;;;;;;;;
553460629;DFSS_AgencySiteLies_2012.csv;Chicago Public Schools Sandoval, Socorro;5534 S Saint Louis Ave ;60629;5350457;;;;;;;Chicago Public Schools;;;;;;;;;;;www.cps.edu;Paula Cottone;Dr. Ana Expinoza;;;;;;
553460629;ECE Chicago Find a School scrape.csv; Sandoval;5534 S. St Louis ;60629;5350457;;;;;;Gage Park;;;;;;;;;;;;;HS-HD;;;;;;;
553860639;chapin_dfss_providers_2011_070212.csv;HULL HOUSE ASSOCIATION FCCH-EDITH COLLINS;5538 W CORTLAND AVE ;60639;2355342;;;;;;;HULL HOUSE ASSOCIATION;AUSTIN;;;;;Etisha Wofford;No;No;No;5731IP(EHS Collaboration Enhanced Home IP), 5732IT(Child Car;;;;;;;;;
554860629;chapin_dfss_providers_2011_070212.csv;EL HOGAR DEL NINO FCCH-MARIA GUZMAN;5548 S TRIPP AVE ;60629;7354542;;;;;;;EL HOGAR DEL NINO;WEST ELSDON;;;;;;Yes;Yes;No;5873PS(HS Collaboration with Childcare Homes), 5657IP(EHS Co;;;;;;;;;
560060637;purple_binder_early_childhood.csv; Centers for New Horizons Hyde Park;5600 S Woodlawn ;60637;6672525;;;;;;;;;;;;;;;;;;;;;;;;;;Child Care
561060644;CPS_Early_Childhood_Portal_scrape.csv; Marcy-Newberry Austin Town Hall;5610 W. Lake St. ;;2611062;;Community Partnerships;8-11 Hours, varies by facility;;;;;;;;;;;;;;;;;;;;;;;
561060644;CPS_Early_Childhood_Portal_scrape.csv; Marcy Newberry Association - Austin Town Hall;5610 W Lake St ;;2611505;;Head Start;HALF DAY/FULL DAY;;;;;;;;;;;;;;;;;;;;;;;
561060644;chapin_dfss_providers_2011_070212.csv;MARCY NEWBERRY ASSOCIATION AUSTIN TOWN HALL;5610 W LAKE ;60644;2611505;;;;;;;MARCY NEWBERRY ASSOCIATION;AUSTIN;;;;;Marsha Ballenger;Yes;No;No;7028PS(HS Collaboration with Childcare & PreK), 4155PS(Child;;;;;;;;;
561060644;DFSS_AgencySiteLies_2012.csv;Marcy Newberry Association Austin Town Hall;5610 W. Lake ;60644;2611505;;;;;;;Marcy Newberry Association;;;;;;;;;;;www.marcy-newberry.org;Gertrude Ricks;Marsha Ballenger;;;;;;
561060644;ECE Chicago Find a School scrape.csv; Marcy Newberry Austin Town;5610 W. Lake St. ;60644;2611505;;;;;;Austin;;;;;;;;;;;;;CP;;;;;;;
561060644;purple_binder_early_childhood.csv; Marcy Newberry Association - Austin Town Hall;5610 W Lake Street ;60644;2611505;;;;;;;;;;;;;;;;;;;;;;;;;;Child Care
561160660;CPS_Early_Childhood_Portal_scrape.csv; Lake Shore Schools - Clark;5611 N. Clark Street ;;5616707;;Community Partnerships;8-11 Hours, varies by facility;;;;;;;;;;;;;;;;;;;;;;;
561160660;NAEYC_accreditation.csv; Lake Shore Schools;5611 N. Clark Street  ;60660;5616707;;;;;;;;;;;;;;;;;;http://www.lakeshoreschoolschicago.com;;;;01/31/13;724391;info@lakeshoreschoolschicago.com;;
561160660;purple_binder_early_childhood.csv; Lake Shore School;5611 N Clark Street ;60660;5616707;;;;;;;;;;;;;;;;;;;;;;;;;;Child Care
562560638;CPS_Early_Childhood_Portal_scrape.csv; Kinzie;5625 S. Mobile ;;5352425;;Prekindergarten For All;3-4 hours;;;;;;;;;;;;;;;;;;;;;;;
562560638;ECE Chicago Find a School scrape.csv; Kinzie;5625 S. Mobile ;60638;5352425;;;;;;Garfield Ridge;;;;;;;;;;;;;PFA-REG;;;;;;;
562560646;CPS_Early_Childhood_Portal_scrape.csv; Hitch;5625 N. Mcvicker ;;5341189;;Prekindergarten For All;3-4 hours;;;;;;;;;;;;;;;;;;;;;;;
562560646;ECE Chicago Find a School scrape.csv; Hitch;5625 N. Mcvicker ;60646;5341189;;;;;;Norwood Park;;;;;;;;;;;;;PFA-REG;;;;;;;
563160637;CPS_Early_Childhood_Portal_scrape.csv; Ray;5631 S Kimbark ;;5350970;;Prekindergarten For All;3-4 hours;;;;;;;;;;;;;;;;;;;;;;;
563160637;CPS_Early_Childhood_Portal_scrape.csv; Ray;5631 S Kimbark ;;5350970;;Tuition Based Preschool;8-11 Hours, varies by facility;;;;;;;;;;;;;;;;;;;;;;;
563160637;ECE Chicago Find a School scrape.csv; Ray;5631 S Kimbark ;60637;5350970;;;;;;Hyde Park;;;;;;;;;;;;;TB;;;;;;;
563160637;ECE Chicago Find a School scrape.csv; Ray;5631 S Kimbark ;60637;5350970;;;;;;Hyde Park;;;;;;;;;;;;;PFA-REG;;;;;;;
565060636;CPS_Early_Childhood_Portal_scrape.csv; Henderson;5650 S. Wolcott ;;5359080;;Prekindergarten For All;3-4 hours;;;;;;;;;;;;;;;;;;;;;;;
565060636;ECE Chicago Find a School scrape.csv; Henderson;5650 S. Wolcott ;60636;5359080;;;;;;West Englewood;;;;;;;;;;;;;PFA-REG;;;;;;;
565460651;CPS_Early_Childhood_Portal_scrape.csv; Onward Neighborhood House - Tiny Town for Tots;5654 W Division St ;;;;Child Care;EXTENDED DAY;;;;;;;;;;;;;;;;;;;;;;;
565460651;CPS_Early_Childhood_Portal_scrape.csv; Onward Neighborhood House - Tiny Town for Tots;5654 W Division St ;;;;Head Start;HALF DAY/FULL DAY;;;;;;;;;;;;;;;;;;;;;;;
565460651;chapin_dfss_providers_2011_070212.csv;ONWARD NEIGHBORHOOD HOUSE TINY TOWN FOR TOTS;5654 W DIVISION ST ;60651;6260048;;;;;;;ONWARD NEIGHBORHOOD HOUSE;AUSTIN;;;;;Ricky Spain;Yes;No;No;;;;;;;;;;
565460651;DFSS_AgencySiteLies_2012.csv;Onward Neighborhood House Tiny Town for Tots;5654 W. Division St. ;60651;6260048;;;;;;;Onward Neighborhood House;;;;;;;;;;;www.onwardhouse.org;Mario Garcia;Ricky Spain;;;;;;
565960621;purple_binder_early_childhood.csv; Abraham Lincoln Centre;5659 S Union Avenue ;60621;7832828;;;;;;;;;;;;;;;;;;;;;;;;;;Child Care
570060636;chapin_dfss_providers_2011_070212.csv;EASTER SEALS SOCIETY OF METROPOLITAN CHICAGO FIRST START CHILDREN'S ACADEMY SOUTH;5700 S ASHLAND AVE 1ST FL ;60636;2777090;;;;;;;EASTER SEALS SOCIETY OF METROPOLITAN CHICAGO;WEST ENGLEWOOD;;;;;Beverly Mims;No;No;No;;;;;;;;;;
570060636;DFSS_AgencySiteLies_2012.csv;Easter Seals Society of Metropolitan Chicago First Start Children's Academy South;5700 S Ashland Ave  1st Fl ;60636;7.73E+016;;;;;;;Easter Seals Society of Metropolitan Chicago;;;;;;;;;;;www.easterseaslchicago.org;Barbara Zawacki;Beverly Mims ;;;;;;
570160644;CPS_Early_Childhood_Portal_scrape.csv; Marcy Newberry Association - St. John Greater Holy Temple;5701 W Midway Park ;;9480094;;Child Care;EXTENDED DAY;;;;;;;;;;;;;;;;;;;;;;;
570160644;CPS_Early_Childhood_Portal_scrape.csv; Marcy Newberry Association - St. John Greater Holy Temple;5701 W Midway Park ;;9480094;;Head Start;HALF DAY/FULL DAY;;;;;;;;;;;;;;;;;;;;;;;
570160644;chapin_dfss_providers_2011_070212.csv;MARCY NEWBERRY ASSOCIATION ST. JOHN;5701 W MIDWAY PARK ;60644;3795533;;;;;;;MARCY NEWBERRY ASSOCIATION;AUSTIN;;;;;Willie Mae Cole;Yes;No;No;3149PS(HS Collaboration with Childcare);;;;;;;;;
570160644;DFSS_AgencySiteLies_2012.csv;Marcy Newberry Association St. John; 5701 W. Midway Park ;60644;3795533;;;;;;;Marcy Newberry Association;;;;;;;;;;;www.marcy-newberry.org;Gertrude Ricks;Willie Mae Cole;;;;;;
570160651;chapin_dfss_providers_2011_070212.csv;EASTER SEALS SOCIETY OF METROPOLITAN CHICAGO CHANNINGS CHILD CARE;5701 W DIVISION ST ;60651;4572990;;;;;;;EASTER SEALS SOCIETY OF METROPOLITAN CHICAGO;AUSTIN;;;;;Ruth Kimble;Yes;No;No;;;;;;;;;;
570160651;DFSS_AgencySiteLies_2012.csv;Easter Seals Society of Metropolitan Chicago Channings Child Care;5701 W Division St ;60651;4572990;;;;;;;Easter Seals Society of Metropolitan Chicago;;;;;;;;;;;www.easterseaslchicago.org;Barbara Zawacki;Ruth Kimble;;;;;;
572560651;chapin_dfss_providers_2011_070212.csv;CHICAGO COMMONS ASSOCIATION BETTY'S DAYCARE ACADEMY;5725 W CHICAGO AVE ;60651;2611433;;;;;;;CHICAGO COMMONS ASSOCIATION;AUSTIN;;;;;;Yes;No;No;;;;;;;;;;
572560651;DFSS_AgencySiteLies_2012.csv;Chicago Commons Association Betty's Daycare Academy;5725 W Chicago Ave ;60651;2611433;;;;;;;Chicago Commons Association;;;;;;;;;;;www.chicagocommons.org;Dan Valliere;Betty Hughes;;;;;;
573860623;CPS_Early_Childhood_Portal_scrape.csv; El Hogar del Nino/Cuidar - Blanca Alatorre;5738 S KENNETH AVE ;;;;Child Care;EXTENDED DAY;;;;;;;;;;;;;;;;;;;;;;;
573860623;chapin_dfss_providers_2011_070212.csv;EL HOGAR DEL NINO FCCH-BLANCA ALATORRE;5738 S KENNETH AVE ;60623;5812872;;;;;;;EL HOGAR DEL NINO;WEST ELSDON;;;;;;Yes;Yes;No;5861PS(HS Collaboration with Childcare Homes), 5653IP(EHS Co;;;;;;;;;
574060637;CPS_Early_Childhood_Portal_scrape.csv; Carter;5740 S. Michigan Ave. ;;5350860;;Prekindergarten For All;3-4 hours;;;;;;;;;;;;;;;;;;;;;;;
574060637;ECE Chicago Find a School scrape.csv; Carter;5740 S. Michgan Ave. ;60637;5350860;;;;;;Washington Park;;;;;;;;;;;;;PFA-REG;;;;;;;
574560651;chapin_dfss_providers_2011_070212.csv;ONWARD NEIGHBORHOOD HOUSE MCKINNEY EARLY LEARNING ACADEMY;5745 W DIVISION ST ;60651;;;;;;;;ONWARD NEIGHBORHOOD HOUSE;AUSTIN;;;;;;Yes;No;No;;;;;;;;;;
574560651;DFSS_AgencySiteLies_2012.csv;Onward Neighborhood House McKinney Early Learning Academy;5745 W Division St. ;60651;;;;;;;;Onward Neighborhood House;;;;;;;;;;;www.onwardhouse.org;Mario Garcia;;;;;;;
575360629;chapin_dfss_providers_2011_070212.csv;GADS HILL CENTER FCCH-MARIA GONZALEZ;5753 S MOZART AVE ;60629;4714975;;;;;;;GADS HILL CENTER;GAGE PARK;;;;;;No;Yes;No;5979IP(EHS Collaboration Enhanced Home IP), 5979IT(EHS Enhan;;;;;;;;;
577660659;purple_binder_early_childhood.csv; Luv N Care Day School;5776 N Lincoln Avenue ;60659;7459591;;;;;;;;;;;;;;;;;;;;;;;;;;Child Care
585060644;chapin_dfss_providers_2011_070212.csv;EASTER SEALS SOCIETY OF METROPOLITAN CHICAGO CHILDREN'S INTERNATIONAL ACADEMY;5850 W ROOSEVELT RD ;60644;2870808;;;;;;;EASTER SEALS SOCIETY OF METROPOLITAN CHICAGO;AUSTIN;;;;;Gaby  Servin;Yes;No;No;;;;;;;;;;
585060644;DFSS_AgencySiteLies_2012.csv;Easter Seals Society of Metropolitan Chicago Children's International Academy;5850 W. Roosevelt Rd. ;60644;2870808;;;;;;;Easter Seals Society of Metropolitan Chicago;;;;;;;;;;;www.easterseaslchicago.org;Barbara Zawacki;Gaby Servin;;;;;;
590060629;ECE Chicago Find a School scrape.csv; Salvation Army Lawn;5900 S. Spaulding ;60629;7332533;;;;;;Chicago Lawn;;;;;;;;;;;;;CP;;;;;;;
590060631;CPS_Early_Childhood_Portal_scrape.csv; Norwood Park;5900 N. Nina ;;5341198;;Prekindergarten For All;3-4 hours;;;;;;;;;;;;;;;;;;;;;;;
590060631;ECE Chicago Find a School scrape.csv; Norwood Park;5900 N. Nina ;60631;5341198;;;;;;Norwood Park;;;;;;;;;;;;;PFA-REG;;;;;;;
590060631;NAEYC_accreditation.csv; Norwood Park Preschool for All;5900 North Nina Avenue  ;60631;5341162;;;;;;;;;;;;;;;;;;http://www.norwoodparkschool.com;;;;07/01/16;489732;nmtokarz@cps.edu;;
590060651;CPS_Early_Childhood_Portal_scrape.csv; Trinity Resources Unlimited, Inc. - Hope for Youth;5900 W Iowa St ;;6260323;;Child Care;EXTENDED DAY;;;;;;;;;;;;;;;;;;;;;;;
590060651;CPS_Early_Childhood_Portal_scrape.csv; Trinity Resources Unlimited, Inc. - Hope for Youth;5900 W Iowa St ;;6260323;;Head Start;HALF DAY/FULL DAY;;;;;;;;;;;;;;;;;;;;;;;
590060651;CPS_Early_Childhood_Portal_scrape.csv; Trinity Resources Unlimited, Inc. - Hope for Youth;5900 W Iowa St ;;6260323;;State Pre-Kindergarten;HALF DAY/FULL DAY;;;;;;;;;;;;;;;;;;;;;;;
590060651;chapin_dfss_providers_2011_070212.csv;TRINITY RESOURCES UNLIMITED, INC. HOPE FOR YOUTH;5900 W IOWA ;60651;6260322;;;;;;;TRINITY RESOURCES UNLIMITED, INC.;AUSTIN;;;;;Bernice Porter;Yes;No;No;7019PS(HS Collaboration with Childcare);;;;;;;;;
590060651;DFSS_AgencySiteLies_2012.csv;Trinity Resources Unlimited Inc Hope for Youth;5900 W. Iowa ;60651;6260322;;;;;;;Trinity Resources Unlimited Inc;;;;;;;;;;;;Marion Hayes;Yolonda Johnson;;;;;;
590060651;purple_binder_early_childhood.csv; Trinity Resources Hope for Youth;5900 W Iowa Street ;60651;6260323;;;;;;;;;;;;;;;;;;;;;;;;;;Child Care
590060660;CPS_Early_Childhood_Portal_scrape.csv; Swift;5900 N. Winthrop ;;5342695;;Prekindergarten For All;3-4 hours;;;;;;;;;;;;;;;;;;;;;;;
590060660;ECE Chicago Find a School scrape.csv; Swift;5900 N. Winthrop ;60660;5342695;;;;;;Edgewater;;;;;;;;;;;;;PFA-REG;;;;;;;
591660644;chapin_dfss_providers_2011_070212.csv;CAROLE ROBERTSON CENTER FOR LEARNING FCCH-ROBBIE ANTHONY;5916 W SUPERIOR ;60644;2974124;;;;;;;CAROLE ROBERTSON CENTER FOR LEARNING;AUSTIN;;;;;Jolene Martin;No;No;No;6101PS(HS Collaboration with Childcare Homes), 6101IP(EHS Co;;;;;;;;;
591660644;chapin_dfss_providers_2011_070212.csv;NORTH AVENUE DAY NURSERY FCCH-ROBBIE ANTHONY;5916 WEST SUPERIOR ;60644;2974124;;;;;;;NORTH AVENUE DAY NURSERY;AUSTIN;;;;;Sonja Anthony;No;Yes;No;6124IP(EHS Collaboration Enhanced Home IP), 6125IT(Child Car;;;;;;;;;
592160651;chapin_dfss_providers_2011_070212.csv;CAROLE ROBERTSON CENTER FOR LEARNING FCCH-SUSIE CANNON;5921 W RICE ;60651;3784342;;;;;;;CAROLE ROBERTSON CENTER FOR LEARNING;AUSTIN;;;;;Jolene Martin;Yes;Yes;No;5904PS(HS Collaboration with Childcare Homes), 5904IP(EHS Co;;;;;;;;;
592360609;CPS_Early_Childhood_Portal_scrape.csv; Kiddy Kare Preschools Little Learners;5923 W. 63rd St. ;;5815541;;Community Partnerships;8-11 Hours, varies by facility;;;;;;;;;;;;;;;;;;;;;;;
592360609;ECE Chicago Find a School scrape.csv; KKP - Little Learners Daycare;5923 W. 63rd St. ;60609;5815541;;;;;;Clearing;;;;;;;;;;;;;CP;;;;;;;
592360609;CPS_Early_Childhood_Portal_scrape.csv; El Valor - Little Learners;5923 W 63rd St ;;5815541;;Child Care;EXTENDED DAY;;;;;;;;;;;;;;;;;;;;;;;
592360609;CPS_Early_Childhood_Portal_scrape.csv; El Valor - Little Learners;5923 W 63rd St ;;5815541;;Head Start;HALF DAY/FULL DAY;;;;;;;;;;;;;;;;;;;;;;;
592360609;chapin_dfss_providers_2011_070212.csv;EL VALOR LITTLE LEARNERS;5923 W 63RD STREET ;60638;5815541;;;;;;;EL VALOR;CLEARING;;;;;Marilyn Gonzalez;Yes;No;No;;;;;;;;;;
592360609;DFSS_AgencySiteLies_2012.csv;El Valor Little Learners;5923 W. 63rd Street ;60638;5815541;;;;;;;El Valor;;;;;;;;;;;www.elvalor.org;Vincent Allocco;Paula Parrilli;;;;;;
592460644;chapin_dfss_providers_2011_070212.csv;NORTH AVENUE DAY NURSERY FCCH-SHELONDA HASSELL;5924 W OHIO AVE ;60644;;;;;;;;NORTH AVENUE DAY NURSERY;AUSTIN;;;;;;No;No;No;5985IP(EHS Collaboration Enhanced Home IP), 5986IT(Child Car;;;;;;;;;
592960651;chapin_dfss_providers_2011_070212.csv;NORTH AVENUE DAY NURSERY FCCH-CHERYL COOK;5929 W WALTON ;60651;;;;;;;;NORTH AVENUE DAY NURSERY;AUSTIN;;;;;;No;No;No;5835IT(Child Care Home IT), 5835PS(Child Care Home PS), 5835;;;;;;;;;
595460629;CPS_Early_Childhood_Portal_scrape.csv; Improved Child Care Albany Child Care;5954 S. Albany ;;7377810;;Community Partnerships;8-11 Hours, varies by facility;;;;;;;;;;;;;;;;;;;;;;;
595460629;chapin_dfss_providers_2011_070212.csv;ADA S. MCKINLEY COMMUNITY SERVICES ALBANY LOCATION;5954 S ALBANY ;60629;7377810;;;;;;;ADA S. MCKINLEY COMMUNITY SERVICES;CHICAGO LAWN;;;;;Mildred Burnside;Yes;No;No;;;;;;;;;;
595460629;DFSS_AgencySiteLies_2012.csv;Ada S. McKinley Community Services Albany Location;5954 S Albany ;60629;7377810;;;;;;;Ada S. McKinley Community Services;;;;;;;;;;;www.adasmckinley.org;George Jones, Jr.;Mildred Burnside;;;;;;
595860636;ECE Chicago Find a School scrape.csv; Children's Home Englewood Family Center;5958 S. Marshfield ;60636;4766998;;;;;;West Englewood;;;;;;;;;;;;;CP;;;;;;;
600660621;CPS_Early_Childhood_Portal_scrape.csv; Nicholson;6006 S. Peoria ;;5353285;;Head Start;3-4 hours;;;;;;;;;;;;;;;;;;;;;;;
600660621;chapin_dfss_providers_2011_070212.csv;CHICAGO PUBLIC SCHOOLS NICHOLSON MATH AND SCIENCE;6006 S PEORIA ST ;60621;5353285;;;;;;;CHICAGO PUBLIC SCHOOLS;ENGLEWOOD;;;;;Mr. Rodney L.  Hull;Yes;No;No;;;;;;;;;;
600660621;DFSS_AgencySiteLies_2012.csv;Chicago Public Schools Nicholson Math and Science;6006 S Peoria St ;60621;5353285;;;;;;;Chicago Public Schools;;;;;;;;;;;www.cps.edu;Paula Cottone;Mr. Rodney L. Hull;;;;;;
600660621;ECE Chicago Find a School scrape.csv; Nicholson;6006 S. Peoria ;60621;5353285;;;;;;Englewood;;;;;;;;;;;;;HS-FD;;;;;;;
601060632;chapin_dfss_providers_2011_070212.csv;EASTER SEALS SOCIETY OF METROPOLITAN CHICAGO LIZ-NEY-LAND #2;6010 S PULASKI ;60632;5828355;;;;;;;EASTER SEALS SOCIETY OF METROPOLITAN CHICAGO;WEST LAWN;;;;;Liz Medrano;Yes;No;No;;;;;;;;;;
601060632;DFSS_AgencySiteLies_2012.csv;Easter Seals Society of Metropolitan Chicago Liz-Ney-Land #2;6010 S. Pulaski ;60632;5828355;;;;;;;Easter Seals Society of Metropolitan Chicago;;;;;;;;;;;www.easterseaslchicago.org;Barbara Zawacki;Liz Medrano ;;;;;;
601160629;CPS_Early_Childhood_Portal_scrape.csv; Morrill;6011 S. Rockwell ;;5359288;;Prekindergarten For All;3-4 hours;;;;;;;;;;;;;;;;;;;;;;;
601160629;ECE Chicago Find a School scrape.csv; Morrill;6011 S. Rockwell  ;60629;5359288;;;;;;Chicago Lawn;;;;;;;;;;;;;PFA-REG;;;;;;;
601460621;chapin_dfss_providers_2011_070212.csv;HULL HOUSE ASSOCIATION BOTTLES TO BOOKS LEARNING CENTER;6014 S RACINE ;60621;4345772;;;;;;;HULL HOUSE ASSOCIATION;WEST ENGLEWOOD;;;;;Tamika Daniels;Yes;No;No;;;;;;;;;;
602060636;chapin_dfss_providers_2011_070212.csv;SALVATION ARMY FCCH-SHIRLEY OLIVER;6020 S PAULINA ;60636;9126264;;;;;;;SALVATION ARMY;WEST ENGLEWOOD;;;;;Kelli Kemp;No;Yes;No;5989IP(EHS Collaboration Enhanced Home IP), 5989IT(EHS Enhan;;;;;;;;;
602060636;NAEYC_accreditation.csv; Academy of Saint Benedict the African, Laflin Campus;6020 South Laflin  ;60636;7763316;;;;;;;;;;;;;;;;;;http://www.academystbenedict.org;;;;08/01/16;307193;pmurphy@archchicago.org;;
602060637;CPS_Early_Childhood_Portal_scrape.csv; Sexton, Austin O.;6020 S. Langley ;;5350640;;Head Start;5-6 hours;;;;;;;;;;;;;;;;;;;;;;;
602060637;chapin_dfss_providers_2011_070212.csv;CHICAGO PUBLIC SCHOOLS SEXTON, AUSTIN O.;6020 S LANGLEY ;60637;5350640;;;;;;;CHICAGO PUBLIC SCHOOLS;WOODLAWN;;;;;Mrs. Ginger V. Bryant;Yes;No;No;;;;;;;;;;
602060637;DFSS_AgencySiteLies_2012.csv;Chicago Public Schools Sexton, Austin O.;6020 S. Langley ;60637;5350640;;;;;;;Chicago Public Schools;;;;;;;;;;;www.cps.edu;Paula Cottone;Mrs. Ginger V. Bryant;;;;;;
602060637;ECE Chicago Find a School scrape.csv; Sexton, A .O.;6020 S. Langley ;60637;5350640;;;;;;Woodlawn;;;;;;;;;;;;;HS-HD;;;;;;;
604060637;purple_binder_early_childhood.csv; Woodlawn Organization;6040 S Harper Avenue ;60637;2885840;;;;;;;;;;;;;;;;;;;;;;;;;;Child Care
604160639;CPS_Early_Childhood_Portal_scrape.csv; Belmont-Cragin-Socrates;6041 W. Diversey ;;5343318;;Prekindergarten For All;3-4 hours;;;;;;;;;;;;;;;;;;;;;;;
604160639;ECE Chicago Find a School scrape.csv; Belmont-Cragin;6041 W. Diversey  ;60639;5343318;;;;;;Belmont Cragin;;;;;;;;;;;;;PFA-REG TS;;;;;;;
604160639;NAEYC_accreditation.csv; Belmont Cragin Early Childhood Center;6041 W. Diversey Avenue  ;60639;5343318;;;;;;;;;;;;;;;;;;;;;;08/01/16;723729;mmoya-leanga@cps.edu;;
610060639;CPS_Early_Childhood_Portal_scrape.csv; Onward Neighborhood House - Lee's Cuddles N Care;6100 W North Ave ;;7458054;;Head Start;HALF DAY/FULL DAY;;;;;;;;;;;;;;;;;;;;;;;
610060639;chapin_dfss_providers_2011_070212.csv;ONWARD NEIGHBORHOOD HOUSE LEE'S CUDDLES N CARE;6100 W NORTH AVENUE ;60639;7458054;;;;;;;ONWARD NEIGHBORHOOD HOUSE;AUSTIN;;;;;Anndrella Lee;Yes;No;No;;;;;;;;;;
610060639;DFSS_AgencySiteLies_2012.csv;Onward Neighborhood House Lee's Cuddles N Care;6100 W. North Avenue ;60639;7458054;;;;;;;Onward Neighborhood House;;;;;;;;;;;www.onwardhouse.org;Mario Garcia;Anndrella Lee ;;;;;;
610860638;CPS_Early_Childhood_Portal_scrape.csv; Dore;6108 S. Natoma Ave. ;;5352080;;Prekindergarten For All;3-4 hours;;;;;;;;;;;;;;;;;;;;;;;
610860638;ECE Chicago Find a School scrape.csv; Dore;6108 S. Natoma ;60638;5352080;;;;;;Clearing;;;;;;;;;;;;;PFA-REG;;;;;;;
611060629;chapin_dfss_providers_2011_070212.csv;GADS HILL CENTER FCCH-SARA ORTEGA SITE;6110 S MOZART ;60629;2511196;;;;;;;GADS HILL CENTER;CHICAGO LAWN;;;;;Celina Orozco;No;No;No;5707IP(EHS Collaboration Enhanced Home IP), 5713IT(Child Car;;;;;;;;;
611060659;ECE Chicago Find a School scrape.csv; Clinton;6110 N. Fairfield ;60659;5342025;;;;;;West Ridge;;;;;;;;;;;;;PFA-REG;;;;;;;
612160636;ECE Chicago Find a School scrape.csv; Earle;6121 S. Hermitage ;60636;5359130;;;;;;West Englewood;;;;;;;;;;;;;PFA-REG;;;;;;;
614060638;CPS_Early_Childhood_Portal_scrape.csv; Hale;6140 S. Melvina ;;5352265;;Prekindergarten For All;3-4 hours;;;;;;;;;;;;;;;;;;;;;;;
614060638;ECE Chicago Find a School scrape.csv; Hale;6140 S. Melvina ;60638;5352265;;;;;;Clearing;;;;;;;;;;;;;PFA-REG;;;;;;;
614560637;CPS_Early_Childhood_Portal_scrape.csv; Fiske;6145 S. Ingleside ;;5350990;;Head Start;5-6 hours;;;;;;;;;;;;;;;;;;;;;;;
614560637;CPS_Early_Childhood_Portal_scrape.csv; Fiske;6145 S. Ingleside ;;5350990;;Head Start/Prekindergarten For;8-11 Hours, varies by facility;;;;;;;;;;;;;;;;;;;;;;;
614560637;chapin_dfss_providers_2011_070212.csv;CHICAGO PUBLIC SCHOOLS FISKE, JOHN;6145 SOUTH INGLESIDE ;60637;5350990;;;;;;;CHICAGO PUBLIC SCHOOLS;WOODLAWN;;;;;Ms. Cynthia  Miller;Yes;No;No;;;;;;;;;;
614560637;DFSS_AgencySiteLies_2012.csv;Chicago Public Schools Fiske, John;6145 South Ingleside ;60637;5350990;;;;;;;Chicago Public Schools;;;;;;;;;;;www.cps.edu;Paula Cottone;Ms. Cynthia Miller;;;;;;
614560637;ECE Chicago Find a School scrape.csv; Fiske;6145 S. Ingleside ;60637;5350990;;;;;;Woodlawn;;;;;;;;;;;;;HS-HD;;;;;;;
620060637;ECE Chicago Find a School scrape.csv; YWCA Harris;6200 S. Drexel ;60637;6670014;;;;;;Woodlawn;;;;;;;;;;;;;CP;;;;;;;
620060637;purple_binder_early_childhood.csv; Kids Hope United - Harris Child Development Center;6200 S Drexel Avenue ;60637;3245612;;;;;;;;;;;;;;;;;;;;;;;;;;Child Care
620160621;purple_binder_early_childhood.csv; Kinara Community Services Day Care Center;6201 S Sangamon Street ;60621;3710720;;;;;;;;;;;;;;;;;;;;;;;;;;Child Care
620660636;CPS_Early_Childhood_Portal_scrape.csv; Woods;6206 S. Racine ;;5359250;;Prekindergarten For All;3-4 hours;;;;;;;;;;;;;;;;;;;;;;;
620660636;ECE Chicago Find a School scrape.csv; Woods;6206 S. Racine ;60636;5359250;;;;;;West Englewood;;;;;;;;;;;;;PFA-REG;;;;;;;
620660659;CPS_Early_Childhood_Portal_scrape.csv; Solomon;6206 N. Hamlin ;;5345226;;Prekindergarten For All;3-4 hours;;;;;;;;;;;;;;;;;;;;;;;
620660659;ECE Chicago Find a School scrape.csv; Solomon;6206 N. Hamlin ;60659;5345226;;;;;;North Park;;;;;;;;;;;;;PFA-REG;;;;;;;
622060631;CPS_Early_Childhood_Portal_scrape.csv; Edison Park;6220 N. Olcott ;;5341209;;Prekindergarten For All;3-4 hours;;;;;;;;;;;;;;;;;;;;;;;
622060631;ECE Chicago Find a School scrape.csv; Edison;6220 N. Olcott ;60631;5340960;;;;;;Norwood Park;;;;;;;;;;;;;PFA-REG;;;;;;;
622560637;CPS_Early_Childhood_Portal_scrape.csv; Centers For New Horizons - Washington Park South Learning Center;6225 S Wabash Ave ;;6672065;;Child Care;EXTENDED DAY;;;;;;;;;;;;;;;;;;;;;;;
622560637;CPS_Early_Childhood_Portal_scrape.csv; Center for New Horizons Washington Park;6225 S. Wabash ;;6672065;;Community Partnerships;8-11 Hours, varies by facility;;;;;;;;;;;;;;;;;;;;;;;
622560637;CPS_Early_Childhood_Portal_scrape.csv; Centers For New Horizons - Washington Park South Learning Center;6225 S Wabash Ave ;;6672065;;Head Start;HALF DAY/FULL DAY;;;;;;;;;;;;;;;;;;;;;;;
622560637;CPS_Early_Childhood_Portal_scrape.csv; Centers For New Horizons - Washington Park South Learning Center;6225 S Wabash Ave ;;6672065;;State Pre-Kindergarten;HALF DAY/FULL DAY;;;;;;;;;;;;;;;;;;;;;;;
622560637;ECE Chicago Find a School scrape.csv; Centers For New Horizons Washington Pk;6225 S. Wabash ;60637;6672065;;;;;;Washington Park;;;;;;;;;;;;;CP;;;;;;;
622560637;purple_binder_early_childhood.csv; Centers for New Horizons Washington Park;6225 S Wabash Avenue ;60637;6672065;;;;;;;;;;;;;;;;;;;;;;;;;;Child Care
624560637;CPS_Early_Childhood_Portal_scrape.csv; Boys and Girls Clubs of Chicago - Yancey;6245 S Wabash Ave ;;3634733;;Child Care;EXTENDED DAY;;;;;;;;;;;;;;;;;;;;;;;
624560637;CPS_Early_Childhood_Portal_scrape.csv; Boys & Girls Clubs John L. Yancey;6245 S. Wabash ;;3634733;;Community Partnerships;8-11 Hours, varies by facility;;;;;;;;;;;;;;;;;;;;;;;
624560637;CPS_Early_Childhood_Portal_scrape.csv; Boys and Girls Clubs of Chicago - Yancey;6245 S Wabash Ave ;;3634733;;Head Start;HALF DAY/FULL DAY;;;;;;;;;;;;;;;;;;;;;;;
624560637;ECE Chicago Find a School scrape.csv; B & G John Yancey;6245 S. Wabash ;60637;3634733;;;;;;Washington Park;;;;;;;;;;;;;CP;;;;;;;
624560637;purple_binder_early_childhood.csv; Boys & Girls Clubs of Chicago - Yancey;6245 S Wabash Avenue ;60637;3634733;;;;;;;;;;;;;;;;;;;;;;;;;;Child Care
625560638;NAEYC_accreditation.csv; Little Learners Preschool, Inc.;6255 South Mayfield  ;60638;5815541;;;;;;;;;;;;;;;;;;;;;;09/01/16;725678;;;
628760638;CPS_Early_Childhood_Portal_scrape.csv; El Valor - Kidz Colony;6287 S Archer Ave ;;7678522;;Child Care;EXTENDED DAY;;;;;;;;;;;;;;;;;;;;;;;
628760638;CPS_Early_Childhood_Portal_scrape.csv; Kiddy Kare Preschools Kidz Colony;6287 S. Archer ;;7678522;;Community Partnerships;8-11 Hours, varies by facility;;;;;;;;;;;;;;;;;;;;;;;
628760638;CPS_Early_Childhood_Portal_scrape.csv; El Valor - Kidz Colony;6287 S Archer Ave ;;7678522;;Head Start;HALF DAY/FULL DAY;;;;;;;;;;;;;;;;;;;;;;;
628760638;chapin_dfss_providers_2011_070212.csv;EL VALOR KIDZ COLONY;6287 SOUTH ARCHER AVE ;60638;7678522;;;;;;;EL VALOR;GARFIELD RIDGE;;;;;Joy Avila;Yes;No;No;;;;;;;;;;
628760638;DFSS_AgencySiteLies_2012.csv;El Valor Kidz Colony;6287 South Archer Ave ;60638;7678522;;;;;;;El Valor;;;;;;;;;;;www.elvalor.org;Vincent Allocco;Joy Avila;;;;;;
628760638;ECE Chicago Find a School scrape.csv; KKP - Kidz Colony;6287 S. Archer ;60638;7670844;;;;;;Garfield Ridge;;;;;;;;;;;;;CP;;;;;;;
630160621;purple_binder_early_childhood.csv; Kennedy-King College;6301 S Halsted Street ;60621;6025340;;;;;;;;;;;;;;;;;;;;;;;;;;Child Care
631160637;CPS_Early_Childhood_Portal_scrape.csv; Dulles;6311 S. Calumet ;;5350690;;Head Start;3-4 hours;;;;;;;;;;;;;;;;;;;;;;;
631160637;chapin_dfss_providers_2011_070212.csv;CHICAGO PUBLIC SCHOOLS DULLES, JOHN FOSTER;6311 SOUTH CALUMET ;60637;5350690;;;;;;;CHICAGO PUBLIC SCHOOLS;GREATER GRAND CROSSING;;;;;Ms. Pamela Creed;Yes;No;No;;;;;;;;;;
631160637;DFSS_AgencySiteLies_2012.csv;Chicago Public Schools Dulles, John Foster;6311 South Calumet ;60637;5350690;;;;;;;Chicago Public Schools;;;;;;;;;;;www.cps.edu;Paula Cottone;Ms. Pamela Creed;;;;;;
631160637;ECE Chicago Find a School scrape.csv; Dulles;6311 S. Calumet ;60637;5350690;;;;;;Greater Grand Crossing;;;;;;;;;;;;;HS-HD;;;;;;;
633060637;CPS_Early_Childhood_Portal_scrape.csv; YMCA of Metropolitan Chicago - South Side YMCA;6330 S Stony Island Ave ;;9470700;;Child Care;EXTENDED DAY;;;;;;;;;;;;;;;;;;;;;;;
633060637;CPS_Early_Childhood_Portal_scrape.csv; YMCA South Side;6330 S. Stony Island ;;9470700;;Community Partnerships;8-11 Hours, varies by facility;;;;;;;;;;;;;;;;;;;;;;;
633060637;CPS_Early_Childhood_Portal_scrape.csv; YMCA of Metropolitan Chicago - South Side YMCA;6330 S Stony Island Ave ;;9470700;;Head Start;HALF DAY/FULL DAY;;;;;;;;;;;;;;;;;;;;;;;
633060637;CPS_Early_Childhood_Portal_scrape.csv; YMCA of Metropolitan Chicago - South Side YMCA;6330 S Stony Island Ave ;;9470700;;School Age;PART DAY/FULL DAY;;;;;;;;;;;;;;;;;;;;;;;
633060637;CPS_Early_Childhood_Portal_scrape.csv; YMCA of Metropolitan Chicago - South Side YMCA;6330 S Stony Island Ave ;;9470700;;State Pre-Kindergarten;HALF DAY/FULL DAY;;;;;;;;;;;;;;;;;;;;;;;
633060637;chapin_dfss_providers_2011_070212.csv;YMCA OF METROPOLITAN CHICAGO SOUTH SIDE;6330 S STONY ISLAND ;60637;7739470;;;;;;;YMCA OF METROPOLITAN CHICAGO;WOODLAWN;;;;;Bobbie Dickens;Yes;Yes;Yes;2695IT(Child Care IT Center), 7144PS(HS Collaboration with C;;;;;;;;;
633060637;DFSS_AgencySiteLies_2012.csv;YMCA of Metropolitan Chicago South Side;6330 S. Stony Island ;60637;7739470;;;;;;;YMCA of Metropolitan Chicago;;;;;;;;;;;www.ymcachicago.org;Dorothy Cole-Gary;Bobbie Dickens ;;;;;;
633060637;ECE Chicago Find a School scrape.csv; YMCA South Side;6330 S Stony Island ;60637;9470700;;;;;;Woodlawn;;;;;;;;;;;;;CP;;;;;;;
633060637;NAEYC_accreditation.csv; South Side YMCA Day Care;6330 S. Stony Island  ;60637;3262570;;;;;;;;;;;;;;;;;;http://www.ymcachicago.org;;;;11/30/14;282881;BDickens@ymcachicago.org;;
633060637;purple_binder_early_childhood.csv; YMCA South Side;6330 S Stony Island Avenue ;60637;9470700;;;;;;;;;;;;;;;;;;;;;;;;;;Child Care
633360639;CPS_Early_Childhood_Portal_scrape.csv; Lovett;6333 W. Bloomingdale ;;5343130;;Prekindergarten For All;3-4 hours;;;;;;;;;;;;;;;;;;;;;;;
633360639;ECE Chicago Find a School scrape.csv; Lovett;6333 W. Bloomingdale ;60639;5343130;;;;;;Austin;;;;;;;;;;;;;PFA-REG;;;;;;;
640060637;purple_binder_early_childhood.csv; First Presbyterian Church;6400 S Kimbark Avenue ;60637;3630505;;;;;;;;;;;;;;;;;;;;;;;;;;Child Care
640160629;CPS_Early_Childhood_Portal_scrape.csv; El Valor - Teddy Bear 3 Pulaski;6401 S Pulaski RD ;;;;Child Care;EXTENDED DAY;;;;;;;;;;;;;;;;;;;;;;;
640160629;CPS_Early_Childhood_Portal_scrape.csv; Teddy Bear Nursery School, Inc. III;6401 S. Pulaski ;;2842292;;Community Partnerships;8-11 Hours, varies by facility;;;;;;;;;;;;;;;;;;;;;;;
640160629;CPS_Early_Childhood_Portal_scrape.csv; El Valor - Teddy Bear 3 Pulaski;6401 S Pulaski RD ;;;;Head Start;HALF DAY/FULL DAY;;;;;;;;;;;;;;;;;;;;;;;
640160629;chapin_dfss_providers_2011_070212.csv;EL VALOR TEDDY BEAR 3 (6401 S PULASKI RD);6401 S PULASKI ;60629;2842292;;;;;;;EL VALOR;WEST LAWN;;;;;Natasha Catchings;Yes;No;No;;;;;;;;;;
640160629;DFSS_AgencySiteLies_2012.csv;El Valor Teddy Bear 3;6401 S Pulaski Rd. ;60629;2842292;;;;;;;El Valor;;;;;;;;;;;www.elvalor.org;Vincent Allocco;Natasha Catchings ;;;;;;
640160629;ECE Chicago Find a School scrape.csv; Teddy Bear 3;6401 S. Pulaski ;60629;2842292;;;;;;West Lawn;;;;;;;;;;;;;CP;;;;;;;
640760645;purple_binder_early_childhood.csv; Little Angels Day Care Center;6407 N Maplewood ;60645;3389770;;;;;;;;;;;;;;;;;;;;;;;;;;Child Care
641660629;CPS_Early_Childhood_Portal_scrape.csv; New Hope Lutheran School;6416 S. Washtenaw ;;7769849;;Community Partnerships;8-11 Hours, varies by facility;;;;;;;;;;;;;;;;;;;;;;;
641660629;ECE Chicago Find a School scrape.csv; New Hope Lutheran School;6416 S. Washtenaw ;60629;7769849;;;;;;Chicago Lawn;;;;;;;;;;;;;CP;;;;;;;
642060637;CPS_Early_Childhood_Portal_scrape.csv; Wadsworth;6420 S. University ;;5350730;;Prekindergarten For All;3-4 hours;;;;;;;;;;;;;;;;;;;;;;;
642060637;ECE Chicago Find a School scrape.csv; Wadsworth;6420 S. University ;60637;5350730;;;;;;Woodlawn;;;;;;;;;;;;;PFA-REG PFA-FD;;;;;;;
642260629;CPS_Early_Childhood_Portal_scrape.csv; Metropolitan Family Services Midway;6422 S. Kedzie ;;7374790;;Community Partnerships;8-11 Hours, varies by facility;;;;;;;;;;;;;;;;;;;;;;;
642260629;CPS_Early_Childhood_Portal_scrape.csv; Metropolitan Family Services - Midway Head Start Center;6422 S Kedzie Ave ;;7374790;;Head Start;HALF DAY/FULL DAY;;;;;;;;;;;;;;;;;;;;;;;
642260629;chapin_dfss_providers_2011_070212.csv;METROPOLITAN FAMILY SERVICES MIDWAY HEAD START;6422 S KEDZIE ;60629;7374790;;;;;;;METROPOLITAN FAMILY SERVICES;CHICAGO LAWN;;;;;Rhonda Freeman;Yes;No;No;;;;;;;;;;
642260629;DFSS_AgencySiteLies_2012.csv;Metropolitan Family Services Midway Head Start;6422 S. Kedzie ;60629;7374790;;;;;;;Metropolitan Family Services;;;;;;;;;;;www.metrofamily.org;Laurie Sedio;Rhonda Freeman;;;;;;
642260629;NAEYC_accreditation.csv; Metropolitan Family Services ;6422 South Kedzie  ;60629;8842400;;;;;;;;;;;;;;;;;;http://www.metrofamily.org;;;;01/31/13;426821;freeman@metrofamily.org;;
642360637;DFSS_AgencySiteLies_2012.csv;Mary Crane League Mary Crane Center (St. Martin De Porres);6423 S. Woodlawn ;60637;9388130;;;;;;;Mary Crane League;;;;;;;;;;;www.marycrane.org;Lavetter Terry;Victoria Harbin;;;;;;
644160646;purple_binder_early_childhood.csv; Care-a-Lot Child Development Center;6441 N Central Avenue ;60646;7638888;;;;;;;;;;;;;;;;;;;;;;;;;;Child Care
644560656;CPS_Early_Childhood_Portal_scrape.csv; Beard;6445 W. Strong ;;5341230;;Prekindergarten For All;3-4 hours;;;;;;;;;;;;;;;;;;;;;;;
644560656;ECE Chicago Find a School scrape.csv; Beard;6445 W. Strong ;60656;5341228;;;;;;Norwood Park;;;;;;;;;;;;;PFA-REG;;;;;;;
644760629;chapin_dfss_providers_2011_070212.csv;CAROLE ROBERTSON CENTER FOR LEARNING FCCH-ANGELITA YUGSI;6447 S KNOX AVE ;60629;5211600;;;;;;;CAROLE ROBERTSON CENTER FOR LEARNING;CLEARING;;;;;Jolene Martin;Yes;No;No;5931PS(HS Collaboration with Childcare Homes), 5931IP(EHS Co;;;;;;;;;
644860629;CPS_Early_Childhood_Portal_scrape.csv; Lee;6448 S. Tripp ;;5352255;;Prekindergarten For All;3-4 hours;;;;;;;;;;;;;;;;;;;;;;;
644860629;ECE Chicago Find a School scrape.csv; Lee;6448 S. Tripp ;60629;5352255;;;;;;West Lawn;;;;;;;;;;;;;PFA-REG;;;;;;;
645060621;CPS_Early_Childhood_Portal_scrape.csv; Kershaw;6450 S. Lowe ;;5353050;;Head Start;3-4 hours;;;;;;;;;;;;;;;;;;;;;;;
645060621;chapin_dfss_providers_2011_070212.csv;CHICAGO PUBLIC SCHOOLS KERSHAW, JOSHUA D.;6450 S LOWE ;60621;5353050;;;;;;;CHICAGO PUBLIC SCHOOLS;ENGLEWOOD;;;;;Mrs. Patricia A.  Johnson;Yes;No;No;;;;;;;;;;
645060621;DFSS_AgencySiteLies_2012.csv;Chicago Public Schools Kershaw, Joshua D.;6450 S. Lowe ;60621;5353050;;;;;;;Chicago Public Schools;;;;;;;;;;;www.cps.edu;Paula Cottone;Veronica Nash;;;;;;
645060621;ECE Chicago Find a School scrape.csv; Kershaw;6450 S. Lowe ;60621;5353050;;;;;;Englewood;;;;;;;;;;;;;HS-HD;;;;;;;
645060637;purple_binder_early_childhood.csv; Woodlawn Organization - Early Childhood Development Center;6450 S Champlain Avenue ;60637;3631238;;;;;;;;;;;;;;;;;;;;;;;;;;Child Care
645660637;CPS_Early_Childhood_Portal_scrape.csv; Woodlawn A.M.E. Church - Woodlawn A.M.E.;6456 S Evans Ave ;;6671402;;Child Care;EXTENDED DAY;;;;;;;;;;;;;;;;;;;;;;;
645660637;CPS_Early_Childhood_Portal_scrape.csv; Woodlawn A.M.E. Church - Woodlawn A.M.E.;6456 S Evans Ave ;;6671402;;School Age;PART DAY/FULL DAY;;;;;;;;;;;;;;;;;;;;;;;
645660637;chapin_dfss_providers_2011_070212.csv;WOODLAWN A.M.E. CHURCH WOODLAWN AME CHURCH;6456 S EVANS ;60637;6671402;;;;;;;WOODLAWN A.M.E. CHURCH;WOODLAWN;;;;;Samara Akins;No;No;No;7148IT(Child Care IT Center), 2686SA(School Age (SA)), 7148P;;;;;;;;;
645660637;DFSS_AgencySiteLies_2012.csv;Woodlawn A.M.E. Church WOODLAWN AME CHURCH;6456 S. Evans ;60637;6671402;;;;;;;Woodlawn A.M.E. Church;;;;;;;;;;;www.woodlawnamechurch.org;Samara Akins;Samara Akins;;;;;;
645660637;purple_binder_early_childhood.csv; Woodlawn AME;6456 S Evans Avenue ;60637;6671400;;;;;;;;;;;;;;;;;;;;;;;;;;Child Care
651260621;chapin_dfss_providers_2011_070212.csv;MARY CRANE LEAGUE CHILDREN'S LEARN AND PLAY;6512 S HALSTED ST ;60621;;;;;;;;MARY CRANE LEAGUE;ENGLEWOOD;;;;;;Yes;No;No;;;;;;;;;;
651260621;DFSS_AgencySiteLies_2012.csv;Mary Crane League Children's Learn and Play;6512 S. Halsted ;60621;9667162;;;;;;;Mary Crane League;;;;;;;;;;;www.marycrane.org;Lavetter Terry;Mashanda Scott ;;;;;;
653560629;chapin_dfss_providers_2011_070212.csv;CHICAGO YOUTH CENTERS PATHWAY;6535 S KEDZIE AVE ;60629;;;;;;;;CHICAGO YOUTH CENTERS;CHICAGO LAWN;;;;;;Yes;No;No;;;;;;;;;;
653560629;DFSS_AgencySiteLies_2012.csv;Chicago Youth Centers Pathway;6535 S. Kedzie ;60629;7780017;;;;;;;Chicago Youth Centers;;;;;;;;;;;www.chicagoyouthcenters.org;Harry Wells;Tracy Baker ;;;;;;
655060629;CPS_Early_Childhood_Portal_scrape.csv; Marquette;6550 S. Richmond ;;5359260;;Prekindergarten For All;3-4 hours;;;;;;;;;;;;;;;;;;;;;;;
655060629;ECE Chicago Find a School scrape.csv; Marquette;6550 S. Richmond ;60629;5359260;;;;;;Chicago Lawn;;;;;;;;;;;;;PFA-REG;;;;;;;
655060636;CPS_Early_Childhood_Portal_scrape.csv; O'Toole;6550 S. Seeley ;;5359040;;Head Start;5-6 hours;;;;;;;;;;;;;;;;;;;;;;;
655060636;chapin_dfss_providers_2011_070212.csv;CHICAGO PUBLIC SCHOOLS O'TOOLE, LUKE;6550 S SEELEY ;60636;5359040;;;;;;;CHICAGO PUBLIC SCHOOLS;WEST ENGLEWOOD;;;;;Mr. Erick D.  Pruitt;Yes;No;No;;;;;;;;;;
655060636;DFSS_AgencySiteLies_2012.csv;Chicago Public Schools O'Toole, Luke;6550 S. Seeley ;60636;5359040;;;;;;;Chicago Public Schools;;;;;;;;;;;www.cps.edu;Paula Cottone;Mr. King Hall;;;;;;
655060636;ECE Chicago Find a School scrape.csv; O'Toole;6550 S. Seeley ;60636;5359040;;;;;;West Englewood;;;;;;;;;;;;;HS-HD;;;;;;;
663460631;CPS_Early_Childhood_Portal_scrape.csv; Onahan;6634 W. Raven St. ;;5341180;;Prekindergarten For All;3-4 hours;;;;;;;;;;;;;;;;;;;;;;;
663460631;ECE Chicago Find a School scrape.csv; Onahan;6634 W. Raven St. ;60631;5341180;;;;;;Norwood Park;;;;;;;;;;;;;PFA-REG;;;;;;;
665060637;ECE Chicago Find a School scrape.csv; Dumas;6650 S. Ellis ;60637;5350750;;;;;;Woodlawn;;;;;;;;;;;;;PFA-REG;;;;;;;
665660621;CPS_Early_Childhood_Portal_scrape.csv; Banneker;6656 S. Normal Blvd. ;;5353020;;Prekindergarten For All;3-4 hours;;;;;;;;;;;;;;;;;;;;;;;
665660621;ECE Chicago Find a School scrape.csv; Banneker;6656 S. Normal ;60621;5353020;;;;;;Englewood;;;;;;;;;;;;;PFA-REG;;;;;;;
665760637;chapin_dfss_providers_2011_070212.csv;CHICAGO PUBLIC SCHOOLS WOODLAWN COMMUNITY SCHOOL;6657 S KIMBARK AVE ;60637;5350801;;;;;;;CHICAGO PUBLIC SCHOOLS;WOODLAWN;;;;;Frank  Embil;Yes;No;No;;;;;;;;;;
665760637;DFSS_AgencySiteLies_2012.csv;Chicago Public Schools Woodlawn Community School;6657 S Kimbark Ave ;60637;5350801;;;;;;;Chicago Public Schools;;;;;;;;;;;www.cps.edu;Paula Cottone;Frank Embil;;;;;;
670060626;CPS_Early_Childhood_Portal_scrape.csv; Kilmer;6700 N. Greenview ;;5342115;;Prekindergarten For All;3-4 hours;;;;;;;;;;;;;;;;;;;;;;;
670060626;ECE Chicago Find a School scrape.csv; Kilmer;6700 N. Greenview ;60626;5342115;;;;;;Rogers Park;;;;;;;;;;;;;PFA-REG;;;;;;;
670160621;CPS_Early_Childhood_Portal_scrape.csv; Little Angels Family Daycare;6701 S. Emerald ;;3703688;;Community Partnerships;8-11 Hours, varies by facility;;;;;;;;;;;;;;;;;;;;;;;
670160621;CPS_Early_Childhood_Portal_scrape.csv; Henry Booth House - Little Angels Family DayCare;6701 S Emerald Ave ;;4888777;;Head Start;HALF DAY/FULL DAY;;;;;;;;;;;;;;;;;;;;;;;
670160621;chapin_dfss_providers_2011_070212.csv;HENRY BOOTH HOUSE LITTLE ANGELS FAMILY DAYCARE;6701 S EMERALD AVE ;60621;4888777;;;;;;;HENRY BOOTH HOUSE;ENGLEWOOD;;;;;NaShone Greer;Yes;No;No;;;;;;;;;;
670160621;DFSS_AgencySiteLies_2012.csv;Henry Booth House Little Angels Family DayCare;6701 S. Emerald Ave. ;60621;4888777;;;;;;;Henry Booth House;;;;;;;;;;;www.henryboothhouse.org;Scott Perkins;NaShone Greer;;;;;;
671060645;CPS_Early_Childhood_Portal_scrape.csv; Boone;6710 N. Washtenaw ;;5342160;;Prekindergarten For All;3-4 hours;;;;;;;;;;;;;;;;;;;;;;;
671060645;ECE Chicago Find a School scrape.csv; Boone;6710 N. Washtenaw ;60645;5342160;;;;;;West Ridge;;;;;;;;;;;;;PFA-REG TS;;;;;;;
671160626;purple_binder_early_childhood.csv; Northshore Academy for Children;6711 N Sheridan Road ;60626;7434744;;;;;;;;;;;;;;;;;;;;;;;;;;Child Care
674160637;CPS_Early_Childhood_Portal_scrape.csv; Brownell;6741 S. Michigan ;;5353030;;Prekindergarten For All;3-4 hours;;;;;;;;;;;;;;;;;;;;;;;
674160637;ECE Chicago Find a School scrape.csv; Brownell;6741 S. Michigan ;60637;5353030;;;;;;Greater Grand Crossing;;;;;;;;;;;;;PFA-REG;;;;;;;
674960636;chapin_dfss_providers_2011_070212.csv;SALVATION ARMY FCCH-MILDRED SPEARS;6749 S WINCHESTER ;60636;9301832;;;;;;;SALVATION ARMY;WEST ENGLEWOOD;;;;;Kelli Kemp;No;No;No;6107IP(EHS Collaboration Enhanced Home IP), 6107IT(EHS Enhan;;;;;;;;;
680060621;CPS_Early_Childhood_Portal_scrape.csv; Board Trustees-City Colleges of Chicago - Kennedy-King College;6800 S Wentworth Ave ;;5533475;;Child Care;EXTENDED DAY;;;;;;;;;;;;;;;;;;;;;;;
680060621;CPS_Early_Childhood_Portal_scrape.csv; Board Trustees-City Colleges of Chicago - Kennedy-King College;6800 S Wentworth Ave ;;5533475;;Head Start;HALF DAY/FULL DAY;;;;;;;;;;;;;;;;;;;;;;;
680060621;CPS_Early_Childhood_Portal_scrape.csv; Board Trustees-City Colleges of Chicago - Kennedy-King College;6800 S Wentworth Ave ;;5533475;;State Pre-Kindergarten;HALF DAY/FULL DAY;;;;;;;;;;;;;;;;;;;;;;;
680060621;ECE Chicago Find a School scrape.csv; City Colleges Kennedy King;6800 S. Wentworth ;60621;6025481;;;;;;Greater Grand Crossing;;;;;;;;;;;;;CP;;;;;;;
680060621;purple_binder_early_childhood.csv; Kennedy-King College;6800 S Wentworth Avenue ;60621;6025340;;;;;;;;;;;;;;;;;;;;;;;;;;Child Care
682460649;CPS_Early_Childhood_Portal_scrape.csv; Family Rescue - Ridgeland Head Start;6824 S Ridgeland Ave ;;6671073;;Child Care;EXTENDED DAY;;;;;;;;;;;;;;;;;;;;;;;
682460649;CPS_Early_Childhood_Portal_scrape.csv; Family Rescue - Ridgeland Head Start;6824 S Ridgeland Ave ;;6671073;;Head Start;HALF DAY/FULL DAY;;;;;;;;;;;;;;;;;;;;;;;
682460649;purple_binder_early_childhood.csv; Family Rescue Ridgeland;6824 S Ridgeland Avenue ;60649;6671073;;;;;;;;;;;;;;;;;;;;;;;;;;Child Care
690160629;chapin_dfss_providers_2011_070212.csv;CHICAGO PUBLIC SCHOOLS MCKAY, FRANCIS M.;6901 S FAIRFIELD AVE ;60629;5359505;;;;;;;CHICAGO PUBLIC SCHOOLS;CHICAGO LAWN;;;;;Mrs. Dawn Prather-Hawk;Yes;No;No;;;;;;;;;;
692160645;chapin_dfss_providers_2011_070212.csv;CHICAGO COMMONS ASSOCIATION PANDA MONTESSORI;6921 N RIDGE ;60645;3386755;;;;;;;CHICAGO COMMONS ASSOCIATION;ROGERS PARK;;;;;Angela Perry;Yes;No;No;;;;;;;;;;
692160645;DFSS_AgencySiteLies_2012.csv;Chicago Commons Association Panda Montessori;6921 N. Ridge ;60645;3386755;;;;;;;Chicago Commons Association;;;;;;;;;;;www.chicagocommons.org;Dan Valliere;Angela Perry;;;;;;
692160645;ECE Chicago Find a School scrape.csv; Panda Montessori Academy;6921 N. Ridge ;60645;3386755;;;;;;Rogers Park;;;;;;;;;;;;;CP;;;;;;;
692160649;CPS_Early_Childhood_Portal_scrape.csv; Trinity United Church of Christ - Dr. Denton J. Brooks Center;6921 S Stony Island Ave ;;9552818;;Child Care;EXTENDED DAY;;;;;;;;;;;;;;;;;;;;;;;
692160649;CPS_Early_Childhood_Portal_scrape.csv; Trinity United Church of Christ Denton Brooks;6921 S. Stony Island ;;9552818;;Community Partnerships;8-11 Hours, varies by facility;;;;;;;;;;;;;;;;;;;;;;;
692160649;CPS_Early_Childhood_Portal_scrape.csv; Trinity United Church of Christ - Dr. Denton J. Brooks Center;6921 S Stony Island Ave ;;9552818;;Head Start;HALF DAY/FULL DAY;;;;;;;;;;;;;;;;;;;;;;;
692160649;CPS_Early_Childhood_Portal_scrape.csv; Trinity United Church of Christ - Dr. Denton J. Brooks Center;6921 S Stony Island Ave ;;9552818;;State Pre-Kindergarten;HALF DAY/FULL DAY;;;;;;;;;;;;;;;;;;;;;;;
692160649;chapin_dfss_providers_2011_070212.csv;TRINITY UNITED CHURCH OF CHRIST DR. DETON J. BROOKS HEAD START;6921 S STONY ISLAND ;60649;9552818;;;;;;;TRINITY UNITED CHURCH OF CHRIST;SOUTH SHORE;;;;;Cherie Brown;Yes;No;Yes;7079PS(HS Collaboration with Childcare & PreK), 4118PS(Child;;;;;;;;;
692160649;DFSS_AgencySiteLies_2012.csv;Trinity United Church of Christ Dr. Deton J. Brooks Head Start;6921 S. Stony Island ;60649;9661603;;;;;;;Trinity United Church of Christ;;;;;;;;;;;www.tucc.org;Janet Moore;Cherie Brown;;;;;;
692160649;ECE Chicago Find a School scrape.csv; Trinity UCC - Denton Brooks;6921 S. Stony Island  ;60649;9552818;;;;;;South Shore;;;;;;;;;;;;;CP;;;;;;;
692160649;purple_binder_early_childhood.csv; Dr. Deton J. Brooks Head Start;6921 S Stony Island Avenue ;60649;9552818;;;;;;;;;;;;;;;;;;;;;;;;;;Child Care
692460707;CPS_Early_Childhood_Portal_scrape.csv; Fresh Start Daycare, Inc.;6924 W. North Avenue ;;4792870;;Community Partnerships;8-11 Hours, varies by facility;;;;;;;;;;;;;;;;;;;;;;;
692460707;chapin_dfss_providers_2011_070212.csv;EASTER SEALS SOCIETY OF METROPOLITAN CHICAGO FRESH START DAY CARE CENTER;6924 W NORTH AVENUE ;60635;4792870;;;;;;;EASTER SEALS SOCIETY OF METROPOLITAN CHICAGO;AUSTIN;;;;;Claudia Aguayo;Yes;No;No;;;;;;;;;;
692460707;DFSS_AgencySiteLies_2012.csv;Easter Seals Society of Metropolitan Chicago Fresh Start Day Care Center;6924 W. North Avenue ;60635;4792870;;;;;;;Easter Seals Society of Metropolitan Chicago;;;;;;;;;;;www.easterseaslchicago.org;Barbara Zawacki;Claudia Aguayo ;;;;;;
692460707;purple_binder_early_childhood.csv; Fresh Start Day Care;6924 W North Avenue ;60707;4792870;;;;;;;;;;;;;;;;;;;;;;;;;;Child Care
693860649;CPS_Early_Childhood_Portal_scrape.csv; Parkside;6938 S. East End Av. ;;5350940;;Prekindergarten For All;3-4 hours;;;;;;;;;;;;;;;;;;;;;;;
693860649;ECE Chicago Find a School scrape.csv; Parkside;6938 S. East End Av. ;60649;5350940;;;;;;South Shore;;;;;;;;;;;;;PFA-REG;;;;;;;
694060649;chapin_dfss_providers_2011_070212.csv;CHICAGO PUBLIC SCHOOLS O'KEEFFE, ISABELL C.;6940 S MERRILL ;60649;5350600;;;;;;;CHICAGO PUBLIC SCHOOLS;SOUTH SHORE;;;;;Mrs. Carolyn D.  Townes;Yes;No;No;;;;;;;;;;
694060649;DFSS_AgencySiteLies_2012.csv;Chicago Public Schools O'Keeffe, Isabell C.;6940 S. Merrill ;60649;5350600;;;;;;;Chicago Public Schools;;;;;;;;;;;www.cps.edu;Paula Cottone;Stephen Parker;;;;;;
694060649;CPS_Early_Childhood_Portal_scrape.csv; O'Keeffe;6940 S. Merrill ;;5350600;;Head Start;5-6 hours;;;;;;;;;;;;;;;;;;;;;;;
694060649;ECE Chicago Find a School scrape.csv; O'Keeffe;6941 S. Merrill ;60649;5350600;;;;;;South Shore;;;;;;;;;;;;;HS-HD;;;;;;;
695060621;CPS_Early_Childhood_Portal_scrape.csv; Wentworth;6950 S. Sangamon ;;5353394;;Prekindergarten For All;3-4 hours;;;;;;;;;;;;;;;;;;;;;;;
695060621;ECE Chicago Find a School scrape.csv; Wentworth;6950 S. Sangamon ;60621;5353394;;;;;;Englewood;;;;;;;;;;;;;PFA-REG;;;;;;;
695460629;chapin_dfss_providers_2011_070212.csv;CAROLE ROBERTSON CENTER FOR LEARNING FCCH-KEMISHA ALLEN;6954 S FAIRFIELD ;60629;;;;;;;;CAROLE ROBERTSON CENTER FOR LEARNING;CHICAGO LAWN;;;;;Jolene Martin;No;No;No;5983PS(HS Collaboration with Childcare Homes);;;;;;;;;
696960626;CPS_Early_Childhood_Portal_scrape.csv; Eyes on the Future;6969 N. Ravenswood ;;9730771;;Community Partnerships;8-11 Hours, varies by facility;;;;;;;;;;;;;;;;;;;;;;;
696960626;chapin_dfss_providers_2011_070212.csv;CHICAGO COMMONS ASSOCIATION EYES ON THE FUTURE;6969 N RAVENSWOOD ;60626;9730771;;;;;;;CHICAGO COMMONS ASSOCIATION;ROGERS PARK;;;;;Azieb  Gebrehiiwet;Yes;No;No;;;;;;;;;;
696960626;DFSS_AgencySiteLies_2012.csv;Chicago Commons Association Eyes on the Future;6969 N. Ravenswood ;60626;9730771;;;;;;;Chicago Commons Association;;;;;;;;;;;www.chicagocommons.org;Dan Valliere;Azieb  Gebrehiiwet;;;;;;
696960626;NAEYC_accreditation.csv; Eyes on the Future ;6969 N. Ravenswood Avenue Suite A ;60626;9730771;;;;;;;;;;;;;;;;;;http://www.eyesonthefuture.net;;;;01/31/13;486830;eotfuture@gmail.com;;
696960626;purple_binder_early_childhood.csv; Eyes on the Future Child Care Center;6969 N Ravenswood Avenue ;60626;9730771;;;;;;;;;;;;;;;;;;;;;;;;;;Child Care
700160621;purple_binder_early_childhood.csv; South Central Community Service;7001 S Union Avenue ;60621;6028120;;;;;;;;;;;;;;;;;;;;;;;;;;Child Care
700760636;chapin_dfss_providers_2011_070212.csv;CHICAGO PUBLIC SCHOOLS ALTGELD, JOHN P.;7007 S LOOMIS ;60636;5353257;;;;;;;CHICAGO PUBLIC SCHOOLS;WEST ENGLEWOOD;;;;;Mrs. Vera Williams-Willis;Yes;No;No;;;;;;;;;;
700760636;DFSS_AgencySiteLies_2012.csv;Chicago Public Schools Altgeld, John P.;7007 S. Loomis ;60636;5353250;;;;;;;Chicago Public Schools;;;;;;;;;;;www.cps.edu;Paula Cottone;Gloria Davis;;;;;;
700760636;ECE Chicago Find a School scrape.csv; Altgeld;7007 S. Loomis ;60636;5353250;;;;;;West Englewood;;;;;;;;;;;;;HS-HD;;;;;;;
701260707;chapin_dfss_providers_2011_070212.csv;CHICAGO COMMONS ASSOCIATION MY PRECIOUS LITTLE ANGELS;7012 W NORTH AVE ;60707;6371708;;;;;;;CHICAGO COMMONS ASSOCIATION;AUSTIN;;;;;Doris Gadberry;Yes;No;No;;;;;;;;;;
701260707;DFSS_AgencySiteLies_2012.csv;Chicago Commons Association My Precious Little Angels;7012 W North Ave ;60707;6371708;;;;;;;Chicago Commons Association;;;;;;;;;;;www.chicagocommons.org;Dan Valliere;Doris Gadberry;;;;;;
703760637;CPS_Early_Childhood_Portal_scrape.csv; Park Manor;7037 S. Rhodes ;;5353070;;Prekindergarten For All;3-4 hours;;;;;;;;;;;;;;;;;;;;;;;
703760637;ECE Chicago Find a School scrape.csv; Park Manor;7037 S. Rhodes  ;60637;5353070;;;;;;Greater Grand Crossing;;;;;;;;;;;;;PFA-REG;;;;;;;
703760649;CPS_Early_Childhood_Portal_scrape.csv; Children?s Developmental Institute SS;7037 S. Stony Island ;;3633200;;Community Partnerships;8-11 Hours, varies by facility;;;;;;;;;;;;;;;;;;;;;;;
703760649;ECE Chicago Find a School scrape.csv; Children's Dev Inst So Shore;7037 S. Stony Island ;60649;3633200;;;;;;South Shore;;;;;;;;;;;;;CP;;;;;;;
703760649;ECE Chicago Find a School scrape.csv; Children's Dev Inst So Shore I/T;7037 S. Stony Island ;60649;3633200;;;;;;South Shore;;;;;;;;;;;;;CP;;;;;;;
705060621;CPS_Early_Childhood_Portal_scrape.csv; Bond;7050 S. May ;;5353480;;Head Start;5-6 hours;;;;;;;;;;;;;;;;;;;;;;;
705060621;chapin_dfss_providers_2011_070212.csv;CHICAGO PUBLIC SCHOOLS BOND, CARRIE JACOBS;7050 S MAY ;60621;5353480;;;;;;;CHICAGO PUBLIC SCHOOLS;ENGLEWOOD;;;;;Mr. Alfonso  Carington;Yes;No;No;;;;;;;;;;
705060621;DFSS_AgencySiteLies_2012.csv;Chicago Public Schools Bond, Carrie Jacobs;7050 S. May, Chicago ;60621;5353480;;;;;Chicago Public Schools;;;;;;;;;;;www.cps.edu;Paula Cottone;Ms. Valesta Cobbs;;;;;;;;
705060621;ECE Chicago Find a School scrape.csv; Bond;7050 S. May ;60621;5353480;;;;;;Englewood;;;;;;;;;;;;;HS-HD;;;;;;;
705860621;purple_binder_early_childhood.csv; Appeal for Charities Ebenezer;7058 S LaFayette Avenue ;60621;6515400;;;;;;;;;;;;;;;;;;;;;;;;;;Child Care
705960626;CPS_Early_Childhood_Portal_scrape.csv; Christopher House - Christopher House - Rogers Park;7059 N Greenview Ave ;;2745477;;Child Care;EXTENDED DAY;;;;;;;;;;;;;;;;;;;;;;;
705960626;CPS_Early_Childhood_Portal_scrape.csv; Christopher House Rogers Park;7059 N. Greenview ;;2745477;;Community Partnerships;8-11 Hours, varies by facility;;;;;;;;;;;;;;;;;;;;;;;
705960626;CPS_Early_Childhood_Portal_scrape.csv; Christopher House - Christopher House - Rogers Park;7059 N Greenview Ave ;;2745477;;Head Start;HALF DAY/FULL DAY;;;;;;;;;;;;;;;;;;;;;;;
705960626;CPS_Early_Childhood_Portal_scrape.csv; Christopher House - Christopher House - Rogers Park;7059 N Greenview Ave ;;2745477;;State Pre-Kindergarten;HALF DAY/FULL DAY;;;;;;;;;;;;;;;;;;;;;;;
705960626;chapin_dfss_providers_2011_070212.csv;CHRISTOPHER HOUSE ROGERS PARK;7059 N GREENVIEW ;60626;2745477;;;;;;;CHRISTOPHER HOUSE;ROGERS PARK;;;;;Joni Rudds;Yes;No;Yes;7073PS(HS Collaboration with Childcare & PreK), 4147PS(Child;;;;;;;;;
705960626;DFSS_AgencySiteLies_2012.csv;Christopher House Rogers Park;7059 N. Greenview ;60626;2745477;;;;;;;Christopher House;;;;;;;;;;;www.christopherhouse.org;Lori Baas;Atena Danner-McPhaden;;;;;;
705960626;NAEYC_accreditation.csv; Christopher House-Rogers Park;7059 North Greenview Avenue  ;60626;2745477;;;;;;;;;;;;;;;;;;http://www.christopherhouse.org;;;;08/31/13;437986;adanner@christopherhouse.org;;
705960626;purple_binder_early_childhood.csv; Christopher House - Rogers Park;7059 N Greenview Avenue ;60626;2745477;;;;;;;;;;;;;;;;;;;;;;;;;;Child Care
705960629;ECE Chicago Find a School scrape.csv; McKay;7059 S. Washtenaw ;60629;5359340;;;;;;Chicago Lawn;;;;;;;;;;;;;HS-HD;;;;;;;
706060629;DFSS_AgencySiteLies_2012.csv;Chicago Public Schools McKay, Francis M.;7060 S. Washtenaw ;60629;5359340;;;;;;;Chicago Public Schools;;;;;;;;;;;www.cps.edu;Paula Cottone;Mrs. Dawn Prather-Hawk;;;;;;
714160621;CPS_Early_Childhood_Portal_scrape.csv; Guggenheim;7141 S. Morgan ;;5353587;;Head Start;5-6 hours;;;;;;;;;;;;;;;;;;;;;;;
714160621;chapin_dfss_providers_2011_070212.csv;CHICAGO PUBLIC SCHOOLS GUGGENHEIM, SIMON;7141 S MORGAN ST ;60621;5353587;;;;;;;CHICAGO PUBLIC SCHOOLS;ENGLEWOOD;;;;;Ms. Mary D. McNair;Yes;No;No;;;;;;;;;;
714160621;DFSS_AgencySiteLies_2012.csv;Chicago Public Schools Guggenheim, Simon;7141 S. Morgan St. ;60621;5353587;;;;;;;Chicago Public Schools;;;;;;;;;;;www.cps.edu;Paula Cottone;Vikki Stokes;;;;;;
714160621;ECE Chicago Find a School scrape.csv; Guggenheim;7141 S. Morgan ;60621;5353587;;;;;;Englewood;;;;;;;;;;;;;HS-HD;;;;;;;
714660636;CPS_Early_Childhood_Portal_scrape.csv; Ada S. McKinley Community Services - Little Hands;7146 S Ashland Ave ;;;;Child Care;EXTENDED DAY;;;;;;;;;;;;;;;;;;;;;;;
714660636;CPS_Early_Childhood_Portal_scrape.csv; Ada S. McKinley Community Services - Little Hands;7146 S Ashland Ave ;;;;Head Start;HALF DAY/FULL DAY;;;;;;;;;;;;;;;;;;;;;;;
714660636;chapin_dfss_providers_2011_070212.csv;ADA S. MCKINLEY COMMUNITY SERVICES LITTLE HANDS;7146 S ASHLAND ;60636;4710662;;;;;;;ADA S. MCKINLEY COMMUNITY SERVICES;WEST ENGLEWOOD;;;;;Crystal Fielder;Yes;No;No;;;;;;;;;;
714660636;DFSS_AgencySiteLies_2012.csv;Ada S. McKinley Community Services Little Hands;7146 S Ashland Ave. ;60636;4710662;;;;;;;Ada S. McKinley Community Services;;;;;;;;;;;www.adasmckinley.org;George Jones, Jr.;Lafredia Hobson;;;;;;
722260649;CPS_Early_Childhood_Portal_scrape.csv; Ada S. McKinley Community Services - McKinley - Howard;7222 S Exchange Ave ;;2219711;;Child Care;EXTENDED DAY;;;;;;;;;;;;;;;;;;;;;;;
722260649;CPS_Early_Childhood_Portal_scrape.csv; Ada S. McKinley Ersula Howard;7222 S. Exchange ;;2219711;;Community Partnerships;8-11 Hours, varies by facility;;;;;;;;;;;;;;;;;;;;;;;
722260649;CPS_Early_Childhood_Portal_scrape.csv; Ada S. McKinley Community Services - McKinley - Howard;7222 S Exchange Ave ;;2219711;;Head Start;HALF DAY/FULL DAY;;;;;;;;;;;;;;;;;;;;;;;
722260649;CPS_Early_Childhood_Portal_scrape.csv; Ada S. McKinley Community Services - McKinley - Howard;7222 S Exchange Ave ;;2219711;;State Pre-Kindergarten;HALF DAY/FULL DAY;;;;;;;;;;;;;;;;;;;;;;;
722260649;chapin_dfss_providers_2011_070212.csv;ADA S. MCKINLEY COMMUNITY SERVICES MCKINLEY-ERSULA HOWARD;7222 S EXCHANGE ;60649;2219711;;;;;;;ADA S. MCKINLEY COMMUNITY SERVICES;SOUTH SHORE;;;;;Stella Sweeten;Yes;No;No;4357IT(Child Care IT Center), 7035PS(HS Collaboration with C;;;;;;;;;
722260649;DFSS_AgencySiteLies_2012.csv;Ada S. McKinley Community Services McKinley-Ersula Howard;7222 S. Exchange ;60649;2219711;;;;;;;Ada S. McKinley Community Services;;;;;;;;;;;www.adasmckinley.org;George Jones, Jr.;Joni Rudds;;;;;;
722260649;purple_binder_early_childhood.csv; Ada S. McKinley Community Services - Ersula Howard;7222 S Exchange Avenue ;60649;2219711;;;;;;;;;;;;;;;;;;;;;;;;;;Child Care
723960619;chapin_dfss_providers_2011_070212.csv;HENRY BOOTH HOUSE GINA'S UNBELIEVABLE;7239 S DOBSON ;60619;3242010;;;;;;;HENRY BOOTH HOUSE;GREATER GRAND CROSSING;;;;;Gina Thomas;Yes;No;No;;;;;;;;;;
723960619;DFSS_AgencySiteLies_2012.csv;Henry Booth House Gina's Unbelievable;7239 S. Dobson ;60619;3242010;;;;;;;Henry Booth House;;;;;;;;;;;www.henryboothhouse.org;Scott Perkins;Gina Thomas ;;;;;;
723960619;NAEYC_accreditation.csv; Gina's Unbelievable Learning Center;7239 S. Dobson Avenue  ;60619;3242010;;;;;;;;;;;;;;;;;;;;;;08/01/16;726339;thomag836@ameritech.net;;
723960619;purple_binder_early_childhood.csv; Abraham Lincoln Centre;7239 S Dobson Avenue ;60619;4934496;;;;;;;;;;;;;;;;;;;;;;;;;;Child Care
724060619;CPS_Early_Childhood_Portal_scrape.csv; Deneen;7240 S. Wabash ;;5353035;;Head Start;3-4 hours;;;;;;;;;;;;;;;;;;;;;;;
724060619;chapin_dfss_providers_2011_070212.csv;CHICAGO PUBLIC SCHOOLS DENEEN, CHARLES S.;7240 S WABASH AVE ;60619;5353035;;;;;;;CHICAGO PUBLIC SCHOOLS;GREATER GRAND CROSSING;;;;;Joyce Lockhart-Fisher;Yes;No;No;;;;;;;;;;
725060631;purple_binder_early_childhood.csv; Children's Campus;7250 W Touhy Avenue ;60631;6313632;;;;;;;;;;;;;;;;;;;;;;;;;;Child Care
725760619;DFSS_AgencySiteLies_2012.csv;Chicago Public Schools Deneen, Charles S.;7257 S. State ;60619;5353035;;;;;;;Chicago Public Schools;;;;;;;;;;;www.cps.edu;Paula Cottone;Annise Lewis;;;;;;
725760619;ECE Chicago Find a School scrape.csv; Deneen;7257 S. State ;60619;5353035;;;;;;Greater Grand Crossing;;;;;;;;;;;;;HS-HD;;;;;;;
726360631;NAEYC_accreditation.csv; Immaculate Conception Early Childhood Program;7263 West Talcott Avenue  ;60631;7750545;;;;;;;;;;;;;;;;;;http://www.iccowboys.net;;;;12/01/15;595619;felicione@iccowboys.net;;
731260619;chapin_dfss_providers_2011_070212.csv;CAROLE ROBERTSON CENTER FOR LEARNING FCCH-LINDA LEWIS;7312 S SAINT LAWRENCE AVE ;60619;2437225;;;;;;;CAROLE ROBERTSON CENTER FOR LEARNING;GREATER GRAND CROSSING;;;;;Jolene Martin;Yes;No;No;6100PS(HS Collaboration with Childcare Homes), 6100IP(EHS Co;;;;;;;;;
731660636;CPS_Early_Childhood_Portal_scrape.csv; Randolph;7316 S. Hoyne ;;5359015;;Prekindergarten For All;3-4 hours;;;;;;;;;;;;;;;;;;;;;;;
731660636;ECE Chicago Find a School scrape.csv; Randolph;7316 S. Hoyne ;60636;5359015;;;;;;West Englewood;;;;;;;;;;;;;PFA-REG;;;;;;;
732060621;CPS_Early_Childhood_Portal_scrape.csv; Catholic Charities of the Archdiocese of Chicago - Maria's Garden;7320 S Yale Ave ;;9943016;;Head Start;HALF DAY/FULL DAY;;;;;;;;;;;;;;;;;;;;;;;
732060621;purple_binder_early_childhood.csv; Catholic Charities Chicago - Maria's Garden;7320 S Yale Avenue ;60621;9943016;;;;;;;;;;;;;;;;;;;;;;;;;;Child Care
734560645;CPS_Early_Childhood_Portal_scrape.csv; Rogers;7345 N. Washtenaw ;;5342125;;Prekindergarten For All;3-4 hours;;;;;;;;;;;;;;;;;;;;;;;
734560645;ECE Chicago Find a School scrape.csv; Rogers;7345 N. Washtenaw ;60645;5342125;;;;;;West Ridge;;;;;;;;;;;;;PFA-REG TS;;;;;;;
735060619;CPS_Early_Childhood_Portal_scrape.csv; Tanner;7350 S. Evans ;;5353870;;Head Start;3-4 hours;;;;;;;;;;;;;;;;;;;;;;;
735060619;chapin_dfss_providers_2011_070212.csv;CHICAGO PUBLIC SCHOOLS TANNER, HENRY O.;7350 S EVANS ;60619;5353870;;;;;;;CHICAGO PUBLIC SCHOOLS;GREATER GRAND CROSSING;;;;;Mrs. Mona T. Miller;Yes;No;No;;;;;;;;;;
735060619;DFSS_AgencySiteLies_2012.csv;Chicago Public Schools Tanner, Henry O.;7350 S. Evans ;60619;5353870;;;;;;;Chicago Public Schools;;;;;;;;;;;www.cps.edu;Paula Cottone;Kenndell Smith ;;;;;;
735060619;ECE Chicago Find a School scrape.csv; Tanner (Blended);7350 S. Evans ;60619;5353870;;;;;;Greater Grand Crossing;;;;;;;;;;;;;HS-HD;;;;;;;
735060631;CPS_Early_Childhood_Portal_scrape.csv; Ebinger;7350 W Pratt ;;5341070;;Prekindergarten For All;3-4 hours;;;;;;;;;;;;;;;;;;;;;;;
735060631;ECE Chicago Find a School scrape.csv; Ebinger;7350 W Pratt ;60631;5341070;;;;;;Edison Park;;;;;;;;;;;;;PFA-REG;;;;;;;
735060649;CPS_Early_Childhood_Portal_scrape.csv; South Shore United Methodist - South Shore United;7350 S Jeffery Blvd ;;3244430;;Child Care;EXTENDED DAY;;;;;;;;;;;;;;;;;;;;;;;
735060649;CPS_Early_Childhood_Portal_scrape.csv; South Shore United Methodist - South Shore United;7350 S Jeffery Blvd ;;3244430;;Head Start;HALF DAY/FULL DAY;;;;;;;;;;;;;;;;;;;;;;;
735060649;chapin_dfss_providers_2011_070212.csv;SOUTH SHORE UNITED METHODIST SOUTH SHORE UNITED METHODIST;7350 S JEFFERY ;60649;3424430;;;;;;;SOUTH SHORE UNITED METHODIST;SOUTH SHORE;;;;;Bettye Turner;Yes;No;No;7141PS(HS Collaboration with Childcare);;;;;;;;;
735060649;DFSS_AgencySiteLies_2012.csv;South Shore United Methodist South Shore United Child Care Center;7350 S. Jeffery ;60649;3244430;;;;;;;South Shore United Methodist;;;;;;;;;;;;Marcell Hooks;Marcell Hooks;;;;;;
735060649;NAEYC_accreditation.csv; South Shore United Methodist Child Care Center;7350 South Jeffery Boulevard  ;60649;3244430;;;;;;;;;;;;;;;;;;;;;;03/31/13;564213;ssumccc1@ameritech.net;;
735560649;CPS_Early_Childhood_Portal_scrape.csv; Bouchet;7355 S. Jeffery ;;5350501;;Prekindergarten For All;3-4 hours;;;;;;;;;;;;;;;;;;;;;;;
735560649;ECE Chicago Find a School scrape.csv; Bouchet;7355 S. Jefferey Blvd. ;60649;5350501;;;;;;South Shore;;;;;;;;;;;;;PFA-REG;;;;;;;
741160619;NAEYC_accreditation.csv; Itsy Bitsy People Palace ,Inc.;7411 South Cottage Grove Ave. Ground Floor ;60619;8467396;;;;;;;;;;;;;;;;;;;;;;04/30/13;486831;info@itsybitsypeoplepalace.com;;
741460626;CPS_Early_Childhood_Portal_scrape.csv; Jordan;7414 N. Wolcott ;;5342220;;Head Start;3-4 hours;;;;;;;;;;;;;;;;;;;;;;;
741460626;chapin_dfss_providers_2011_070212.csv;CHICAGO PUBLIC SCHOOLS JORDAN COMM.;7414 NORTH WOLCOTT ;60626;5342220;;;;;;;CHICAGO PUBLIC SCHOOLS;ROGERS PARK;;;;;Willie  White;Yes;No;No;;;;;;;;;;
741460626;DFSS_AgencySiteLies_2012.csv;Chicago Public Schools Jordan Comm.;7414 North Wolcott ;60626;5342220;;;;;;;Chicago Public Schools;;;;;;;;;;;www.cps.edu;Paula Cottone;Willie  White;;;;;;
741460626;ECE Chicago Find a School scrape.csv; Jordan;7414 N. Wolcott ;60626;5342220;;;;;;Rogers Park;;;;;;;;;;;;;HS-HD;;;;;;;
741960619;CPS_Early_Childhood_Portal_scrape.csv; Itsy Bitsy People Palace, Inc.;7419 S. Cottage Grove ;;8467396;;Community Partnerships;8-11 Hours, varies by facility;;;;;;;;;;;;;;;;;;;;;;;
741960619;CPS_Early_Childhood_Portal_scrape.csv; Henry Booth House - Itsy Bitsy People Palace, Inc;7419 S Cottage Grove Ave ;;8467396;;Head Start;HALF DAY/FULL DAY;;;;;;;;;;;;;;;;;;;;;;;
741960619;chapin_dfss_providers_2011_070212.csv;HENRY BOOTH HOUSE ITSY BITSY PEOPLE PALACE, INC;7419 S COTTAGE GROVE AVE ;60619;8467396;;;;;;;HENRY BOOTH HOUSE;GREATER GRAND CROSSING;;;;;Ms. Whiting;Yes;No;No;;;;;;;;;;
741960619;DFSS_AgencySiteLies_2012.csv;Henry Booth House Itsy Bitsy People Palace. Inc;7419 S. Cottage Grove Ave. ;60619;8467396;;;;;;;Henry Booth House;;;;;;;;;;;www.henryboothhouse.org;Scott Perkins;Ms. Whiting ;;;;;;
741960619;NAEYC_accreditation.csv; Itsy Bitsy People Palace ,Inc.;7419 South Cottage Grove Avenue  ;60619;8467396;;;;;;;;;;;;;;;;;;http://info@itsybitsypeoplepalace.com;;;;04/30/13;486831;info@itsybitsypeoplepalace.com;;
742460621;CPS_Early_Childhood_Portal_scrape.csv; Stagg;7424 S. Morgan ;;5353565;;Head Start;5-6 hours;;;;;;;;;;;;;;;;;;;;;;;
742460621;chapin_dfss_providers_2011_070212.csv;CHICAGO PUBLIC SCHOOLS STAGG, AMOS A.;7424 S MORGAN ST ;60621;5353565;;;;;;;CHICAGO PUBLIC SCHOOLS;ENGLEWOOD;;;;;Ms. Ruth A. Miller;Yes;No;No;;;;;;;;;;
742460621;DFSS_AgencySiteLies_2012.csv;Chicago Public Schools Stagg, Amos A.;7424 S. Morgan St. ;60621;5353565;;;;;;;Chicago Public Schools;;;;;;;;;;;www.cps.edu;Paula Cottone;Ms. Ruth A. Miller;;;;;;
742460621;ECE Chicago Find a School scrape.csv; Stagg;7424 S. Morgan ;60621;5353565;;;;;;Englewood;;;;;;;;;;;;;HS-HD;;;;;;;
742860626;CPS_Early_Childhood_Portal_scrape.csv; Little People Day Care & Kindergarten;7428 N. Rogers Ave. ;;7612305;;Community Partnerships;8-11 Hours, varies by facility;;;;;;;;;;;;;;;;;;;;;;;
742860626;chapin_dfss_providers_2011_070212.csv;CHICAGO COMMONS ASSOCIATION LITTLE PEOPLE'S DAY CARE;7428 N ROGERS AVE ;60626;7612305;;;;;;;CHICAGO COMMONS ASSOCIATION;ROGERS PARK;;;;;Marlene Bansa;Yes;No;No;;;;;;;;;;
742860626;DFSS_AgencySiteLies_2012.csv;Chicago Commons Association Little People's Day Care;7428 N Rogers Ave ;60626;7612305;;;;;;;Chicago Commons Association;;;;;;;;;;;www.chicagocommons.org;Dan Valliere;Reyna Nava;;;;;;
742860626;purple_binder_early_childhood.csv; Little People Day Care School;7428 N Rogers Avenue ;60626;7612305;;;;;;;;;;;;;;;;;;;;;;;;;;Child Care
743360619;CPS_Early_Childhood_Portal_scrape.csv; Madison;7433 S. Dorchester ;;5350551;;Head Start;3-4 hours;;;;;;;;;;;;;;;;;;;;;;;
743360619;chapin_dfss_providers_2011_070212.csv;CHICAGO PUBLIC SCHOOLS MADISON, JAMES;7433 S DORCHESTER ;60619;5350551;;;;;;;CHICAGO PUBLIC SCHOOLS;SOUTH SHORE;;;;;Dr. Beverly J.  Greene;Yes;No;No;;;;;;;;;;
743360619;DFSS_AgencySiteLies_2012.csv;Chicago Public Schools Madison, James;7433 S. Dorchester ;60619;5350551;;;;;;;Chicago Public Schools;;;;;;;;;;;www.cps.edu;Paula Cottone;Dr. Beverly J. Greene;;;;;;
743360619;ECE Chicago Find a School scrape.csv; Madison;7433 S. Dorchester ;60619;5350551;;;;;;South Shore;;;;;;;;;;;;;HS-HD;;;;;;;
743560631;purple_binder_early_childhood.csv; Resurrection Child Care Center;7435 W Talcott Avenue ;60631;7925253;;;;;;;;;;;;;;;;;;;;;;;;;;Child Care
745360621;chapin_dfss_providers_2011_070212.csv;CHICAGO YOUTH CENTERS KIDS R US;7453 S VINCENNES ;60621;8465437;;;;;;;CHICAGO YOUTH CENTERS;GREATER GRAND CROSSING;;;;;Tammy Oliver;Yes;No;No;;;;;;;;;;
745360621;DFSS_AgencySiteLies_2012.csv;Chicago Youth Centers Kids R Us;7453 S. Vincennes ;60621;8465437;;;;;;;Chicago Youth Centers;;;;;;;;;;;www.chicagoyouthcenters.org;Harry Wells;Tammy Oliver ;;;;;;
750060652;CPS_Early_Childhood_Portal_scrape.csv; City Colleges Daley Semester Program;7500 S. Pulaski ;;8387562;;Community Partnerships;8-11 Hours, varies by facility;;;;;;;;;;;;;;;;;;;;;;;
750060652;chapin_dfss_providers_2011_070212.csv;BOARD TRUSTEES-CITY COLLEGES OF CHICAGO DALEY COLLEGE;7500 S PULASKI RD ;60652;8387562;;;;;;;BOARD TRUSTEES-CITY COLLEGES OF CHICAGO;WEST LAWN;;;;;Maria Sanchez;Yes;No;No;4387PS(Child Care PS Center & State Pre-K);;;;;;;;;
750060652;DFSS_AgencySiteLies_2012.csv;Board Trustees-City Colleges of Chicago Daley College;7500 S Pulaski Rd. ;60652;8387562;;;;;;;Board Trustees-City Colleges of Chicago;;;;;;;;;;;www.ccc.edu;Phyllis Daniels-Ward;Marcey Reyes;;;;;;
750060652;ECE Chicago Find a School scrape.csv; City Colleges Daley;7500 S. Pulaski ;60652;8387562;;;;;;West Lawn;;;;;;;;;;;;;CP;;;;;;;
750060652;ECE Chicago Find a School scrape.csv; City Colleges Daley Semester Program;7500 S. Pulaski ;60652;8387562;;;;;;West Lawn;;;;;;;;;;;;;CP;;;;;;;
750060652;purple_binder_early_childhood.csv; Richard J. Daley College;7500 S Pulaski Road ;60652;8387803;;;;;;;;;;;;;;;;;;;;;;;;;;Child Care
750760631;CPS_Early_Childhood_Portal_scrape.csv; Stock;7507 W. Birchwood ;;5341215;;Prekindergarten For All;3-4 hours;;;;;;;;;;;;;;;;;;;;;;;
750760631;ECE Chicago Find a School scrape.csv; Stock;7507 W. Birchwood ;60631;5341215;;;;;;Edison Park;;;;;;;;;;;;;PFA-REG TS;;;;;;;
751060626;CPS_Early_Childhood_Portal_scrape.csv; Howard Area Community Center - Howard Area Community Center;7510 N Ashland Ave ;;7647610;;Child Care;EXTENDED DAY;;;;;;;;;;;;;;;;;;;;;;;
751060626;CPS_Early_Childhood_Portal_scrape.csv; Howard Area Early Childhood Center;7510 N. Ashland ;;7647610;;Community Partnerships;8-11 Hours, varies by facility;;;;;;;;;;;;;;;;;;;;;;;
751060626;CPS_Early_Childhood_Portal_scrape.csv; Howard Area Community Center - Howard Area Community Center;7510 N Ashland Ave ;;7647610;;Head Start;HALF DAY/FULL DAY;;;;;;;;;;;;;;;;;;;;;;;
751060626;CPS_Early_Childhood_Portal_scrape.csv; Howard Area Community Center - Howard Area Community Center;7510 N Ashland Ave ;;7647610;;State Pre-Kindergarten;HALF DAY/FULL DAY;;;;;;;;;;;;;;;;;;;;;;;
751060626;chapin_dfss_providers_2011_070212.csv;HOWARD AREA COMMUNITY CENTER HOWARD AREA;7510 N ASHLAND ;60626;2626622;;;;;;;HOWARD AREA COMMUNITY CENTER;ROGERS PARK;;;;;Stephania Koliarakis;Yes;No;Yes;7071PS(HS Collaboration with Childcare & PreK), 2765PS(Child;;;;;;;;;
751060626;DFSS_AgencySiteLies_2012.csv;Howard Area Community Center HOWARD AREA;7510 N. Ashland ;60626;2626622;;;;;;;Howard Area Community Center;;;;;;;;;;;www.howardarea.org;Bruce Rasey;Stephania Koliarakis;;;;;;
751060626;NAEYC_accreditation.csv; Howard Area Family Center;7510 N. Ashland Avenue  ;60626;7647610;;;;;;;;;;;;;;;;;;http://www.howardarea.org;;;;09/30/14;372557;skoliarakis@howardarea.org;;
752560620;CPS_Early_Childhood_Portal_scrape.csv; Harvard;7525 S. Harvard ;;5353045;;Prekindergarten For All;3-4 hours;;;;;;;;;;;;;;;;;;;;;;;
752560620;ECE Chicago Find a School scrape.csv; Harvard;7525 S. Harvard ;60620;5353045;;;;;;Greater Grand Crossing;;;;;;;;;;;;;PFA-REG;;;;;;;
753660620;purple_binder_early_childhood.csv; Kinder Care Kiddy College;7536 S Stewart ;60620;2243569;;;;;;;;;;;;;;;;;;;;;;;;;;Child Care
755960634;CPS_Early_Childhood_Portal_scrape.csv; Jolly Fun House Playschool;7559 W. Addison ;;6376115;;Community Partnerships;8-11 Hours, varies by facility;;;;;;;;;;;;;;;;;;;;;;;
755960634;purple_binder_early_childhood.csv; Jolly Fun House Playschool;7559 W Addison Street ;60634;;;;;;;;;;;;;;;;;;;;;;;;;;;Child Care
760060620;chapin_dfss_providers_2011_070212.csv;YMCA OF METROPOLITAN CHICAGO JEANNE KENNEY DAY CARE CENTER;7600 S PARNELL ;60620;8861216;;;;;;;YMCA OF METROPOLITAN CHICAGO;WASHINGTON HEIGHTS;;;;;Arlene Lewis;Yes;Yes;No;4393IT(Child Care IT Center), 4393PS(Child Care PS Center),;;;;;;;;;
760060620;DFSS_AgencySiteLies_2012.csv;YMCA of Metropolitan Chicago Jeanne Kenney Day Care Center;7600 S. Parnell ;60620;8861216;;;;;;;YMCA of Metropolitan Chicago;;;;;;;;;;;www.ymcachicago.org;Dorothy Cole-Gary;Arlene Lewis;;;;;;
760160649;CPS_Early_Childhood_Portal_scrape.csv; Chicago Youth Centers - Rebecca K. Crown / CYC;7601 S Phillips Ave ;;6481550;;Child Care;EXTENDED DAY;;;;;;;;;;;;;;;;;;;;;;;
760160649;CPS_Early_Childhood_Portal_scrape.csv; Chicago Youth Centers Rebecca K. Crown;7601 S. Phillips ;;7310444;;Community Partnerships;8-11 Hours, varies by facility;;;;;;;;;;;;;;;;;;;;;;;
760160649;CPS_Early_Childhood_Portal_scrape.csv; Chicago Youth Centers - Rebecca K. Crown / CYC;7601 S Phillips Ave ;;6481550;;Head Start;HALF DAY/FULL DAY;;;;;;;;;;;;;;;;;;;;;;;
760160649;CPS_Early_Childhood_Portal_scrape.csv; Chicago Youth Centers - Rebecca K. Crown / CYC;7601 S Phillips Ave ;;6481550;;School Age;PART DAY/FULL DAY;;;;;;;;;;;;;;;;;;;;;;;
760160649;chapin_dfss_providers_2011_070212.csv;CHICAGO YOUTH CENTERS REBECCA CROWN;7601 S PHILLIPS ;60649;7310444;;;;;;;CHICAGO YOUTH CENTERS;SOUTH SHORE;;;;;Annette Anthony;Yes;No;No;7088PS(HS Collaboration with Childcare & PreK);;;;;;;;;
760160649;DFSS_AgencySiteLies_2012.csv;Chicago Youth Centers Rebecca Crown;7601 S. Phillips ;60649;7310444;;;;;;;Chicago Youth Centers;;;;;;;;;;;www.chicagoyouthcenters.org;Harry Wells;Eddie Wilson ;;;;;;
760160649;NAEYC_accreditation.csv; Chicago Youth Centers / Rebecca K. Crown;7601 S. Phillips Avenue  ;60649;7310444;;;;;;;;;;;;;;;;;;http://www.chicagoyouthcenters.org;;;;11/01/16;508236;annette.anthony@chicagoyouthcenters.org;;
760160649;purple_binder_early_childhood.csv; Chicago Youth Centers - Rebecca Crown;7601 S Phillips Avenue ;60649;7310444;;;;;;;;;;;;;;;;;;;;;;;;;;Child Care
761060626;CPS_Early_Childhood_Portal_scrape.csv; Howard Area Community Center - Howard Area;7638 N Paulina Ave ;;3813652;;Child Care;EXTENDED DAY;;;;;;;;;;;;;;;;;;;;;;;
761060626;CPS_Early_Childhood_Portal_scrape.csv; Howard Area Community Center - Howard Area;7638 N Paulina Ave ;;3813652;;Head Start;HALF DAY/FULL DAY;;;;;;;;;;;;;;;;;;;;;;;
751060626;purple_binder_early_childhood.csv; Howard Area Community Services;7610 N Ashland Avenue ;60626;7647610;;;;;;;;;;;;;;;;;;;;;;;;;;Child Care
761060626;purple_binder_early_childhood.csv; Howard Area Community Center;7648 N Paulina Street ;60626;2626622;;;;;;;;;;;;;;;;;;;;;;;;;;Child Care
763860626;ECE Chicago Find a School scrape.csv; Howard Area EC Center;7638 N. Paulina ;60626;2624309;;;;;;Rogers Park;;;;;;;;;;;;;CP;;;;;;;
764660620;CPS_Early_Childhood_Portal_scrape.csv; Oglesby;7646 S. Green ;;5353060;;Prekindergarten For All;3-4 hours;;;;;;;;;;;;;;;;;;;;;;;
764660620;ECE Chicago Find a School scrape.csv; Oglesby;7646 S. Green ;60620;5353060;;;;;;Auburn Gresham;;;;;;;;;;;;;PFA-REG;;;;;;;
765060620;CPS_Early_Childhood_Portal_scrape.csv; Barton;7650 S. Wolcott Ave. ;;5353260;;Head Start;5-6 hours;;;;;;;;;;;;;;;;;;;;;;;
765060620;CPS_Early_Childhood_Portal_scrape.csv; Barton;7650 S. Wolcott Ave. ;;5353260;;Head Start/Prekindergarten For;8-11 Hours, varies by facility;;;;;;;;;;;;;;;;;;;;;;;
765060620;chapin_dfss_providers_2011_070212.csv;CHICAGO PUBLIC SCHOOLS BARTON, CLARA;7650 S WOLCOTT AVE ;60620;5353260;;;;;;;CHICAGO PUBLIC SCHOOLS;AUBURN GRESHAM;;;;;Mr. Terrence Carter;Yes;No;No;;;;;;;;;;
765060620;DFSS_AgencySiteLies_2012.csv;Chicago Public Schools Barton, Clara;7650 S. Wolcott Ave ;60620;5353260;;;;;;;Chicago Public Schools;;;;;;;;;;;www.cps.edu;Paula Cottone;Mr. Frank Gettridge;;;;;;
765060620;ECE Chicago Find a School scrape.csv; Barton;7650 S. Wolcott Ave. ;60620;5353260;;;;;;Auburn Gresham;;;;;;;;;;;;;HS-FD;;;;;;;
773660649;CPS_Early_Childhood_Portal_scrape.csv; Bradwell;7736 S. Burnhan ;;5356600;;Head Start;3-4 hours;;;;;;;;;;;;;;;;;;;;;;;
773660649;CPS_Early_Childhood_Portal_scrape.csv; Bradwell;7736 S. Burnhan ;;5356600;;Head Start;5-6 hours;;;;;;;;;;;;;;;;;;;;;;;
773660649;CPS_Early_Childhood_Portal_scrape.csv; Bradwell;7736 S. Burnhan ;;5356600;;Head Start/Prekindergarten For;8-11 Hours, varies by facility;;;;;;;;;;;;;;;;;;;;;;;
773660649;chapin_dfss_providers_2011_070212.csv;CHICAGO PUBLIC SCHOOLS BRADWELL, MYRA;7736 S BURNHAM ;60649;5356600;;;;;;;CHICAGO PUBLIC SCHOOLS;SOUTH SHORE;;;;;Mr. Justin Moore;Yes;No;No;;;;;;;;;;
773660649;DFSS_AgencySiteLies_2012.csv;Chicago Public Schools Bradwell, Myra;7736 S. Burnham ;60649;5356600;;;;;;;Chicago Public Schools;;;;;;;;;;;www.cps.edu;Paula Cottone;Bennette/Kimberly Henderson;;;;;;
773660649;ECE Chicago Find a School scrape.csv; Bradwell;7736 S. Burnhan ;60649;5356600;;;;;;South Shore;;;;;;;;;;;;;HS-HD;;;;;;;
775060631;purple_binder_early_childhood.csv; Happy Child Day Center;7750 W Devon Avenue ;60631;7757969;;;;;;;;;;;;;;;;;;;;;;;;;;Child Care
780160620;CPS_Early_Childhood_Portal_scrape.csv; Henry Booth House - Little Hands & Feet;7801 S Wolcott Ave ;;;;Head Start;HALF DAY/FULL DAY;;;;;;;;;;;;;;;;;;;;;;;
780160620;chapin_dfss_providers_2011_070212.csv;HENRY BOOTH HOUSE LITTLE HANDS & FEET;7801 S WOLCOTT ;60620;9948561;;;;;;;HENRY BOOTH HOUSE;AUBURN GRESHAM;;;;;Ms.  Doyle;Yes;No;No;;;;;;;;;;
780160620;DFSS_AgencySiteLies_2012.csv;Henry Booth House Little Hands & Feet;7801 S Wolcott ;60620;9948561;;;;;;;Henry Booth House;;;;;;;;;;;www.henryboothhouse.org;Scott Perkins;Ms. Doyle ;;;;;;
782560619;CPS_Early_Childhood_Portal_scrape.csv; New Concept;7825 S. Ellis ;;6519599;;Community Partnerships;8-11 Hours, varies by facility;;;;;;;;;;;;;;;;;;;;;;;
782560619;NAEYC_accreditation.csv; New Concept School;7825 South Ellis Avenue  ;60619;6519599;;;;;;;;;;;;;;;;;;http//www.ipe.clc.org;;;;01/31/15;437984;dcgbon21@yahoo.com;;
782560619;purple_binder_early_childhood.csv; New Concept School;7825 S Ellis Avenue ;60619;6519599;;;;;;;;;;;;;;;;;;;;;;;;;;Child Care
783160619;CPS_Early_Childhood_Portal_scrape.csv; Ruggles;7831 S. Prairie ;;5353085;;Head Start;5-6 hours;;;;;;;;;;;;;;;;;;;;;;;
783160619;chapin_dfss_providers_2011_070212.csv;CHICAGO PUBLIC SCHOOLS RUGGLES, MARTHA M.;7831 S PRAIRIE AVE ;60619;5353085;;;;;;;CHICAGO PUBLIC SCHOOLS;GREATER GRAND CROSSING;;;;;Ida Patterson;Yes;No;No;;;;;;;;;;
783160619;DFSS_AgencySiteLies_2012.csv;Chicago Public Schools Ruggles, Martha M.;7831 S. Prairie Ave. ;60619;5353085;;;;;;;Chicago Public Schools;;;;;;;;;;;www.cps.edu;Paula Cottone;Ida Patterson;;;;;;
783160619;ECE Chicago Find a School scrape.csv; Ruggles;7831 S. Prairie ;60619;5353085;;;;;;Greater Grand Crossing;;;;;;;;;;;;;HS-HD;;;;;;;
783860620;chapin_dfss_providers_2011_070212.csv;HENRY BOOTH HOUSE KIDS R FIRST 7838 S HALSTED;7838 S HALSTED ;60620;4889443;;;;;;;HENRY BOOTH HOUSE;AUBURN GRESHAM;;;;;Ms.  Jones;Yes;No;No;;;;;;;;;;
783860620;DFSS_AgencySiteLies_2012.csv;Henry Booth House Kids R First 7838 S Halsted;7838 S Halsted ;60620;4889443;;;;;;;Henry Booth House;;;;;;;;;;;www.henryboothhouse.org;Scott Perkins;Ms. Jones ;;;;;;
792860620;CPS_Early_Childhood_Portal_scrape.csv; ChildServ - Englewood;7928 S Ashland Ave ;;;;Child Care;EXTENDED DAY;;;;;;;;;;;;;;;;;;;;;;;
792860620;purple_binder_early_childhood.csv; Childserv Englewood;7928 S Ashland Avenue ;60620;;;;;;;;;;;;;;;;;;;;;;;;;;;Child Care
793160620;ECE Chicago Find a School scrape.csv; Joplin;7931 S. Honore St. ;60620;5353425;;;;;;Auburn Gresham;;;;;;;;;;;;;PFA-REG;;;;;;;
793960620;CPS_Early_Childhood_Portal_scrape.csv; Ada S. McKinley Community Services - McKinley - Wright Renaissance;7939 S Western Ave ;;4768805;;Child Care;EXTENDED DAY;;;;;;;;;;;;;;;;;;;;;;;
793960620;CPS_Early_Childhood_Portal_scrape.csv; Ada S. McKinley Wright Renaissance;7939 S. Western ;;4768805;;Community Partnerships;8-11 Hours, varies by facility;;;;;;;;;;;;;;;;;;;;;;;
793960620;CPS_Early_Childhood_Portal_scrape.csv; Ada S. McKinley Community Services - McKinley - Wright Renaissance;7939 S Western Ave ;;4768805;;Head Start;HALF DAY/FULL DAY;;;;;;;;;;;;;;;;;;;;;;;
793960620;CPS_Early_Childhood_Portal_scrape.csv; Ada S. McKinley Community Services - McKinley - Wright Renaissance;7939 S Western Ave ;;4768805;;State Pre-Kindergarten;HALF DAY/FULL DAY;;;;;;;;;;;;;;;;;;;;;;;
793960620;chapin_dfss_providers_2011_070212.csv;ADA S. MCKINLEY COMMUNITY SERVICES MCKINLEY-WRIGHT RENAISSANCE;7939 S WESTERN ;60620;4768805;;;;;;;ADA S. MCKINLEY COMMUNITY SERVICES;ASHBURN;;;;;Corllis Wright;Yes;Yes;Yes;2708IT(Child Care IT Center), 2708PS(Child Care PS Center &;;;;;;;;;
793960620;DFSS_AgencySiteLies_2012.csv;Ada S. McKinley Community Services McKinley-Wright Renaissance;7939 S. Western ;60620;4768805;;;;;;;Ada S. McKinley Community Services;;;;;;;;;;;www.adasmckinley.org;George Jones, Jr.;Corllis Wright;;;;;;
793960620;purple_binder_early_childhood.csv; Ada S. McKinley Community Services - Wright Renaissance;7939 S Western Avenue ;60620;4768805;;;;;;;;;;;;;;;;;;;;;;;;;;Child Care
794660620;CPS_Early_Childhood_Portal_scrape.csv; Ezzard Charles School;7946 S. Ashland ;;4870227;;Community Partnerships;8-11 Hours, varies by facility;;;;;;;;;;;;;;;;;;;;;;;
794660620;IDHS_child_care_provider_list.csv; Ezzard Charles;7946 South Ashland;60620;4870227;(773) 487-0044;;;6525-2857-5433-002;;;;;;;;;;;;;;;;;;;;;;
794660620;chapin_dfss_providers_2011_070212.csv;CHICAGO YOUTH CENTERS EZZARD CHARLES SCHOOL;7946 S ASHLAND AVE ;60620;4870227;;;;;;;CHICAGO YOUTH CENTERS;AUBURN GRESHAM;;;;;Eldora Davis;Yes;No;No;;;;;;;;;;
794660620;DFSS_AgencySiteLies_2012.csv;Chicago Youth Centers Ezzard Charles School;7946 S Ashland Ave ;60620;4870227;;;;;;;Chicago Youth Centers;;;;;;;;;;;www.chicagoyouthcenters.org;Harry Wells;Eldora Davis ;;;;;;
794660620;ECE Chicago Find a School scrape.csv; Ezzard Charles;7946 S Ashland  ;60620;4870227;;;;;;Auburn Gresham;;;;;;;;;;;;;CP;;;;;;;
794660620;NAEYC_accreditation.csv; Ezzard Charles School;7946 South Ashland Avenue  ;60620;4870227;;;;;;;;;;;;;;;;;;;;;;08/31/13;486942;ezzardezzi@aol.com;;
794660620;purple_binder_early_childhood.csv; Ezzard Charles School;7946 S Ashland Avenue ;60620;4870227;;;;;;;;;;;;;;;;;;;;;;;;;;Child Care
794660620;NAEYC_accreditation.csv; Ezzard Charles School;7949 South Ashland Avenue  ;60620;4870227;;;;;;;;;;;;;;;;;;;;;;08/31/13;486942;ezzardezzi@aol.com;;
795660620;chapin_dfss_providers_2011_070212.csv;ADA S. MCKINLEY COMMUNITY SERVICES CHILDREN'S CENTER (WESTERN);7956 S WESTERN ;60620;4768805;;;;;;;ADA S. MCKINLEY COMMUNITY SERVICES;ASHBURN;;;;;Corlis Wright;Yes;No;No;;;;;;;;;;
79545;NAEYC_accreditation.csv; The Children's Center for Creative Learning Inc.;7956 South Western Ave.  ;60620;4714927;;;;;;;;;;;;;;;;;;;;;;05/31/13;722947;childrencenterwestern@yahoo.com;;
797360652;chapin_dfss_providers_2011_070212.csv;CAROLE ROBERTSON CENTER FOR LEARNING FCCH-MICHELLE PADILLA;7973 S KOLIN AVE ;60652;5211600;;;;;;;CAROLE ROBERTSON CENTER FOR LEARNING;ASHBURN;;;;;Jolene Martin;Yes;No;No;5899PS(HS Collaboration with Childcare Homes), 5899IP(EHS Co;;;;;;;;;
801060652;CPS_Early_Childhood_Portal_scrape.csv; Stevenson;8010 S. Kostner ;;5352280;;Prekindergarten For All;3-4 hours;;;;;;;;;;;;;;;;;;;;;;;
801060652;ECE Chicago Find a School scrape.csv; Stevenson;8010 S. Kostner ;60652;5352280;;;;;;Ashburn;;;;;;;;;;;;;PFA-REG;;;;;;;
802660619;chapin_dfss_providers_2011_070212.csv;HENRY BOOTH HOUSE THE WORLD IS YOURS;8026 S COTTAGE GROVE AVE ;60619;;;;;;;;HENRY BOOTH HOUSE;CHATHAM;;;;;;Yes;No;No;;;;;;;;;;
802660619;DFSS_AgencySiteLies_2012.csv;Henry Booth House The World Is Yours;8026 S Cottage Grove Ave. ;60619;;;;;;;;Henry Booth House;;;;;;;;;;;www.henryboothhouse.org;Scott Perkins;;;;;;;
804560619;CPS_Early_Childhood_Portal_scrape.csv; Avalon Park;8045 S. Kenwood ;;5356615;;Prekindergarten For All;3-4 hours;;;;;;;;;;;;;;;;;;;;;;;
804560619;ECE Chicago Find a School scrape.csv; Avalon Park;8045 S. Kenwood ;60619;5356615;;;;;;Avalon Park;;;;;;;;;;;;;PFA-REG;;;;;;;
804660620;chapin_dfss_providers_2011_070212.csv;EL VALOR LITTLE BROWN BEAR PRE-SCHOOL;8046 S WESTERN AVE ;60620;4343508;;;;;;;EL VALOR;ASHBURN;;;;;Deborah Broyles;Yes;No;No;;;;;;;;;;
804660620;DFSS_AgencySiteLies_2012.csv;El Valor Little Brown Bear Pre-School;8046 S Western Ave ;60620;4343500;;;;;;;El Valor;;;;;;;;;;;www.elvalor.org;Vincent Allocco;Deborah Broyles ;;;;;;
805060620;chapin_dfss_providers_2011_070212.csv;CAROLE ROBERTSON CENTER FOR LEARNING FCCH-TOSHA KELLY;8050 S HONORE ;60620;;;;;;;;CAROLE ROBERTSON CENTER FOR LEARNING;AUBURN GRESHAM;;;;;Jolene Martin;Yes;No;No;5984PS(HS Collaboration with Childcare Homes);;;;;;;;;
805560620;chapin_dfss_providers_2011_070212.csv;CAROLE ROBERTSON CENTER FOR LEARNING FCCH-DARLENE MCGHEE;8055 S WOOD ;60620;9945193;;;;;;;CAROLE ROBERTSON CENTER FOR LEARNING;AUBURN GRESHAM;;;;;Jolene Martin;No;No;No;6000PS(HS Collaboration with Childcare Homes), 6000IP(EHS Co;;;;;;;;;
810160620;CPS_Early_Childhood_Portal_scrape.csv; Lenart;8101 S. LaSalle St. ;;5350040;;Prekindergarten For All;3-4 hours;;;;;;;;;;;;;;;;;;;;;;;
810160620;ECE Chicago Find a School scrape.csv; Lenart;8101 S. LaSalle ;60620;5350040;;;;;;Chatham;;;;;;;;;;;;;PFA-REG;;;;;;;
8128;chapin_dfss_providers_2011_070212.csv;CHICAGO STATE UNIVERSITY TINY TOTS VILLA;8128 S KING DR ;60641;4836251;;;;;;;CHICAGO STATE UNIVERSITY;CHATHAM;;;;;Judith Tyson;Yes;No;Yes;4292PS(Child Care PS Center), 4205PS(HS Collaboration with C;;;;;;;;;
8128;DFSS_AgencySiteLies_2012.csv;Chicago State University Tiny Tots Villa;8128 S. King Dr. ;60641;4836251;;;;;;;Chicago State University;;;;;;;;;;;www.gamechicago.org;Grace Ratliff;Judith Tyson;;;;;;
812860652;CPS_Early_Childhood_Portal_scrape.csv; NIA LTD. The Learning Tree;8128 S. Kedzie ;;7788802;;Community Partnerships;8-11 Hours, varies by facility;;;;;;;;;;;;;;;;;;;;;;;
812860652;CPS_Early_Childhood_Portal_scrape.csv; Henry Booth House - Learning Tree;8128 S Kedzie Ave ;;7788802;;Head Start;HALF DAY/FULL DAY;;;;;;;;;;;;;;;;;;;;;;;
812860652;chapin_dfss_providers_2011_070212.csv;HENRY BOOTH HOUSE LEARNING TREE;8128 S KEDZIE ;60652;7788802;;;;;;;HENRY BOOTH HOUSE;ASHBURN;;;;;Ms.  Vaughn;No;No;No;;;;;;;;;;
812860652;chapin_dfss_providers_2011_070212.csv;MARCY NEWBERRY ASSOCIATION LEARNING TREE 1;8128 S KEDZIE ;60652;7788802;;;;;;;MARCY NEWBERRY ASSOCIATION;ASHBURN;;;;;Joanne Williams;Yes;No;No;;;;;;;;;;
812860652;DFSS_AgencySiteLies_2012.csv;Marcy Newberry Association Learning Tree 1;8128 S Kedzie ;60652;7788802;;;;;;;Marcy Newberry Association;;;;;;;;;;;www.marcy-newberry.org;Gertrude Ricks;Joanne Williams ;;;;;;
813060620;CPS_Early_Childhood_Portal_scrape.csv; Henry Booth House - New Pisgah;8130 S Racine Ave ;;8735392;;Child Care;EXTENDED DAY;;;;;;;;;;;;;;;;;;;;;;;
813060620;CPS_Early_Childhood_Portal_scrape.csv; New Pisgah Day Care Center;8128 S. Racine Ave. ;;8735392;;Community Partnerships;8-11 Hours, varies by facility;;;;;;;;;;;;;;;;;;;;;;;
813060620;CPS_Early_Childhood_Portal_scrape.csv; Henry Booth House - New Pisgah;8130 S Racine Ave ;;8735392;;Head Start;HALF DAY/FULL DAY;;;;;;;;;;;;;;;;;;;;;;;
813060620;chapin_dfss_providers_2011_070212.csv;HENRY BOOTH HOUSE NEW PISGAH;8130 S RACINE ;60620;8735392;;;;;;;HENRY BOOTH HOUSE;AUBURN GRESHAM;;;;;Mr. S. Smith;Yes;No;No;;;;;;;;;;
813060620;DFSS_AgencySiteLies_2012.csv;Henry Booth House New Pisgah;8130 S Racine ;60620;8735392;;;;;;;Henry Booth House;;;;;;;;;;;www.henryboothhouse.org;Scott Perkins;Mr. S. Smith;;;;;;
813060620;purple_binder_early_childhood.csv; New Pisgah Day Care Center;8130 S Racine Avenue ;60620;8735392;;;;;;;;;;;;;;;;;;;;;;;;;;Child Care
815060620;CPS_Early_Childhood_Portal_scrape.csv; Cook;8150 S. Bishop ;;5353315;;Prekindergarten For All;3-4 hours;;;;;;;;;;;;;;;;;;;;;;;
815060620;ECE Chicago Find a School scrape.csv; Cook;8150 S. Bishop ;60620;5353315;;;;;;Auburn Gresham;;;;;;;;;;;;;PFA-REG;;;;;;;
822560652;CPS_Early_Childhood_Portal_scrape.csv; Chipper Preschool;8225-29 S. Kedzie ;;7785757;;Community Partnerships;8-11 Hours, varies by facility;;;;;;;;;;;;;;;;;;;;;;;
822560652;chapin_dfss_providers_2011_070212.csv;EASTER SEALS SOCIETY OF METROPOLITAN CHICAGO CHIPPER PRESCHOOL;8225 S KEDZIE ;60652;7785757;;;;;;;EASTER SEALS SOCIETY OF METROPOLITAN CHICAGO;ASHBURN;;;;;Ms. Nelson;Yes;No;No;;;;;;;;;;
822560652;DFSS_AgencySiteLies_2012.csv;Easter Seals Society of Metropolitan Chicago Chipper Preschool;8225 S Kedzie ;60652;7785757;;;;;;;Easter Seals Society of Metropolitan Chicago;;;;;;;;;;;www.easterseaslchicago.org;Barbara Zawacki;Ms.Amaryllis Nelson;;;;;;
822560652;ECE Chicago Find a School scrape.csv; Chipper Preschool;8225 S. Kedzie ;60652;7785757;;;;;;Ashburn;;;;;;;;;;;;;CP;;;;;;;
823560617;purple_binder_early_childhood.csv; Catholic Charities Chicago - St. Michael;8235 S Shore Drive ;60617;9337676;;;;;;;;;;;;;;;;;;;;;;;;;;Child Care
823660652;CPS_Early_Childhood_Portal_scrape.csv; Pinks Child Care Academy;8236 S. Kedzie ;;8637465;;Community Partnerships;8-11 Hours, varies by facility;;;;;;;;;;;;;;;;;;;;;;;
823660652;CPS_Early_Childhood_Portal_scrape.csv; Henry Booth House - Pink's Child Care Academy;8236 S Kedzie Ave ;;8637465;;Head Start;HALF DAY/FULL DAY;;;;;;;;;;;;;;;;;;;;;;;
823660652;chapin_dfss_providers_2011_070212.csv;HENRY BOOTH HOUSE PINK'S CHILD CARE ACADEMY;8236 S KEDZIE ;60652;8637465;;;;;;;HENRY BOOTH HOUSE;ASHBURN;;;;;Ms.  Jones;Yes;No;No;;;;;;;;;;
823660652;DFSS_AgencySiteLies_2012.csv;Henry Booth House Pink's Child Care Academy;8236 S Kedzie ;60652;8637465;;;;;;;Henry Booth House;;;;;;;;;;;www.henryboothhouse.org;Scott Perkins;Ms. Jones ;;;;;;
825560617;ECE Chicago Find a School scrape.csv; Sullivan;8255 S. Houston ;60617;5356585;;;;;;South Chicago;;;;;;;;;;;;;PFA-REG;;;;;;;
830060652;CPS_Early_Childhood_Portal_scrape.csv; Ashburn School;8300 S. St Louis Ave. ;;5357860;;Prekindergarten For All;3-4 hours;;;;;;;;;;;;;;;;;;;;;;;
830060652;ECE Chicago Find a School scrape.csv; Ashburn School;8300 S. St. Louis ;60652;5357860;;;;;;Ashburn;;;;;;;;;;;;;PFA-REG;;;;;;;
830660619;CPS_Early_Childhood_Portal_scrape.csv; Dixon;8306 S. St. Lawrence ;;5353834;;Prekindergarten For All;3-4 hours;;;;;;;;;;;;;;;;;;;;;;;
830660619;ECE Chicago Find a School scrape.csv; Dixon;8306 S. St. Lawrence ;60619;5353834;;;;;;Chatham;;;;;;;;;;;;;PFA-REG;;;;;;;
831660619;DFSS_AgencySiteLies_2012.csv;South Central Community Services South Central Community Service;8316 S. Ellis Ave. ;60618;4830900;;;;;;;South Central Community Services;;;;;;;;;;;www.sccsinc.org;Felicia Blasingame;Marsha Hightower;;;;;;
831660619;CPS_Early_Childhood_Portal_scrape.csv; South Central Community Services - South Central Community Services;8316 S Ellis Ave ;;4830900;;Child Care;EXTENDED DAY;;;;;;;;;;;;;;;;;;;;;;;
831660619;CPS_Early_Childhood_Portal_scrape.csv; South Central Holistic PreK Program;8316 S. Ellis ;;4830900;;Community Partnerships;8-11 Hours, varies by facility;;;;;;;;;;;;;;;;;;;;;;;
831660619;CPS_Early_Childhood_Portal_scrape.csv; South Central Community Services - South Central Community Services;8316 S Ellis Ave ;;4830900;;Head Start;HALF DAY/FULL DAY;;;;;;;;;;;;;;;;;;;;;;;
831660619;CPS_Early_Childhood_Portal_scrape.csv; South Central Community Services - South Central Community Services;8316 S Ellis Ave ;;4830900;;State Pre-Kindergarten;HALF DAY/FULL DAY;;;;;;;;;;;;;;;;;;;;;;;
831660619;chapin_dfss_providers_2011_070212.csv;SOUTH CENTRAL COMMUNITY SERVICES SOUTH CENTRAL COMMUNITY SERVICE;8316 S ELLIS AVE ;60619;4830900;;;;;;;SOUTH CENTRAL COMMUNITY SERVICES;CHATHAM;;;;;Marsha Hightower;Yes;No;No;;;;;;;;;;
831660619;ECE Chicago Find a School scrape.csv; South Central Holistic Pre-K;8316 S. Ellis ;60619;4830900;;;;;;Chatham;;;;;;;;;;;;;CP;;;;;;;
831660619;NAEYC_accreditation.csv; South Central Community Services Head Start Program;8316 South Ellis Avenue Building ;60619;4830900;;;;;;;;;;;;;;;;;;http://www.sccsinc.org;;;;05/31/14;508122;blasingame@sccsinc.org;;
832260652;chapin_dfss_providers_2011_070212.csv;MARCY NEWBERRY ASSOCIATION LEARNING TREE 2;8322 S PULASKI RD ;60652;8843345;;;;;;;MARCY NEWBERRY ASSOCIATION;ASHBURN;;;;;Joanne Williams;Yes;No;No;;;;;;;;;;
832260652;DFSS_AgencySiteLies_2012.csv;Marcy Newberry Association Learning Tree 2;8322 S Pulaski Rd. ;60652;8843345;;;;;;;Marcy Newberry Association;;;;;;;;;;;www.marcy-newberry.org;Gertrude Ricks;Joanne Williams ;;;;;;
832460620;ECE Chicago Find a School scrape.csv; Cuffe;8324 S. Racine ;60620;5358250;;;;;;Auburn Gresham;;;;;;;;;;;;;PFA-REG;;;;;;;
835860617;CPS_Early_Childhood_Portal_scrape.csv; Marcy Newberry Association - South Harper Montessori;8358 S Stony Island Ave ;;7340375;;Child Care;EXTENDED DAY;;;;;;;;;;;;;;;;;;;;;;;
835860617;CPS_Early_Childhood_Portal_scrape.csv; South Harper Montessori School;8358 S. Stony Island ;;7340303;;Community Partnerships;8-11 Hours, varies by facility;;;;;;;;;;;;;;;;;;;;;;;
835860617;CPS_Early_Childhood_Portal_scrape.csv; Marcy Newberry Association - South Harper Montessori;8358 S Stony Island Ave ;;7340375;;Head Start;HALF DAY/FULL DAY;;;;;;;;;;;;;;;;;;;;;;;
835860617;CPS_Early_Childhood_Portal_scrape.csv; Marcy Newberry Association - South Harper Montessori;8358 S Stony Island Ave ;;7340375;;State Pre-Kindergarten;HALF DAY/FULL DAY;;;;;;;;;;;;;;;;;;;;;;;
835860617;chapin_dfss_providers_2011_070212.csv;MARCY NEWBERRY ASSOCIATION SOUTH HARPER MONTESSORI;8358 S STONY ISLAND AVE ;60617;7340375;;;;;;;MARCY NEWBERRY ASSOCIATION;AVALON PARK;;;;;Georgianna Coachman;No;No;No;;;;;;;;;;
835860617;ECE Chicago Find a School scrape.csv; South Harper 0-3;8358 S. Stony Island ;60617;7340303;;;;;;Avalon Park;;;;;;;;;;;;;CP;;;;;;;
835860617;ECE Chicago Find a School scrape.csv; South Harper Montessori Sch;8358 S. Stony Island ;60617;7340303;;;;;;Avalon Park;;;;;;;;;;;;;CP;;;;;;;
835860617;purple_binder_early_childhood.csv; South Harper Montessori Preschool;8358 S Stony Island Avenue ;60617;7343120;;;;;;;;;;;;;;;;;;;;;;;;;;Child Care
840760620;CPS_Early_Childhood_Portal_scrape.csv; Morgan;8407 S. Kerfoot ;;5353366;;Head Start;3-4 hours;;;;;;;;;;;;;;;;;;;;;;;
840760620;chapin_dfss_providers_2011_070212.csv;CHICAGO PUBLIC SCHOOLS MORGAN, GARRETT A.;8407 S KERFOOT ;60620;5353366;;;;;;;CHICAGO PUBLIC SCHOOLS;AUBURN GRESHAM;;;;;Mrs. Linda E.  Walker;Yes;No;No;;;;;;;;;;
840760620;DFSS_AgencySiteLies_2012.csv;Chicago Public Schools Morgan, Garrett A.;8407 S. Kerfoot ;60620;5353366;;;;;;;Chicago Public Schools;;;;;;;;;;;www.cps.edu;Paula Cottone;Jerrold Washington;;;;;;
840760620;ECE Chicago Find a School scrape.csv; Morgan;8407 S. Kerfoot ;60620;5353366;;;;;;Auburn Gresham;;;;;;;;;;;;;HS-HD;;;;;;;
843560617;purple_binder_early_childhood.csv; All Nations Development Center;8435 S Stony Island Avenue ;60617;3757000;;;;;;;;;;;;;;;;;;;;;;;;;;Child Care
844160617;CPS_Early_Childhood_Portal_scrape.csv; Coles;8441 S. Yates ;;5356550;;Prekindergarten For All;3-4 hours;;;;;;;;;;;;;;;;;;;;;;;
844160617;ECE Chicago Find a School scrape.csv; Coles;8441 S. Yates ;60617;5356550;;;;;;South Chicago;;;;;;;;;;;;;PFA-REG;;;;;;;
844560652;ECE Chicago Find a School scrape.csv; Durkin Park School;8445 S. Kolin ;60652;5352322;;;;;;Ashburn;;;;;;;;;;;;;PFA-REG;;;;;;;
850160620;CPS_Early_Childhood_Portal_scrape.csv; Henry Booth House - Jelly Learning Center;8501 S Ashland Ave ;;;;Head Start;HALF DAY/FULL DAY;;;;;;;;;;;;;;;;;;;;;;;
850160620;chapin_dfss_providers_2011_070212.csv;HENRY BOOTH HOUSE JELLY BEAN LEARINING CENTER-8501 S ASHLAND;8501 S ASHLAND ;60620;2395437;;;;;;;HENRY BOOTH HOUSE;AUBURN GRESHAM;;;;;Ms. Donna Taylor;Yes;No;No;;;;;;;;;;
850160620;DFSS_AgencySiteLies_2012.csv;Henry Booth House Jelly Bean Learining Center-8501 S ASHLAND;8501 S Ashland ;60620;2395437;;;;;;;Henry Booth House;;;;;;;;;;;www.henryboothhouse.org;Scott Perkins;Ms. Donna Taylor ;;;;;;
852460620;CPS_Early_Childhood_Portal_scrape.csv; Gresham;8524 S. Green ;;5353350;;Head Start;5-6 hours;;;;;;;;;;;;;;;;;;;;;;;
852460620;chapin_dfss_providers_2011_070212.csv;CHICAGO PUBLIC SCHOOLS GRESHAM, WALTER Q.;8524 S GREEN ;60620;5353350;;;;;;;CHICAGO PUBLIC SCHOOLS;AUBURN GRESHAM;;;;;Ms. Diedrus U.  Brown;Yes;No;No;;;;;;;;;;
852460620;DFSS_AgencySiteLies_2012.csv;Chicago Public Schools Gresham, Walter Q.;8524 S. Green ;60620;5353350;;;;;;;Chicago Public Schools;;;;;;;;;;;www.cps.edu;Paula Cottone;Ms. Diedrus U. Brown;;;;;;
852460620;ECE Chicago Find a School scrape.csv; Gresham;8524 S. Green ;60620;5353350;;;;;;Auburn Gresham;;;;;;;;;;;;;HS-HD;;;;;;;
853060620;CPS_Early_Childhood_Portal_scrape.csv; Foster Park;8530 S. Wood St. ;;5352725;;Prekindergarten For All;3-4 hours;;;;;;;;;;;;;;;;;;;;;;;
853060620;ECE Chicago Find a School scrape.csv; Foster Park;8530 S. Wood St. ;60620;5352725;;;;;;Auburn Gresham;;;;;;;;;;;;;PFA-REG;;;;;;;
854660617;CPS_Early_Childhood_Portal_scrape.csv; Caldwell;8546 S. Cregier ;;5356300;;Prekindergarten For All;3-4 hours;;;;;;;;;;;;;;;;;;;;;;;
854660617;ECE Chicago Find a School scrape.csv; Caldwell (Blended);8546 S. Cregier ;60617;5356300;;;;;;Avalon Park;;;;;;;;;;;;;PFA-REG;;;;;;;
860160619;CPS_Early_Childhood_Portal_scrape.csv; Dorothy Sutton Branch - Dorothy Sutton Branch;8601 S State St ;;7234445;;Child Care;EXTENDED DAY;;;;;;;;;;;;;;;;;;;;;;;
860160619;CPS_Early_Childhood_Portal_scrape.csv; Dorothy Sutton Branch Headstart and Daycare;8601 S. State St. ;;7234445;;Community Partnerships;8-11 Hours, varies by facility;;;;;;;;;;;;;;;;;;;;;;;
860160619;CPS_Early_Childhood_Portal_scrape.csv; Dorothy Sutton Branch - Dorothy Sutton Branch;8601 S State St ;;7234445;;Head Start;HALF DAY/FULL DAY;;;;;;;;;;;;;;;;;;;;;;;
860160619;chapin_dfss_providers_2011_070212.csv;DOROTHY SUTTON BRANCH DOROTHY SUTTON BRANCH;8601 S STATE ;60619;7234445;;;;;;;DOROTHY SUTTON BRANCH;CHATHAM;;;;;Ms. Ola Kirksey;Yes;No;No;7123PS(HS Collaboration with Childcare);;;;;;;;;
860160619;DFSS_AgencySiteLies_2012.csv;Dorothy Sutton Branch Dorothy Sutton Branch;8601 S. State St ;60619;7234445;;;;;;;Dorothy Sutton Branch;;;;;;;;;;;;Ola Kirksey;Ms. Ola Kirksey;;;;;;
860160619;NAEYC_accreditation.csv; Dorothy Sutton Branch Head Start & Day Care;8601 South State Street  ;60619;7234445;;;;;;;;;;;;;;;;;;;;;;04/30/14;557917;dorthysbr@aol.com;;
860160656;CPS_Early_Childhood_Portal_scrape.csv; Dirksen;8601 W. Foster ;;5341090;;Prekindergarten For All;3-4 hours;;;;;;;;;;;;;;;;;;;;;;;
860160656;ECE Chicago Find a School scrape.csv; Dirksen;8601 W. Foster  ;60656;5341090;;;;;;O'Hare;;;;;;;;;;;;;PFA-REG TS;;;;;;;
860960619;chapin_dfss_providers_2011_070212.csv;CHICAGO STATE UNIVERSITY FCCH-LATASHIE  TAIWO;8609 S INGLESIDE ;60619;4880716;;;;;;;CHICAGO STATE UNIVERSITY;CHATHAM;;;;;Evelyn Lang;No;Yes;No;5971IP(EHS Collaboration Enhanced Home IP), 5973IT(Child Car;;;;;;;;;
861260617;CPS_Early_Childhood_Portal_scrape.csv; McCann?s Daycare Center;8612 S. Stony Island ;;3757932;;Community Partnerships;8-11 Hours, varies by facility;;;;;;;;;;;;;;;;;;;;;;;
861260617;ECE Chicago Find a School scrape.csv; McCann's Daycare Center;8612 S. Stony Island ;60617;3757932;;;;;;Avalon Park;;;;;;;;;;;;;CP;;;;;;;
862560619;chapin_dfss_providers_2011_070212.csv;CHICAGO COMMONS ASSOCIATION JPE DAYCARE CENTER;8625 S COTTAGE GROVE ;60619;9941300;;;;;;;CHICAGO COMMONS ASSOCIATION;CHATHAM;;;;;Jackie Cuvington;No;No;No;;;;;;;;;;
871660617;CPS_Early_Childhood_Portal_scrape.csv; Catholic Charities of the Archdiocese of Chicago - St. Bronislava;8716 S Colfax Ave ;;9337676;;Child Care;EXTENDED DAY;;;;;;;;;;;;;;;;;;;;;;;
871660617;CPS_Early_Childhood_Portal_scrape.csv; Catholic Charities of the Archdiocese of Chicago - St. Bronislava;8716 S Colfax Ave ;;9337676;;Head Start;HALF DAY/FULL DAY;;;;;;;;;;;;;;;;;;;;;;;
871660617;purple_binder_early_childhood.csv; Saint Bronislava Early Childhood Center;8716 S Colfax Avenue ;60617;6557305;;;;;;;;;;;;;;;;;;;;;;;;;;Child Care
871660620;CPS_Early_Childhood_Portal_scrape.csv; Ryder;8716 S. Wallace ;;5353843;;Head Start;3-4 hours;;;;;;;;;;;;;;;;;;;;;;;
871660620;chapin_dfss_providers_2011_070212.csv;CHICAGO PUBLIC SCHOOLS RYDER, WILLIAM H.;8716 S WALLACE STREET ;60620;5353843;;;;;;;CHICAGO PUBLIC SCHOOLS;AUBURN GRESHAM;;;;;Mrs. Janice  Preston;Yes;No;No;;;;;;;;;;
871660620;DFSS_AgencySiteLies_2012.csv;Chicago Public Schools Ryder, William H.;8716 S. Wallace Street ;60620;5353843;;;;;;;Chicago Public Schools;;;;;;;;;;;www.cps.edu;Paula Cottone;Mrs. Janice  Preston;;;;;;
871660620;ECE Chicago Find a School scrape.csv; Ryder;8716 S. Wallace ;60620;5353843;;;;;;Auburn Gresham;;;;;;;;;;;;;HS-HD;;;;;;;
875960617;purple_binder_early_childhood.csv; Chicago Department of Human Services - South Chicago;8759 S Commercial Avenue ;60617;7470331;;;;;;;;;;;;;;;;;;;;;;;;;;Child Care
876560631;IDHS_child_care_provider_list.csv; ChildServ;8765 West Higgins Road Suite 450;60631;8677308;(773) 693-0322;;;2935-8342-5433-002;;;;;;;;;;;;;;;;;;;;;;
890260617;purple_binder_early_childhood.csv; YMCA South Chicago II;8902 S Brandon Avenue ;60617;7217230;;;;;;;;;;;;;;;;;;;;;;;;;;Child Care
891460617;CPS_Early_Childhood_Portal_scrape.csv; Thorp, J.N.;8914 S. Buffalo ;;5356250;;Prekindergarten For All;3-4 hours;;;;;;;;;;;;;;;;;;;;;;;
891460617;chapin_dfss_providers_2011_070212.csv;CHICAGO PUBLIC SCHOOLS THORP, JAMES N.;8914 S BUFFALO AVE ;60617;5356250;;;;;;;CHICAGO PUBLIC SCHOOLS;SOUTH CHICAGO;;;;;Tony Fisher;Yes;No;No;;;;;;;;;;
891460617;DFSS_AgencySiteLies_2012.csv;Chicago Public Schools Thorp, James N.;8914 S Buffalo Ave. ;60617;5356250;;;;;;;Chicago Public Schools;;;;;;;;;;;www.cps.edu;Paula Cottone;Tony Fisher;;;;;;
891460617;ECE Chicago Find a School scrape.csv; Thorp, J.N.;8914 S. Buffalo ;60617;5356250;;;;;;South Chicago;;;;;;;;;;;;;HS-HD;;;;;;;
894060619;chapin_dfss_providers_2011_070212.csv;EL VALOR NEW AGE PREPARATORY (8940 S COTTAGE GROVE AVE);8940 S COTTAGE GROVE AVE ;60619;7832431;;;;;;;EL VALOR;CHATHAM;;;;;Tanya Furlow;No;No;No;;;;;;;;;;
894060619;DFSS_AgencySiteLies_2012.csv;El Valor New Age Preparatory;8940 S Cottage Grove Ave ;60619;7832431;;;;;;;El Valor;;;;;;;;;;;www.elvalor.org;Vincent Allocco;Tanya Furlow;;;;;;
900060617;CPS_Early_Childhood_Portal_scrape.csv; Mireles;9000 S. Exchange ;;5356360;;Prekindergarten For All;3-4 hours;;;;;;;;;;;;;;;;;;;;;;;
900060617;ECE Chicago Find a School scrape.csv; Mireles;9000 S. Exchange ;60617;5356360;;;;;;South Chicago;;;;;;;;;;;;;PFA-REG;;;;;;;
912960617;CPS_Early_Childhood_Portal_scrape.csv; Catholic Charities of the Archdiocese of Chicago - Our Lady of Guadalupe;9129 S Burley Ave ;;9785320;;Child Care;EXTENDED DAY;;;;;;;;;;;;;;;;;;;;;;;
912960617;CPS_Early_Childhood_Portal_scrape.csv; Catholic Charities of the Archdiocese of Chicago - Our Lady of Guadalupe;9129 S Burley Ave ;;9785320;;Head Start;HALF DAY/FULL DAY;;;;;;;;;;;;;;;;;;;;;;;
912960617;CPS_Early_Childhood_Portal_scrape.csv; Catholic Charities of the Archdiocese of Chicago - Our Lady of Guadalupe;9129 S Burley Ave ;;9785320;;State Pre-Kindergarten;HALF DAY/FULL DAY;;;;;;;;;;;;;;;;;;;;;;;
912960617;purple_binder_early_childhood.csv; Our Lady of Guadalupe Early Childhood Center;9129 S Burley Avenue ;60617;9785320;;;;;;;;;;;;;;;;;;;;;;;;;;Child Care
913060617;CPS_Early_Childhood_Portal_scrape.csv; Washington, H.;9130 S. University ;;5356225;;Prekindergarten For All;3-4 hours;;;;;;;;;;;;;;;;;;;;;;;
913060617;ECE Chicago Find a School scrape.csv; Washington, H.;9130 S. University ;60617;5356225;;;;;;Burnside;;;;;;;;;;;;;PFA-REG;;;;;;;
921160620;ECE Chicago Find a School scrape.csv; Salvation Army Shiloah;9211 S. Justine  ;60620;8814142;;;;;;Washington Heights;;;;;;;;;;;;;CP;;;;;;;
921160620;purple_binder_early_childhood.csv; Salvation Army - Shiloah School;9211 S Justine Street ;60620;8814142;;;;;;;;;;;;;;;;;;;;;;;;;;Child Care
921460619;CPS_Early_Childhood_Portal_scrape.csv; Chesterfield Tom Thumb Day Care 2;9214 S. Cottage Grove ;;8743985;;Community Partnerships;8-11 Hours, varies by facility;;;;;;;;;;;;;;;;;;;;;;;
921460619;ECE Chicago Find a School scrape.csv; Chesterfield Tom Thumb;9214 S. Cottage Grove ;60619;8473985;;;;;;Chatham;;;;;;;;;;;;;CP;;;;;;;
923960617;CPS_Early_Childhood_Portal_scrape.csv; Warren;9239 S. Jeffery ;;5356625;;Prekindergarten For All;3-4 hours;;;;;;;;;;;;;;;;;;;;;;;
923960617;ECE Chicago Find a School scrape.csv; Warren;9239 S. Jeffery ;60617;5356625;;;;;;Calumet Heights;;;;;;;;;;;;;PFA-REG;;;;;;;
930160619;CPS_Early_Childhood_Portal_scrape.csv; Gillespie;9301 S. State St. ;;5355065;;Prekindergarten For All;3-4 hours;;;;;;;;;;;;;;;;;;;;;;;
930160619;ECE Chicago Find a School scrape.csv; Gillespie;9301 S. State St. ;60619;5355065;;;;;;Roseland;;;;;;;;;;;;;PFA-REG;;;;;;;
950160628;CPS_Early_Childhood_Portal_scrape.csv; Chicago State University;9501 S. DR MARTIN LUTHER KING JR Drive ;;9952556;;Community Partnerships;8-11 Hours, varies by facility;;;;;;;;;;;;;;;;;;;;;;;
950160628;CPS_Early_Childhood_Portal_scrape.csv; Chicago State University - Chicago State University;9501 S Dr. Martin Luther King Dr ;;9952400;;Head Start;HALF DAY/FULL DAY;;;;;;;;;;;;;;;;;;;;;;;
950160628;CPS_Early_Childhood_Portal_scrape.csv; Chicago State University - Chicago State University;9501 S Dr. Martin Luther King Dr ;;9952400;;State Pre-Kindergarten;HALF DAY/FULL DAY;;;;;;;;;;;;;;;;;;;;;;;
950160628;ECE Chicago Find a School scrape.csv; Chicago State University;9501 S. King Dr. ;60628;9952556;;;;;;Roseland;;;;;;;;;;;;;CP;;;;;;;
972560617;chapin_dfss_providers_2011_070212.csv;EL VALOR MARI'S BUMBLE BEE ACADEMY;9725 S COMMERCIAL AVE ;60617;2217692;;;;;;;EL VALOR;SOUTH DEERING;;;;;Marisol Lopez;Yes;No;No;;;;;;;;;;
972560617;DFSS_AgencySiteLies_2012.csv;El Valor Mari's Bumble Bee Academy;9725 S Commercial Ave ;60617;2217692;;;;;;;El Valor;;;;;;;;;;;www.elvalor.org;Vincent Allocco;Marisol Lopez ;;;;;;
975560628;CPS_Early_Childhood_Portal_scrape.csv; Schmid;9755 S. Greenwood ;;5356235;;Prekindergarten For All;3-4 hours;;;;;;;;;;;;;;;;;;;;;;;
975560628;ECE Chicago Find a School scrape.csv; Schmid;9755 S. Greenwood  ;60628;5356235;;;;;;Pullman;;;;;;;;;;;;;PFA-REG;;;;;;;
981060617;CPS_Early_Childhood_Portal_scrape.csv; Marsh;9810 S. Exchange ;;5356430;;Prekindergarten For All;3-4 hours;;;;;;;;;;;;;;;;;;;;;;;
981060617;ECE Chicago Find a School scrape.csv; Marsh;9810 S. Exchange ;60617;5356430;;;;;;South Deering;;;;;;;;;;;;;PFA-REG;;;;;;;
991260617;CPS_Early_Childhood_Portal_scrape.csv; Taylor;9912 S. Avenue ;;5356240;;Prekindergarten For All;3-4 hours;;;;;;;;;;;;;;;;;;;;;;;
991260617;ECE Chicago Find a School scrape.csv; Taylor;9912 S. Avenue H ;60617;5356240;;;;;;East Side;;;;;;;;;;;;;PFA-REG;;;;;;;
992860617;CPS_Early_Childhood_Portal_scrape.csv; Lawrence;9928 S. Crandon ;;5356320;;Prekindergarten For All;3-4 hours;;;;;;;;;;;;;;;;;;;;;;;
992860617;ECE Chicago Find a School scrape.csv; Lawrence;9928 S. Crandon ;60617;5356320;;;;;;South Deering;;;;;;;;;;;;;PFA-REG;;;;;;;
1000160628;CPS_Early_Childhood_Portal_scrape.csv; City Colleges Olive-Harvey CDC;10001 S. Woodlawn ;;2916315;;Community Partnerships;8-11 Hours, varies by facility;;;;;;;;;;;;;;;;;;;;;;;
1000160628;CPS_Early_Childhood_Portal_scrape.csv; Board Trustees-City Colleges of Chicago - Olive-Harvey College;10001 S Woodlawn Ave ;;2916100;;Child Care;EXTENDED DAY;;;;;;;;;;;;;;;;;;;;;;;
1000160628;CPS_Early_Childhood_Portal_scrape.csv; Board Trustees-City Colleges of Chicago - Olive-Harvey College;10001 S Woodlawn Ave ;;2916100;;Child Care;EXTENDED DAY;;;;;;;;;;;;;;;;;;;;;;;
1000160628;CPS_Early_Childhood_Portal_scrape.csv; Board Trustees-City Colleges of Chicago - Olive-Harvey College;10001 S Woodlawn Ave ;;2916100;;Head Start;HALF DAY/FULL DAY;;;;;;;;;;;;;;;;;;;;;;;
1000160628;CPS_Early_Childhood_Portal_scrape.csv; Board Trustees-City Colleges of Chicago - Olive-Harvey College;10001 S Woodlawn Ave ;;2916100;;Head Start;HALF DAY/FULL DAY;;;;;;;;;;;;;;;;;;;;;;;
1000160628;chapin_dfss_providers_2011_070212.csv;BOARD TRUSTEES-CITY COLLEGES OF CHICAGO OLIVE-HARVEY COLLEGE;10001 S WOODLAWN ;60628;2916317;;;;;;;BOARD TRUSTEES-CITY COLLEGES OF CHICAGO;PULLMAN;;;;;Tiffany Carter;Yes;No;No;7056PS(HS Collaboration with Childcare & PreK);;;;;;;;;
1000160628;DFSS_AgencySiteLies_2012.csv;Board Trustees-City Colleges of Chicago Olive-Harvey College;10001 S. Woodlawn ;60628;2916317;;;;;;;Board Trustees-City Colleges of Chicago;;;;;;;;;;;www.ccc.edu;Phyllis Daniels-Ward;Tiffany Carter;;;;;;
1000160628;ECE Chicago Find a School scrape.csv; City Colleges Olive Harvey;10001 S. Woodlawn ;60628;2916315;;;;;;Pullman;;;;;;;;;;;;;CP;;;;;;;
1000160628;NAEYC_accreditation.csv; Olive-Harvey Child Development Laboratory Center;10001 South Woodlawn Avenue First Floor ;60628;2916317;;;;;;;;;;;;;;;;;;http://www.oliveharvey.ccc.edu;;;;11/30/14;278168;tcarter63@ccc.edu;;
1000160628;purple_binder_early_childhood.csv; Olive-Harvey College;10001 S Woodlawn Avenue ;60628;2916700;;;;;;;;;;;;;;;;;;;;;;;;;;Child Care
1011560628;CPS_Early_Childhood_Portal_scrape.csv; Bennett;10115 S. Prairie ;;5355460;;Prekindergarten For All;3-4 hours;;;;;;;;;;;;;;;;;;;;;;;
1011560628;ECE Chicago Find a School scrape.csv; Bennett;10115 S. Prairie ;60628;5355460;;;;;;Roseland;;;;;;;;;;;;;PFA-REG;;;;;;;
1031760643;ECE Chicago Find a School scrape.csv; Small Stride Academy;10317 S. Western ;60643;2390040;;;;;;Beverly;;;;;;;;;;;;;CP;;;;;;;
1034760617;CPS_Early_Childhood_Portal_scrape.csv; Gallistel;10347 S. Ewing Ave. ;;5356540;;Prekindergarten For All;3-4 hours;;;;;;;;;;;;;;;;;;;;;;;
1034760617;ECE Chicago Find a School scrape.csv; Gallistel;10347 S. Ewing Ave. ;60617;5356540;;;;;;East Side;;;;;;;;;;;;;PFA-REG TS;;;;;;;
1035460643;CPS_Early_Childhood_Portal_scrape.csv; Barnard;10354 S. Charles St. ;;5352625;;Prekindergarten For All;3-4 hours;;;;;;;;;;;;;;;;;;;;;;;
1035460643;ECE Chicago Find a School scrape.csv; Barnard;10354 S. Charles St. ;60643;5352625;;;;;;Beverly;;;;;;;;;;;;;PFA-REG;;;;;;;
1041460628;CPS_Early_Childhood_Portal_scrape.csv; Kohn;10414 S. State St. ;;5355489;;Head Start;3-4 hours;;;;;;;;;;;;;;;;;;;;;;;
1041460628;chapin_dfss_providers_2011_070212.csv;CHICAGO PUBLIC SCHOOLS KOHN, ALFRED DAVID;10414 S STATE ;60628;5355489;;;;;;;CHICAGO PUBLIC SCHOOLS;ROSELAND;;;;;Ms. Carol  Briggs;Yes;No;No;;;;;;;;;;
1041460628;DFSS_AgencySiteLies_2012.csv;Chicago Public Schools Kohn, Alfred David;10414 S. State ;60628;5355489;;;;;;;Chicago Public Schools;;;;;;;;;;;www.cps.edu;Paula Cottone;Kimberly Moore;;;;;;
1041460628;ECE Chicago Find a School scrape.csv; Kohn;10414 S. State  ;60628;5355489;;;;;;Roseland;;;;;;;;;;;;;HS-HD;;;;;;;
1050960617;CPS_Early_Childhood_Portal_scrape.csv; Catholic Charities of the Archdiocese of Chicago - St. Kevin;10509 S Torrence Ave ;;3746466;;Child Care;EXTENDED DAY;;;;;;;;;;;;;;;;;;;;;;;
1050960617;CPS_Early_Childhood_Portal_scrape.csv; Catholic Charities of the Archdiocese of Chicago - St. Kevin;10509 S Torrence Ave ;;3746466;;Child Care;EXTENDED DAY;;;;;;;;;;;;;;;;;;;;;;;
1050960617;CPS_Early_Childhood_Portal_scrape.csv; Catholic Charities of the Archdiocese of Chicago - St. Kevin;10509 S Torrence Ave ;;3746466;;Head Start;HALF DAY/FULL DAY;;;;;;;;;;;;;;;;;;;;;;;
1050960617;CPS_Early_Childhood_Portal_scrape.csv; Catholic Charities of the Archdiocese of Chicago - St. Kevin;10509 S Torrence Ave ;;3746466;;Head Start;HALF DAY/FULL DAY;;;;;;;;;;;;;;;;;;;;;;;
1050960617;purple_binder_early_childhood.csv; Catholic Charities Chicago - St. Kevin;10509 S Torrence Avenue ;60617;3746466;;;;;;;;;;;;;;;;;;;;;;;;;;Child Care
1053060617;CPS_Early_Childhood_Portal_scrape.csv; Ada S. McKinley Community Services - McKinley - Trumbull Park;10530 S Oglesby ;;3757022;;Head Start;HALF DAY/FULL DAY;;;;;;;;;;;;;;;;;;;;;;;
1053060617;chapin_dfss_providers_2011_070212.csv;ADA S. MCKINLEY COMMUNITY SERVICES MCKINLEY-TRUMBULL PARK;10530 S OGLESBY ;60617;9785341;;;;;;;ADA S. MCKINLEY COMMUNITY SERVICES;SOUTH DEERING;;;;;Damita Brown;Yes;No;No;7051PS(HS Collaboration with Childcare);;;;;;;;;
1053060617;DFSS_AgencySiteLies_2012.csv;Ada S. McKinley Community Services McKinley-Trumbull Park;10530 S. Oglesby ;60617;9785341;;;;;;;Ada S. McKinley Community Services;;;;;;;;;;;www.adasmckinley.org;George Jones, Jr.;Damita Collins;;;;;;
1053060617;purple_binder_early_childhood.csv; Ada S. McKinley Services - McKinley - Trumbull;10530 S Oglesby Avenue ;60617;3757022;;;;;;;;;;;;;;;;;;;;;;;;;;Child Care
1061260628;CPS_Early_Childhood_Portal_scrape.csv; Chicago State University - Community Learning Center;10612 S Wentworth ;;;;Child Care;EXTENDED DAY;;;;;;;;;;;;;;;;;;;;;;;
1061260628;CPS_Early_Childhood_Portal_scrape.csv; Community Learning Center - Community Learning Center;10612 S Wentworth Ave ;;9284104;;Head Start;HALF DAY/FULL DAY;;;;;;;;;;;;;;;;;;;;;;;
1061260628;chapin_dfss_providers_2011_070212.csv;COMMUNITY LEARNING CENTER COMMUNITY LEARNING CENTER;10612 S WENTWORTH ;60628;9284104;;;;;;;COMMUNITY LEARNING CENTER;ROSELAND;;;;;Wanda Avery;Yes;No;No;;;;;;;;;;
1061260628;DFSS_AgencySiteLies_2012.csv;Community Learning Center Community Learning Center;10612 S. Wentworth ;60628;9284104;;;;;;;Community Learning Center;;;;;;;;;;;;Wanda Avery;Wanda Avery;;;;;;
1061260628;NAEYC_accreditation.csv; Community Learning Center, Inc.;10612-20 South Wentworth  ;60628;9284104;;;;;;;;;;;;;;;;;;;;;;04/01/16;587966;wereason@aol.com;;
1061260628;purple_binder_early_childhood.csv; Community Learning Center;10612 S Wentworth Avenue ;60628;9284104;;;;;;;;;;;;;;;;;;;;;;;;;;Child Care
1074060617;CPS_Early_Childhood_Portal_scrape.csv; Bright;10740 S. Calhoun ;;5356218;;Prekindergarten For All;3-4 hours;;;;;;;;;;;;;;;;;;;;;;;
1074060617;ECE Chicago Find a School scrape.csv; Bright;10740 S. Calhoun ;60617;5356215;;;;;;South Deering;;;;;;;;;;;;;PFA-REG;;;;;;;
1081060617;CPS_Early_Childhood_Portal_scrape.csv; Addams;10810 S. Ave. H ;;5356210;;Prekindergarten For All;3-4 hours;;;;;;;;;;;;;;;;;;;;;;;
1081060617;ECE Chicago Find a School scrape.csv; Addams;10810 Ave. H ;60617;5356210;;;;;;East Side;;;;;;;;;;;;;PFA-REG;;;;;;;
1083660628;chapin_dfss_providers_2011_070212.csv;HULL HOUSE ASSOCIATION FCCH-TAYNA AYENA;10836 S NORMAL AVE ;60628;8218491;;;;;;;HULL HOUSE ASSOCIATION;ROSELAND;;;;;;No;Yes;No;6130IP(EHS Collaboration Enhanced Home IP), 6131IT(Child Car;;;;;;;;;
1084160655;CPS_Early_Childhood_Portal_scrape.csv; Mt. Greenwood;10841 S. Homan Ave ;;5352786;;Prekindergarten For All;3-4 hours;;;;;;;;;;;;;;;;;;;;;;;
1084160655;ECE Chicago Find a School scrape.csv; Mt Greenwood;10841 S. Homan ;60655;5352786;;;;;;Mount Greenwood;;;;;;;;;;;;;PFA-REG;;;;;;;
1084560628;CPS_Early_Childhood_Portal_scrape.csv; Dunne;10845 S. Union ;;5355517;;Prekindergarten For All;3-4 hours;;;;;;;;;;;;;;;;;;;;;;;
1084560628;ECE Chicago Find a School scrape.csv; Dunne;10845 S. Union ;60628;5355517;;;;;;Roseland;;;;;;;;;;;;;PFA-REG;;;;;;;
1085860628;purple_binder_early_childhood.csv; Roseland Christian Ministries Center;10858 S Michigan Avenue ;60628;2645665;;;;;;;;;;;;;;;;;;;;;;;;;;Child Care
1092860628;CPS_Early_Childhood_Portal_scrape.csv; Children?s Developmental Institute MP;10928 S. Halsted St. ;;9950600;;Community Partnerships;8-11 Hours, varies by facility;;;;;;;;;;;;;;;;;;;;;;;
1092860628;ECE Chicago Find a School scrape.csv; Children's Dev Inst Morgan Pk;10928 S. Halsted ;60628;9950600;;;;;;Morgan Park;;;;;;;;;;;;;CP;;;;;;;
1092860628;ECE Chicago Find a School scrape.csv; Children's Dev Inst Morgan Pk I/T;10928 S. Halsted ;60628;9950600;;;;;;Morgan Park;;;;;;;;;;;;;CP;;;;;;;
1095160628;CPS_Early_Childhood_Portal_scrape.csv; Hull House Association - New Age;10951 S Michigan Ave ;;;;Head Start;HALF DAY/FULL DAY;;;;;;;;;;;;;;;;;;;;;;;
1095160628;chapin_dfss_providers_2011_070212.csv;EL VALOR NEW AGE PREPARATORY ACADEMY (10951 S MICHIGAN AVE);10951 S MICHIGAN AVE ;60628;7857737;;;;;;;EL VALOR;ROSELAND;;;;;Tanya Furlow;Yes;No;No;;;;;;;;;;
1095160628;DFSS_AgencySiteLies_2012.csv;El Valor New Age Preparatory Academy;10951 S Michigan Ave ;60628;7857737;;;;;;;El Valor;;;;;;;;;;;www.elvalor.org;Vincent Allocco;Tanya Furlow;;;;;;
1102560628;CPS_Early_Childhood_Portal_scrape.csv; Montessori Academy and Association, Inc. 1;11025 S. Halsted St. ;;4680033;;Community Partnerships;8-11 Hours, varies by facility;;;;;;;;;;;;;;;;;;;;;;;
1102560628;chapin_dfss_providers_2011_070212.csv;ADA S. MCKINLEY COMMUNITY SERVICES MONTESSORI ACADEMY;11025 S HALSTED AVE ;60628;2810069;;;;;;;ADA S. MCKINLEY COMMUNITY SERVICES;ROSELAND;;;;;;Yes;No;No;;;;;;;;;;
1102560628;DFSS_AgencySiteLies_2012.csv;Ada S. McKinley Community Services Montessori Academy;11025 S Halsted Ave. ;60628;2810069;;;;;;;Ada S. McKinley Community Services;;;;;;;;;;;www.adasmckinley.org;George Jones, Jr.;Gloria Walker;;;;;;
1112360628;chapin_dfss_providers_2011_070212.csv;EL VALOR AMAZING GRACE CHILD CARE CENTER;11123 S HALSTED ST ;60628;2643636;;;;;;;EL VALOR;ROSELAND;;;;;Rachel Adesola;Yes;No;No;;;;;;;;;;
1112360628;DFSS_AgencySiteLies_2012.csv;El Valor Amazing Grace Child Care Center;11123 S Halsted St ;60628;2643636;;;;;;;El Valor;;;;;;;;;;;www.elvalor.org;Vincent Allocco;Rachel Adesola ;;;;;;
1122360628;CPS_Early_Childhood_Portal_scrape.csv; Henry Booth House - Hippity Hop Tiny Tots;11223 S Halsted St ;;7853340;;Head Start;HALF DAY/FULL DAY;;;;;;;;;;;;;;;;;;;;;;;
1122360628;chapin_dfss_providers_2011_070212.csv;HENRY BOOTH HOUSE HIPPITY HOP TINY TOTS;11223 S HALSTED ST ;60628;7853340;;;;;;;HENRY BOOTH HOUSE;ROSELAND;;;;;Ms. Tuggle;Yes;No;No;;;;;;;;;;
1122360628;DFSS_AgencySiteLies_2012.csv;Henry Booth House Hippity Hop Tiny Tots;11223 S. Halsted St. ;60628;7853340;;;;;;;Henry Booth House;;;;;;;;;;;www.henryboothhouse.org;Scott Perkins;Ms. Tuggle ;;;;;;
1131160628;CPS_Early_Childhood_Portal_scrape.csv; Pullman;11311 S. Forrestville ;;5355395;;Prekindergarten For All;3-4 hours;;;;;;;;;;;;;;;;;;;;;;;
1131160628;ECE Chicago Find a School scrape.csv; Pullman;11311 S. Forrestville ;60628;5355395;;;;;;Pullman;;;;;;;;;;;;;PFA-REG;;;;;;;
1131260628;chapin_dfss_providers_2011_070212.csv;HULL HOUSE ASSOCIATION FCCH-SHELIA LANGHAM;11312 S NORMAL ST ;60628;2355342;;;;;;;HULL HOUSE ASSOCIATION;ROSELAND;;;;;Etisha Wofford;No;Yes;No;5740IP(EHS Collaboration Enhanced Home IP), 5742IT(Child Car;;;;;;;;;
1141060628;CPS_Early_Childhood_Portal_scrape.csv; Ada S. McKinley Community Services - McKinley - Roseland;11410 S Edbrooke Ave ;;4681918;;Child Care;EXTENDED DAY;;;;;;;;;;;;;;;;;;;;;;;
1141060628;CPS_Early_Childhood_Portal_scrape.csv; Ada S. McKinley Community Services - McKinley - Roseland;11410 S Edbrooke Ave ;;4681918;;Child Care;EXTENDED DAY;;;;;;;;;;;;;;;;;;;;;;;
1141060628;CPS_Early_Childhood_Portal_scrape.csv; Ada S. McKinley Roseland;11410 S. Edbrooke ;;4681918;;Community Partnerships;8-11 Hours, varies by facility;;;;;;;;;;;;;;;;;;;;;;;
1141060628;CPS_Early_Childhood_Portal_scrape.csv; Ada S. McKinley Community Services - McKinley - Roseland;11410 S Edbrooke Ave ;;4681918;;Head Start;HALF DAY/FULL DAY;;;;;;;;;;;;;;;;;;;;;;;
1141060628;CPS_Early_Childhood_Portal_scrape.csv; Ada S. McKinley Community Services - McKinley - Roseland;11410 S Edbrooke Ave ;;4681918;;Head Start;HALF DAY/FULL DAY;;;;;;;;;;;;;;;;;;;;;;;
1141060628;CPS_Early_Childhood_Portal_scrape.csv; Ada S. McKinley Community Services - McKinley - Roseland;11410 S Edbrooke Ave ;;4681918;;State Pre-Kindergarten;HALF DAY/FULL DAY;;;;;;;;;;;;;;;;;;;;;;;
1141060628;CPS_Early_Childhood_Portal_scrape.csv; Ada S. McKinley Community Services - McKinley - Roseland;11410 S Edbrooke Ave ;;4681918;;State Pre-Kindergarten;HALF DAY/FULL DAY;;;;;;;;;;;;;;;;;;;;;;;
1141060628;chapin_dfss_providers_2011_070212.csv;ADA S. MCKINLEY COMMUNITY SERVICES MCKINLEY-ROSELAND;11410 S EDBROOKE ;60628;4681918;;;;;;;ADA S. MCKINLEY COMMUNITY SERVICES;ROSELAND;;;;;Anna Luna;Yes;No;No;7021PS(HS Collaboration with Childcare);;;;;;;;;
1141060628;DFSS_AgencySiteLies_2012.csv;Ada S. McKinley Community Services McKinley-Roseland;11410 S. Edbrooke ;60628;4681918;;;;;;;Ada S. McKinley Community Services;;;;;;;;;;;www.adasmckinley.org;George Jones, Jr.;Anna Luna;;;;;;
1141060628;purple_binder_early_childhood.csv; Ada S. McKinley Community Services - Roseland;11410 S Edbrooke Avenue ;60628;4681918;;;;;;;;;;;;;;;;;;;;;;;;;;Child Care
1141160628;CPS_Early_Childhood_Portal_scrape.csv; Haley, Alex;11411 S. Eggleston ;;5355340;;Head Start;3-4 hours;;;;;;;;;;;;;;;;;;;;;;;
1141160628;chapin_dfss_providers_2011_070212.csv;CHICAGO PUBLIC SCHOOLS HALEY, ALEX;11411 S EGGLESTON ;60628;5355345;;;;;;;CHICAGO PUBLIC SCHOOLS;ROSELAND;;;;;Ms. Vaida Williams;Yes;No;No;;;;;;;;;;
1141160628;DFSS_AgencySiteLies_2012.csv;Chicago Public Schools Haley, Alex;11411 S. Eggleston ;60628;5355345;;;;;;;Chicago Public Schools;;;;;;;;;;;www.cps.edu;Paula Cottone;Ms. Vaida Williams;;;;;;
1141160628;ECE Chicago Find a School scrape.csv; Haley, Alex;11411 S. Eggleston ;60628;5355345;;;;;;Roseland;;;;;;;;;;;;;HS-HD;;;;;;;
1143960628;chapin_dfss_providers_2011_070212.csv;ADA S. MCKINLEY COMMUNITY SERVICES LITTLE GENIUS;11439 S MICHIGAN AVE ;60628;6298091;;;;;;;ADA S. MCKINLEY COMMUNITY SERVICES;ROSELAND;;;;;Melissa Carter;Yes;No;No;;;;;;;;;;
1143960628;DFSS_AgencySiteLies_2012.csv;Ada S. McKinley Community Services Little Genius;11439 S Michigan Ave. ;60628;6298091;;;;;;;Ada S. McKinley Community Services;;;;;;;;;;;www.adasmckinley.org;George Jones, Jr.;Vera Webbs;;;;;;
1144360628;CPS_Early_Childhood_Portal_scrape.csv; Imani Children's Academy;11443 S. Halsted ;;6609667;;Community Partnerships;8-11 Hours, varies by facility;;;;;;;;;;;;;;;;;;;;;;;
1144360628;chapin_dfss_providers_2011_070212.csv;EASTER SEALS SOCIETY OF METROPOLITAN CHICAGO IMANI'S CHILDREN;11443 S HALSTED ST ;60628;6609667;;;;;;;EASTER SEALS SOCIETY OF METROPOLITAN CHICAGO;ROSELAND;;;;;Marianne Powell-Dee;Yes;Yes;No;;;;;;;;;;
1144360628;DFSS_AgencySiteLies_2012.csv;Easter Seals Society of Metropolitan Chicago Imani's Children;11443 S Halsted St ;60628;6609667;;;;;;;Easter Seals Society of Metropolitan Chicago;;;;;;;;;;;www.easterseaslchicago.org;Barbara Zawacki;Marianne Powell ;;;;;;
1151560643;chapin_dfss_providers_2011_070212.csv;HULL HOUSE ASSOCIATION FCCH-VERNELL KENNEDY;11515 S THROOP ST ;60643;6609953;;;;;;;HULL HOUSE ASSOCIATION;WEST PULLMAN;;;;;;No;No;Yes;6132IT(Child Care Home IT), 6132PS(Child Care Home PS), 6132;;;;;;;;;
1153360643;CPS_Early_Childhood_Portal_scrape.csv; Whistler;11533 S. Ada ;;5355560;;Prekindergarten For All;3-4 hours;;;;;;;;;;;;;;;;;;;;;;;
1153360643;ECE Chicago Find a School scrape.csv; Whistler;11533 S. Ada ;60643;5355560;;;;;;West Pullman;;;;;;;;;;;;;PFA-REG;;;;;;;
1171060643;CPS_Early_Childhood_Portal_scrape.csv; Higgins;11710 S. Morgan ;;5355625;;Head Start;3-4 hours;;;;;;;;;;;;;;;;;;;;;;;
1171060643;chapin_dfss_providers_2011_070212.csv;CHICAGO PUBLIC SCHOOLS HIGGINS C.A., THOMAS J.;11710 S MORGAN ;60643;5355625;;;;;;;CHICAGO PUBLIC SCHOOLS;WEST PULLMAN;;;;;Dr. Mabel  Alfred;Yes;No;No;;;;;;;;;;
1171060643;DFSS_AgencySiteLies_2012.csv;Chicago Public Schools Higgins C.A., Thomas J.;11710 S. Morgan ;60643;5355625;;;;;;;Chicago Public Schools;;;;;;;;;;;www.cps.edu;Paula Cottone;Dr. Mabel Alfred;;;;;;
1171060643;ECE Chicago Find a School scrape.csv; Higgins;11710 S. Morgan ;60643;5355625;;;;;;West Pullman;;;;;;;;;;;;;HS-HD;;;;;;;
1172560628;CPS_Early_Childhood_Portal_scrape.csv; Songhai;11725 S. Perry ;;5355547;;Head Start;3-4 hours;;;;;;;;;;;;;;;;;;;;;;;
1172560628;chapin_dfss_providers_2011_070212.csv;CHICAGO PUBLIC SCHOOLS SONGHAI LEARNING INSTITUTE;11725 S PERRY AVE ;60628;5355547;;;;;;;CHICAGO PUBLIC SCHOOLS;WEST PULLMAN;;;;;Ms. Taliva A. Tillman;Yes;No;No;;;;;;;;;;
1172560628;DFSS_AgencySiteLies_2012.csv;Chicago Public Schools Songhai Learning Institute;11725 S. Perry Ave ;60628;5355547;;;;;;;Chicago Public Schools;;;;;;;;;;;www.cps.edu;Paula Cottone;Kathy Farr;;;;;;
1172560628;ECE Chicago Find a School scrape.csv; Songhai;11725 S. Perry ;60628;5355547;;;;;;West Pullman;;;;;;;;;;;;;HS-HD;;;;;;;
1194160628;CPS_Early_Childhood_Portal_scrape.csv; Pullman West;11941 S. Parnell Ave ;;5355500;;Prekindergarten For All;3-4 hours;;;;;;;;;;;;;;;;;;;;;;;
1194160628;ECE Chicago Find a School scrape.csv; West Pullman;11941 S. Parnell Ave ;60628;5355500;;;;;;West Pullman;;;;;;;;;;;;;PFA-REG;;;;;;;
1233960628;CPS_Early_Childhood_Portal_scrape.csv; Metcalfe;12339 S. Normal Av. ;;5355590;;Prekindergarten For All;3-4 hours;;;;;;;;;;;;;;;;;;;;;;;
1233960628;ECE Chicago Find a School scrape.csv; Metcalfe;12339 S. Normal ;60628;5355590;;;;;;West Pullman;;;;;;;;;;;;;PFA-REG;;;;;;;
1245060628;CPS_Early_Childhood_Portal_scrape.csv; Owens;12450 S. State St. ;;5355661;;Prekindergarten For All;3-4 hours;;;;;;;;;;;;;;;;;;;;;;;
1245060628;ECE Chicago Find a School scrape.csv; Owens;12450 S. State St. ;60628;5355661;;;;;;West Pullman;;;;;;;;;;;;;PFA-REG;;;;;;;
1260760628;CPS_Early_Childhood_Portal_scrape.csv; Brown Academy, R.;12607 S. Union ;;5355385;;Head Start;3-4 hours;;;;;;;;;;;;;;;;;;;;;;;
1260760628;chapin_dfss_providers_2011_070212.csv;CHICAGO PUBLIC SCHOOLS BROWN, RONALD;12607 S UNION ;60628;5355385;;;;;;;CHICAGO PUBLIC SCHOOLS;WEST PULLMAN;;;;;Ms. Gale Baker;Yes;No;No;;;;;;;;;;
1260760628;DFSS_AgencySiteLies_2012.csv;Chicago Public Schools Brown, Ronald;12607 S Union ;60628;5355385;;;;;;;Chicago Public Schools;;;;;;;;;;;www.cps.edu;Paula Cottone;Ms. Gale Baker;;;;;;
1260760628;ECE Chicago Find a School scrape.csv; Brown Academy;12607 S. Union ;60628;5355385;;;;;;West Pullman;;;;;;;;;;;;;HS-HD;;;;;;;
1280360628;chapin_dfss_providers_2011_070212.csv;ADA S. MCKINLEY COMMUNITY SERVICES CHILDREN'S CENTER (HALSTED);12803 S HALSTED ;60628;2645171;;;;;;;ADA S. MCKINLEY COMMUNITY SERVICES;WEST PULLMAN;;;;;Olivia Ramsey;Yes;No;No;;;;;;;;;;
1280360628;DFSS_AgencySiteLies_2012.csv;Ada S. McKinley Community Services Children's Center (Halsted);12803 S Halsted ;60628;2645171;;;;;;;Ada S. McKinley Community Services;;;;;;;;;;;www.adasmckinley.org;George Jones, Jr.;Rosalyn Patton;;;;;;
1281060633;CPS_Early_Childhood_Portal_scrape.csv; Grissom;12810 S. Escanaba ;;5355380;;Prekindergarten For All;3-4 hours;;;;;;;;;;;;;;;;;;;;;;;
1281060633;ECE Chicago Find a School scrape.csv; Grissom;12810 S. Escanaba ;60633;5355380;;;;;;Hegewisch;;;;;;;;;;;;;PFA-REG;;;;;;;
1323160633;CPS_Early_Childhood_Portal_scrape.csv; Clay;13231 S.Burley ;;5355600;;Prekindergarten For All;3-4 hours;;;;;;;;;;;;;;;;;;;;;;;
1323160633;ECE Chicago Find a School scrape.csv; Clay;13231 S.Burley ;60633;5355600;;;;;;Hegewisch;;;;;;;;;;;;;PFA-REG;;;;;;;
3012160617;CPS_Early_Childhood_Portal_scrape.csv; Shinning Star Child Development Institute;3012-16 E. 92nd St. ;;9787827;;Community Partnerships;8-11 Hours, varies by facility;;;;;;;;;;;;;;;;;;;;;;;
3012160617;CPS_Early_Childhood_Portal_scrape.csv; Chicago Youth Centers - Shining Star;3012 E 92nd St ;;;;Head Start;HALF DAY/FULL DAY;;;;;;;;;;;;;;;;;;;;;;;
3012160617;chapin_dfss_providers_2011_070212.csv;CHICAGO YOUTH CENTERS SHINING STAR 1;3012 16 E 92ND ST ;60617;9787827;;;;;;;CHICAGO YOUTH CENTERS;SOUTH DEERING;;;;;Carol Quinn;Yes;No;No;;;;;;;;;;
3012160617;DFSS_AgencySiteLies_2012.csv;Chicago Youth Centers Shining Star 1;3012-16 E. 92nd St. ;60617;9787827;;;;;;;Chicago Youth Centers;;;;;;;;;;;www.chicagoyouthcenters.org;Harry Wells;Carol Quinn;;;;;;
3583760636;chapin_dfss_providers_2011_070212.csv;HENRY BOOTH HOUSE JELLY BEAN-358-370 E 71ST;358 370 E 71ST ;60636;8738888;;;;;;;HENRY BOOTH HOUSE;GREATER GRAND CROSSING;;;;;Donna Taylor;Yes;No;No;;;;;;;;;;
3583760636;DFSS_AgencySiteLies_2012.csv;Henry Booth House Jelly Bean-358-370 E 71st;358-370 E 71st. ;60636;8738888;;;;;;;Henry Booth House;;;;;;;;;;;www.henryboothhouse.org;Scott Perkins;Donna Taylor ;;;;;;
4301606531;CPS_Early_Childhood_Portal_scrape.csv; Ada S. McKinley Community Services - Maggie Drummond Day Care;4301 S Wabash Ave ;;3738200;;Child Care;EXTENDED DAY;;;;;;;;;;;;;;;;;;;;;;;
4301606531;CPS_Early_Childhood_Portal_scrape.csv; Ada S. McKinley Maggie Drummond;4301 S. Wabash ;;3738200;;Community Partnerships;8-11 Hours, varies by facility;;;;;;;;;;;;;;;;;;;;;;;
4301606531;CPS_Early_Childhood_Portal_scrape.csv; Ada S. McKinley Community Services - Maggie Drummond Day Care;4301 S Wabash Ave ;;3738200;;Head Start;HALF DAY/FULL DAY;;;;;;;;;;;;;;;;;;;;;;;
4301606531;CPS_Early_Childhood_Portal_scrape.csv; Ada S. McKinley Community Services - Maggie Drummond Day Care;4301 S Wabash Ave ;;3738200;;State Pre-Kindergarten;HALF DAY/FULL DAY;;;;;;;;;;;;;;;;;;;;;;;
4301606531;chapin_dfss_providers_2011_070212.csv;ADA S. MCKINLEY COMMUNITY SERVICES MCKINLEY-MAGGIE DRUMMOND;4301 S WABASH ;60653;3738200;;;;;;;ADA S. MCKINLEY COMMUNITY SERVICES;GRAND BOULEVARD;;;;;Angie Fells;Yes;No;Yes;4355IT(Child Care IT Center), 4355SA(School Age (SA)), 4355P;;;;;;;;;
4301606531;DFSS_AgencySiteLies_2012.csv;Ada S. McKinley Community Services McKinley-Maggie Drummond;4301 S. Wabash ;60653;3738200;;;;;;;Ada S. McKinley Community Services;;;;;;;;;;;www.adasmckinley.org;George Jones, Jr.;Lyris Clark;;;;;;
4301606531;purple_binder_early_childhood.csv; Ada S. McKinley Community Services - Maggie Drummond;4301 S Wabash ;60653;3738200;;;;;;;;;;;;;;;;;;;;;;;;;;Child Care
4451160653;DFSS_AgencySiteLies_2012.csv;Chicago Public Schools Woodson South, Carter G.;44511 S. Evans ;60653;5351822;;;;;;;Chicago Public Schools;;;;;;;;;;;www.cps.edu;Paula Cottone;Tamara Littlejohn ;;;;;;
4747606091;CPS_Early_Childhood_Portal_scrape.csv; Hedges;4747 S. Winchester ;;5357360;;Prekindergarten For All;3-4 hours;;;;;;;;;;;;;;;;;;;;;;;
4747606091;ECE Chicago Find a School scrape.csv; Hedges;4747 S. Winchester ;60609;5357360;;;;;;New City;;;;;;;;;;;;;PFA-REG TS;;;;;;;
4800661265;IDHS_child_care_provider_list.csv; Skip-A-Long Daycare Center, Inc.;4800-60th Street Moline;61265;7648110;(309) 764-8281;;;7108-7395-5433-001;;;;;;;;;;;;;;;;;;;;;;
4892761244;IDHS_child_care_provider_list.csv; East Moline Citizens for Comm. Center;489-27th Street, East Moline;61244;7555031;(309) 755-5036;;;2987-4157-5433-004;;;;;;;;;;;;;;;;;;;;;;
7237260619;CPS_Early_Childhood_Portal_scrape.csv; Henry Booth House - Love N Learn Academy;723 E 75th St ;;7230338;;Head Start;HALF DAY/FULL DAY;;;;;;;;;;;;;;;;;;;;;;;
7237260619;chapin_dfss_providers_2011_070212.csv;HENRY BOOTH HOUSE LOVE N LEARN ACADEMY;723 725 E 75TH STREET ;60619;7230338;;;;;;;HENRY BOOTH HOUSE;GREATER GRAND CROSSING;;;;;Ms. Blanton & Ms. Johnson;Yes;No;No;;;;;;;;;;
7237260619;DFSS_AgencySiteLies_2012.csv;Henry Booth House Love N Learn Academy;723-725 E 75TH St. ;60619;7230338;;;;;;;Henry Booth House;;;;;;;;;;;www.henryboothhouse.org;Scott Perkins;Ms. Blanton & Ms. Johnson;;;;;;
9208960619;NAEYC_accreditation.csv; Chesterfield Tom Thumb Day Care Center & Kindergarten;9208-9214 South Cottage Grove  ;60619;8743985;;;;;;;;;;;;;;;;;;;;;;09/30/13;564164;brittsavage@sbcglobal.net;;
